Date_Time,MWh,station,tmpf,dwpf,relh,drct,sknt,alti,mslp,vsby,gust,feel,skyc1
2020-01-01 00:00:00,37460.838975,FST,41.0,30.9,67.03,180.0,11.0,30.06,1015.8,10.0,,35.2,CLR
2020-01-01 01:00:00,36824.115099,FST,41.0,30.9,67.03,180.0,9.0,30.05,1015.3,10.0,,35.75,CLR
2020-01-01 02:00:00,36531.366488,FST,39.0,30.9,72.45,170.0,8.0,30.04,1014.5,10.0,,33.96,SCT
2020-01-01 03:00:00,36072.16502,FST,39.0,30.0,69.85,190.0,7.0,30.02,1014.0,10.0,,34.71,OVC
2020-01-01 04:00:00,35836.161867,FST,37.9,30.0,72.93,180.0,7.0,30.0,1013.6,10.0,,32.64,CLR
2020-01-01 05:00:00,35998.542722,FST,37.9,28.9,69.73,190.0,8.0,29.99,1012.9,10.0,,31.97,CLR
2020-01-01 06:00:00,36487.035645,FST,39.9,27.0,59.65,210.0,9.0,29.97,1012.2,10.0,,36.65,CLR
2020-01-01 07:00:00,37099.051655,FST,37.9,28.0,67.2,200.0,5.0,29.95,1012.4,10.0,,,CLR
2020-01-01 08:00:00,37448.435337,FST,41.0,28.0,59.55,210.0,4.0,29.95,1012.1,10.0,,37.93,CLR
2020-01-01 09:00:00,37988.181062,FST,45.0,28.9,53.0,220.0,11.0,29.95,1012.3,10.0,,40.13,CLR
2020-01-01 10:00:00,39005.532595,FST,48.0,30.0,49.49,230.0,10.0,29.97,1012.8,10.0,,43.41,CLR
2020-01-01 11:00:00,40011.210673,FST,51.1,30.0,44.09,230.0,10.0,29.96,1012.6,10.0,,,CLR
2020-01-01 12:00:00,40405.057113,FST,55.9,28.9,35.36,230.0,10.0,29.96,1011.1,10.0,,,CLR
2020-01-01 13:00:00,40320.725177,FST,57.9,28.9,32.9,240.0,10.0,29.92,1009.3,10.0,,,CLR
2020-01-01 14:00:00,39905.447776,FST,60.1,27.0,28.13,260.0,9.0,29.87,1007.8,10.0,,,CLR
2020-01-01 15:00:00,39384.852861,FST,60.1,27.0,28.13,270.0,7.0,29.83,1007.1,10.0,,,CLR
2020-01-01 16:00:00,39038.271821,FST,60.1,27.0,28.13,270.0,7.0,29.8,1006.4,10.0,,,CLR
2020-01-01 17:00:00,39255.080489,FST,57.0,28.0,32.75,330.0,5.0,29.79,1005.9,10.0,,,CLR
2020-01-01 18:00:00,40736.82994,FST,54.0,28.0,36.52,270.0,6.0,29.77,1005.9,10.0,,,CLR
2020-01-01 19:00:00,41737.743128,FST,53.1,28.0,37.74,220.0,5.0,29.77,1005.5,10.0,,,CLR
2020-01-01 20:00:00,41273.480684,FST,52.0,27.0,37.72,190.0,9.0,29.75,1004.6,10.0,,,CLR
2020-01-01 21:00:00,40551.189171,FST,53.1,27.0,36.22,220.0,16.0,29.75,1004.4,10.0,,,CLR
2020-01-01 22:00:00,39382.303166,FST,53.1,27.0,36.22,230.0,18.0,29.73,1003.7,10.0,17.0,,CLR
2020-01-01 23:00:00,37563.3057,FST,52.0,27.0,37.72,230.0,19.0,29.72,1003.3,10.0,,,CLR
2020-01-02 00:00:00,35603.631407,FST,52.0,26.1,36.34,240.0,17.0,29.72,1001.8,10.0,22.0,,CLR
2020-01-02 01:00:00,34151.028287,FST,52.0,26.1,36.34,240.0,17.0,29.68,1001.5,10.0,20.0,,CLR
2020-01-02 02:00:00,33204.504063,FST,51.1,27.0,38.99,230.0,17.0,29.66,1001.0,10.0,20.0,,CLR
2020-01-02 03:00:00,32658.810864,FST,51.1,27.0,38.99,220.0,15.0,29.65,1000.0,10.0,20.0,,CLR
2020-01-02 04:00:00,32639.905204,FST,48.9,28.0,44.1,230.0,19.0,29.62,999.7,10.0,,44.53,CLR
2020-01-02 05:00:00,33313.146671,FST,48.0,28.0,45.61,250.0,10.0,29.61,999.5,10.0,,43.41,CLR
2020-01-02 06:00:00,34942.492488,FST,46.9,28.0,47.54,230.0,12.0,29.61,999.9,10.0,,40.97,CLR
2020-01-02 07:00:00,37070.516246,FST,46.9,28.0,47.54,230.0,13.0,29.62,1000.5,10.0,,41.65,CLR
2020-01-02 08:00:00,38651.451808,FST,46.0,28.0,49.18,230.0,13.0,29.62,1000.5,10.0,,39.5,CLR
2020-01-02 09:00:00,39115.172738,FST,50.0,28.9,43.92,240.0,16.0,29.66,1001.5,10.0,,44.36,CLR
2020-01-02 10:00:00,39527.372478,FST,53.1,30.0,40.96,250.0,17.0,29.67,1002.0,10.0,,,CLR
2020-01-02 11:00:00,39860.83526,FST,57.0,32.0,38.54,260.0,16.0,29.68,1001.2,10.0,17.0,,OVC
2020-01-02 12:00:00,39852.138623,FST,57.0,33.1,40.28,280.0,17.0,29.65,1000.5,10.0,21.0,,SCT
2020-01-02 13:00:00,39570.07653,FST,52.0,39.9,63.24,250.0,22.0,29.64,1000.5,10.0,26.0,,BKN
2020-01-02 14:00:00,39319.896118,FST,55.9,39.0,52.94,230.0,20.0,29.63,999.5,10.0,25.0,,BKN
2020-01-02 15:00:00,38907.993737,FST,55.9,37.9,50.71,250.0,22.0,29.6,999.4,10.0,23.0,,FEW
2020-01-02 16:00:00,38571.27757,FST,53.1,34.0,48.13,280.0,23.0,29.62,1000.4,10.0,29.0,,BKN
2020-01-02 17:00:00,38604.130006,FST,53.1,33.1,46.42,280.0,24.0,29.65,1001.4,10.0,31.0,,FEW
2020-01-02 18:00:00,39694.177016,FST,52.0,33.1,48.34,300.0,19.0,29.68,1002.5,10.0,,,BKN
2020-01-02 19:00:00,41077.231222,FST,51.1,34.0,51.81,290.0,17.0,29.71,1003.6,10.0,24.0,,BKN
2020-01-02 20:00:00,40731.480649,FST,50.0,35.1,56.39,290.0,19.0,29.74,1004.8,10.0,22.0,44.36,FEW
2020-01-02 21:00:00,40179.219865,FST,48.0,36.0,62.97,290.0,20.0,29.78,1006.0,10.0,24.0,41.04,OVC
2020-01-02 22:00:00,39226.111213,FST,45.0,35.1,68.05,290.0,20.0,29.81,1007.2,10.0,25.0,36.86,FEW
2020-01-02 23:00:00,37620.040824,FST,46.0,37.0,70.64,290.0,17.0,29.84,1007.9,10.0,22.0,39.82,FEW
2020-01-03 00:00:00,35828.325077,FST,46.0,36.0,67.9,290.0,17.0,29.87,1008.9,10.0,21.0,39.21,OVC
2020-01-03 01:00:00,34564.613561,FST,45.0,36.0,70.53,290.0,16.0,29.88,1009.6,10.0,21.0,39.68,BKN
2020-01-03 02:00:00,33758.910328,FST,44.1,36.0,72.99,330.0,13.0,29.9,1010.1,10.0,,37.4,OVC
2020-01-03 03:00:00,33419.493194,FST,43.0,37.0,79.19,320.0,15.0,29.93,1011.3,10.0,16.0,35.66,BKN
2020-01-03 04:00:00,33529.851479,FST,42.1,37.0,81.98,330.0,15.0,29.97,,10.0,,34.51,OVC
2020-01-03 05:00:00,34275.835756,FST,41.0,39.0,92.52,320.0,16.0,29.99,1013.7,10.0,,33.1,OVC
2020-01-03 06:00:00,36127.221995,FST,39.9,39.0,96.55,320.0,11.0,30.02,1014.9,10.0,,33.34,FEW
2020-01-03 07:00:00,38469.206106,FST,39.9,39.0,96.55,320.0,13.0,30.06,1016.0,10.0,,33.34,FEW
2020-01-03 08:00:00,40194.924517,FST,39.9,39.0,96.55,320.0,10.0,30.09,1017.4,10.0,,32.87,SCT
2020-01-03 09:00:00,40702.749075,FST,41.0,39.0,96.55,320.0,11.0,30.15,1019.2,9.0,,34.25,OVC
2020-01-03 10:00:00,40654.922797,FST,41.0,39.9,95.82,330.0,14.0,30.19,1020.8,10.0,,34.7,SCT
2020-01-03 11:00:00,40371.279886,FST,43.0,39.9,95.82,330.0,13.0,30.21,1021.3,10.0,,37.19,SCT
2020-01-03 12:00:00,39709.339444,FST,44.1,39.0,85.66,340.0,9.0,30.22,1021.7,10.0,,38.56,FEW
2020-01-03 13:00:00,38974.612509,FST,45.0,39.0,79.36,320.0,10.0,30.22,1021.4,10.0,,39.68,SCT
2020-01-03 14:00:00,38423.433744,FST,46.9,39.0,73.85,290.0,11.0,30.21,1020.8,10.0,,41.3,FEW
2020-01-03 15:00:00,38006.256602,FST,50.0,37.0,60.79,290.0,11.0,30.2,1020.8,10.0,,45.54,OVC
2020-01-03 16:00:00,37716.577607,FST,51.1,35.1,54.13,320.0,10.0,30.2,1021.0,10.0,,,FEW
2020-01-03 17:00:00,37691.001313,FST,50.0,34.0,53.97,310.0,11.0,30.22,1021.3,10.0,,47.77,SCT
2020-01-03 18:00:00,38896.9885,FST,48.0,34.0,58.16,290.0,9.0,30.24,1022.4,10.0,,45.4,CLR
2020-01-03 19:00:00,40642.145238,FST,44.1,34.0,67.41,270.0,5.0,30.25,1023.1,10.0,,41.55,CLR
2020-01-03 20:00:00,40655.268856,FST,39.9,33.1,76.44,240.0,5.0,30.27,1024.0,10.0,,36.65,CLR
2020-01-03 21:00:00,40505.544577,FST,39.9,33.1,76.44,210.0,7.0,30.28,1024.2,10.0,,34.41,CLR
2020-01-03 22:00:00,40053.302931,FST,41.0,34.0,75.94,210.0,10.0,30.29,1024.7,10.0,,34.25,CLR
2020-01-03 23:00:00,39028.494487,FST,39.0,33.1,79.17,220.0,11.0,30.3,1025.0,10.0,,31.31,CLR
2020-01-04 00:00:00,37829.273846,FST,39.0,32.0,75.75,220.0,11.0,30.31,1025.0,10.0,,31.31,CLR
2020-01-04 01:00:00,36844.526883,FST,37.9,28.9,69.73,220.0,11.0,30.31,1024.9,10.0,,29.92,CLR
2020-01-04 02:00:00,36365.937491,FST,37.0,27.0,66.82,220.0,12.0,30.31,1025.1,10.0,,28.37,CLR
2020-01-04 03:00:00,36314.906046,FST,37.0,27.0,66.82,220.0,13.0,30.31,1024.9,10.0,,28.37,CLR
2020-01-04 04:00:00,36721.313843,FST,37.0,26.1,64.38,220.0,11.0,30.31,1025.1,10.0,,28.79,CLR
2020-01-04 05:00:00,37460.441083,FST,37.0,25.0,61.5,220.0,11.0,30.31,1025.1,10.0,,28.79,CLR
2020-01-04 06:00:00,38869.036549,FST,37.9,24.1,57.18,220.0,11.0,30.32,1025.5,10.0,,29.92,CLR
2020-01-04 07:00:00,40780.65864,FST,37.9,23.0,54.6,220.0,11.0,30.35,1026.4,10.0,,29.92,CLR
2020-01-04 08:00:00,42442.355049,FST,37.0,23.0,56.57,220.0,11.0,30.36,1027.1,10.0,,29.24,CLR
2020-01-04 09:00:00,42975.285925,FST,42.1,23.0,46.37,220.0,11.0,30.39,1027.8,10.0,,35.23,CLR
2020-01-04 10:00:00,42024.806185,FST,48.9,24.1,37.52,220.0,11.0,30.41,1028.2,10.0,,43.82,CLR
2020-01-04 11:00:00,40565.634504,FST,55.0,25.0,31.11,220.0,11.0,30.42,1028.3,10.0,,,CLR
2020-01-04 12:00:00,39039.924676,FST,59.0,21.0,22.76,250.0,8.0,30.42,1027.4,10.0,,,CLR
2020-01-04 13:00:00,37682.723627,FST,61.0,21.0,21.19,310.0,5.0,30.39,1026.0,10.0,,,CLR
2020-01-04 14:00:00,36499.810866,FST,63.0,21.0,19.75,240.0,7.0,30.35,1024.7,10.0,,,CLR
2020-01-04 15:00:00,35849.868835,FST,64.0,21.0,19.07,260.0,5.0,30.32,1024.0,10.0,,,CLR
2020-01-04 16:00:00,35584.646706,FST,64.9,21.9,19.19,290.0,7.0,30.3,1023.5,10.0,,,CLR
2020-01-04 17:00:00,35571.291179,FST,66.0,21.9,18.47,190.0,9.0,30.29,1022.9,10.0,,,CLR
2020-01-04 18:00:00,36644.429084,FST,62.1,24.1,23.23,210.0,11.0,30.29,1023.5,10.0,,,CLR
2020-01-04 19:00:00,38444.786929,FST,57.0,24.1,27.86,320.0,8.0,30.3,1024.2,10.0,,,CLR
2020-01-04 20:00:00,38888.714621,FST,48.0,27.0,43.77,340.0,6.0,30.3,1024.9,10.0,,44.8,CLR
2020-01-04 21:00:00,39007.928144,FST,46.9,27.0,45.62,220.0,11.0,30.3,1024.4,10.0,,41.3,CLR
2020-01-04 22:00:00,38895.013269,FST,48.0,26.1,42.17,230.0,11.0,30.3,1023.7,10.0,,42.69,CLR
2020-01-04 23:00:00,38138.271266,FST,48.9,24.1,37.52,240.0,11.0,30.3,1023.7,10.0,,43.82,CLR
2020-01-05 00:00:00,37206.673647,FST,50.0,24.1,36.01,230.0,14.0,30.3,1023.5,10.0,,44.36,CLR
2020-01-05 01:00:00,36361.992048,FST,48.0,25.0,40.29,230.0,14.0,30.3,1023.1,10.0,,42.69,CLR
2020-01-05 02:00:00,35766.671912,FST,45.0,26.1,47.23,220.0,11.0,30.29,1023.0,10.0,,38.89,CLR
2020-01-05 03:00:00,35587.154436,FST,46.0,24.1,41.84,220.0,11.0,30.29,1022.6,10.0,,40.16,CLR
2020-01-05 04:00:00,35667.994319,FST,46.0,23.0,39.96,220.0,11.0,30.27,1022.5,10.0,,40.52,CLR
2020-01-05 05:00:00,36149.634768,FST,46.0,24.1,41.84,230.0,11.0,30.28,1022.6,10.0,,40.16,CLR
2020-01-05 06:00:00,37041.355259,FST,48.9,23.0,35.83,230.0,13.0,30.28,1022.7,10.0,,43.22,CLR
2020-01-05 07:00:00,38316.610964,FST,46.0,23.0,39.96,240.0,11.0,30.29,1023.5,10.0,,40.52,CLR
2020-01-05 08:00:00,39548.22268,FST,46.9,23.0,38.62,230.0,11.0,30.33,1025.0,10.0,,42.04,CLR
2020-01-05 09:00:00,39775.006941,FST,52.0,24.1,33.44,230.0,11.0,30.35,1025.8,10.0,,,CLR
2020-01-05 10:00:00,38946.057736,FST,57.0,27.0,31.43,360.0,10.0,30.39,1026.9,10.0,,,CLR
2020-01-05 11:00:00,37773.230515,FST,55.9,28.0,34.08,360.0,8.0,30.42,1027.6,10.0,,,CLR
2020-01-05 12:00:00,36621.685611,FST,60.1,26.1,27.1,360.0,9.0,30.41,1026.6,10.0,,,CLR
2020-01-05 13:00:00,35905.011099,FST,63.0,27.0,25.38,350.0,11.0,30.39,1025.0,10.0,,,CLR
2020-01-05 14:00:00,35279.985085,FST,64.0,25.0,22.56,360.0,11.0,30.34,1023.1,10.0,,,CLR
2020-01-05 15:00:00,34925.134306,FST,64.0,24.1,21.73,360.0,8.0,30.28,1022.3,10.0,,,CLR
2020-01-05 16:00:00,34832.817936,FST,66.0,24.1,20.26,360.0,7.0,30.26,1021.7,10.0,,,CLR
2020-01-05 17:00:00,35041.985879,FST,66.0,24.1,20.26,360.0,5.0,30.25,1021.8,10.0,,,CLR
2020-01-05 18:00:00,36191.333552,FST,61.0,26.1,26.25,100.0,5.0,30.26,1021.6,10.0,,,CLR
2020-01-05 19:00:00,38201.798129,FST,53.1,26.1,34.9,100.0,5.0,30.25,1022.0,10.0,,,CLR
2020-01-05 20:00:00,38249.472469,FST,51.1,27.0,38.99,130.0,5.0,30.24,1022.0,10.0,,,CLR
2020-01-05 21:00:00,37871.996213,FST,46.9,27.0,45.62,170.0,8.0,30.24,1021.5,10.0,,42.47,CLR
2020-01-05 22:00:00,37356.810214,FST,48.0,26.1,42.17,170.0,8.0,30.23,1021.2,10.0,,44.28,CLR
2020-01-05 23:00:00,35889.468461,FST,48.9,26.1,40.77,180.0,9.0,30.22,1020.9,10.0,,45.38,CLR
2020-01-06 00:00:00,34277.000679,FST,45.0,27.0,49.02,180.0,8.0,30.22,1020.3,10.0,,40.63,CLR
2020-01-06 01:00:00,33414.248116,FST,45.0,26.1,47.23,180.0,9.0,30.2,1019.4,10.0,,41.19,CLR
2020-01-06 02:00:00,33078.126419,FST,45.0,26.1,47.23,200.0,9.0,30.17,1018.4,10.0,,40.63,CLR
2020-01-06 03:00:00,33245.68386,FST,46.0,26.1,45.47,210.0,10.0,30.15,1017.9,10.0,,40.92,CLR
2020-01-06 04:00:00,33903.680365,FST,45.0,26.1,47.23,210.0,11.0,30.13,1017.1,10.0,,39.27,CLR
2020-01-06 05:00:00,35324.083034,FST,48.9,24.1,37.52,220.0,13.0,30.11,1016.3,10.0,,44.16,CLR
2020-01-06 06:00:00,38143.499455,FST,48.0,24.1,38.8,220.0,16.0,30.09,1015.8,10.0,,41.52,CLR
2020-01-06 07:00:00,41966.32856,FST,51.1,24.1,34.57,230.0,15.0,30.1,1016.7,10.0,,,CLR
2020-01-06 08:00:00,43890.290608,FST,43.0,25.0,48.7,330.0,8.0,30.13,1018.6,10.0,,,CLR
2020-01-06 09:00:00,43465.324636,FST,46.9,26.1,43.95,350.0,8.0,30.18,1020.2,10.0,,42.94,CLR
2020-01-06 10:00:00,42027.434376,FST,53.1,26.1,34.9,320.0,11.0,30.23,1021.5,10.0,,,CLR
2020-01-06 11:00:00,40898.004972,FST,60.1,27.0,28.13,330.0,21.0,30.25,1021.8,10.0,25.0,,CLR
2020-01-06 12:00:00,39876.079769,FST,62.1,24.1,23.23,340.0,21.0,30.27,1022.3,10.0,,,CLR
2020-01-06 13:00:00,39109.649498,FST,59.0,24.1,25.93,340.0,19.0,30.26,1022.0,10.0,,,CLR
2020-01-06 14:00:00,38894.359373,FST,62.1,19.9,19.45,320.0,22.0,30.24,1020.7,10.0,25.0,,CLR
2020-01-06 15:00:00,38826.627987,FST,64.0,18.0,16.77,320.0,18.0,30.22,1020.6,10.0,21.0,,CLR
2020-01-06 16:00:00,38702.343835,FST,64.9,12.0,12.51,330.0,18.0,30.23,1021.0,10.0,20.0,,CLR
2020-01-06 17:00:00,38543.360522,FST,64.0,10.9,12.3,350.0,18.0,30.25,1021.6,10.0,23.0,,CLR
2020-01-06 18:00:00,39293.458593,FST,59.0,12.9,16.03,350.0,16.0,30.27,1022.6,10.0,,,CLR
2020-01-06 19:00:00,40933.014107,FST,52.0,16.0,23.68,360.0,9.0,30.31,1024.1,10.0,,,CLR
2020-01-06 20:00:00,40707.067527,FST,48.9,19.0,30.24,360.0,5.0,30.36,1026.4,10.0,,46.47,CLR
2020-01-06 21:00:00,40100.910299,FST,46.9,19.9,33.87,60.0,8.0,30.38,1027.1,10.0,,44.09,CLR
2020-01-06 22:00:00,38939.482571,FST,46.9,19.0,32.59,120.0,5.0,30.39,1027.1,10.0,,44.09,CLR
2020-01-06 23:00:00,36970.715957,FST,43.0,19.0,37.81,160.0,7.0,30.41,1027.6,10.0,,38.78,CLR
2020-01-07 00:00:00,35063.478609,FST,39.9,19.9,44.29,170.0,7.0,30.42,1027.9,10.0,,35.78,CLR
2020-01-07 01:00:00,33961.291106,FST,39.0,19.9,45.87,190.0,9.0,30.42,1028.0,10.0,,32.22,CLR
2020-01-07 02:00:00,33543.405844,FST,37.9,19.9,47.89,200.0,8.0,30.41,1027.5,10.0,,31.97,CLR
2020-01-07 03:00:00,33675.394336,FST,37.0,19.9,49.61,210.0,7.0,30.4,1027.4,10.0,,30.87,CLR
2020-01-07 04:00:00,34183.492392,FST,36.0,19.9,51.61,220.0,13.0,30.4,1027.2,10.0,,27.52,CLR
2020-01-07 05:00:00,35740.036028,FST,36.0,19.9,51.61,220.0,13.0,30.4,1027.2,10.0,,27.09,CLR
2020-01-07 06:00:00,38857.326142,FST,37.9,19.0,46.08,220.0,13.0,30.39,1027.2,10.0,,29.51,CLR
2020-01-07 07:00:00,43305.296319,FST,39.0,19.0,44.14,210.0,13.0,30.39,1027.6,10.0,,30.91,CLR
2020-01-07 08:00:00,45204.182373,FST,36.0,19.0,49.66,220.0,13.0,30.41,1028.3,10.0,,26.69,CLR
2020-01-07 09:00:00,44293.173141,FST,39.9,19.0,42.62,220.0,13.0,30.43,1029.2,10.0,,32.87,CLR
2020-01-07 10:00:00,42613.441449,FST,48.9,21.9,34.2,220.0,8.0,30.46,1029.6,10.0,,47.16,CLR
2020-01-07 11:00:00,41168.627088,FST,53.1,21.9,29.28,50.0,5.0,30.47,1029.7,10.0,,,CLR
2020-01-07 12:00:00,39926.014099,FST,57.9,6.1,12.3,160.0,16.0,30.46,1028.4,10.0,19.0,,CLR
2020-01-07 13:00:00,38904.965794,FST,59.0,5.0,11.24,170.0,16.0,30.42,1026.5,10.0,20.0,,CLR
2020-01-07 14:00:00,38350.516092,FST,61.0,6.1,11.01,170.0,16.0,30.37,1025.3,10.0,22.0,,CLR
2020-01-07 15:00:00,37862.334484,FST,62.1,5.0,10.07,180.0,15.0,30.33,1024.6,10.0,,,CLR
2020-01-07 16:00:00,37552.103781,FST,61.0,5.0,10.47,170.0,14.0,30.31,1024.1,10.0,18.0,,CLR
2020-01-07 17:00:00,37664.117045,FST,60.1,8.1,12.45,150.0,13.0,30.3,1023.7,10.0,,,CLR
2020-01-07 18:00:00,38697.218692,FST,57.0,12.0,16.56,150.0,13.0,30.29,1023.5,10.0,,,CLR
2020-01-07 19:00:00,41170.942533,FST,51.1,12.0,20.54,150.0,11.0,30.28,1023.8,10.0,,,CLR
2020-01-07 20:00:00,41691.936711,FST,46.9,10.9,22.89,160.0,11.0,30.28,1023.9,10.0,,41.65,CLR
2020-01-07 21:00:00,41976.526444,FST,48.0,8.1,19.37,160.0,13.0,30.28,1024.0,10.0,17.0,42.37,CLR
2020-01-07 22:00:00,41367.003816,FST,46.0,7.0,19.87,160.0,14.0,30.29,1023.4,10.0,,39.5,CLR
2020-01-07 23:00:00,39822.672,FST,45.0,8.1,21.69,160.0,13.0,30.28,1023.2,10.0,,38.22,CLR
2020-01-08 00:00:00,38186.506596,FST,43.0,9.0,24.39,160.0,14.0,30.27,1022.2,10.0,,36.0,CLR
2020-01-08 01:00:00,37344.457644,FST,39.9,10.9,29.92,160.0,13.0,30.25,1021.5,10.0,,33.84,CLR
2020-01-08 02:00:00,37180.050774,FST,39.9,10.9,29.92,170.0,11.0,30.22,1020.9,10.0,,33.84,CLR
2020-01-08 03:00:00,37492.167197,FST,37.0,12.0,35.2,170.0,8.0,30.21,1020.5,10.0,,30.87,CLR
2020-01-08 04:00:00,38206.429985,FST,39.0,12.0,32.54,160.0,9.0,30.2,1019.7,10.0,,32.74,CLR
2020-01-08 05:00:00,39790.854484,FST,39.0,12.0,32.54,160.0,11.0,30.17,1019.1,10.0,,31.75,CLR
2020-01-08 06:00:00,43004.791951,FST,37.9,12.0,33.97,170.0,11.0,30.15,1018.8,10.0,,30.37,CLR
2020-01-08 07:00:00,47526.738558,FST,37.0,12.0,35.2,160.0,11.0,30.15,1019.0,10.0,,30.87,CLR
2020-01-08 08:00:00,49057.055209,FST,39.9,12.9,32.7,170.0,13.0,30.14,1018.9,10.0,,33.34,CLR
2020-01-08 09:00:00,47446.784795,FST,43.0,15.1,31.94,170.0,11.0,30.13,1018.2,10.0,,37.66,CLR
2020-01-08 10:00:00,45069.339412,FST,55.0,18.0,23.13,180.0,13.0,30.13,1017.9,10.0,,,CLR
2020-01-08 11:00:00,43051.395356,FST,57.9,17.1,20.03,180.0,14.0,30.13,1017.8,10.0,,,CLR
2020-01-08 12:00:00,41434.270743,FST,63.0,21.0,19.75,150.0,11.0,30.12,1015.8,10.0,,,CLR
2020-01-08 13:00:00,40091.40679,FST,66.9,23.0,18.76,180.0,21.0,30.06,1013.6,10.0,27.0,,CLR
2020-01-08 14:00:00,39251.412063,FST,68.0,24.1,18.91,180.0,19.0,30.01,1012.2,10.0,,,CLR
2020-01-08 15:00:00,38610.235992,FST,72.0,24.1,16.5,210.0,17.0,29.96,1011.1,10.0,22.0,,CLR
2020-01-08 16:00:00,38247.084635,FST,71.1,24.1,17.01,210.0,15.0,29.94,1010.6,10.0,,,CLR
2020-01-08 17:00:00,38555.04482,FST,70.0,24.1,17.66,180.0,16.0,29.92,1010.4,10.0,18.0,,CLR
2020-01-08 18:00:00,39939.943003,FST,61.0,26.1,26.25,180.0,17.0,29.94,1011.4,10.0,26.0,,CLR
2020-01-08 19:00:00,41957.119585,FST,57.9,30.0,34.41,160.0,18.0,29.95,1012.1,10.0,27.0,,CLR
2020-01-08 20:00:00,41886.29873,FST,55.0,33.1,43.31,160.0,18.0,29.96,1012.3,10.0,,,CLR
2020-01-08 21:00:00,41297.876887,FST,53.1,39.0,58.64,160.0,16.0,29.96,1012.2,10.0,,,CLR
2020-01-08 22:00:00,39761.030518,FST,52.0,42.1,68.86,160.0,16.0,29.95,1011.5,10.0,,,CLR
2020-01-08 23:00:00,37346.883444,FST,52.0,43.0,71.28,160.0,16.0,29.95,1011.0,10.0,23.0,,CLR
2020-01-09 00:00:00,34876.983637,FST,51.1,43.0,73.69,160.0,17.0,29.94,1010.6,10.0,20.0,,CLR
2020-01-09 01:00:00,33272.430414,FST,51.1,43.0,73.69,160.0,16.0,29.93,1009.7,10.0,,,CLR
2020-01-09 02:00:00,32293.892749,FST,51.1,42.1,71.19,160.0,16.0,29.91,1009.2,10.0,20.0,,CLR
2020-01-09 03:00:00,31803.952297,FST,50.0,41.0,71.07,150.0,9.0,29.91,1009.3,10.0,,45.9,CLR
2020-01-09 04:00:00,31542.34499,FST,50.0,39.0,65.75,170.0,14.0,29.91,1009.3,10.0,,47.21,CLR
2020-01-09 05:00:00,32167.062522,FST,51.1,36.0,56.1,180.0,11.0,29.9,1009.2,10.0,,,CLR
2020-01-09 06:00:00,34184.468323,FST,51.1,34.0,51.81,190.0,11.0,29.91,1009.9,10.0,,,CLR
2020-01-09 07:00:00,37535.866725,FST,48.0,34.0,58.16,210.0,10.0,29.93,1010.8,10.0,,,CLR
2020-01-09 08:00:00,38816.128861,FST,51.1,28.0,40.63,230.0,11.0,29.94,1011.4,10.0,,,CLR
2020-01-09 09:00:00,38627.916819,FST,48.0,28.0,45.61,230.0,11.0,29.97,1012.4,10.0,,45.4,CLR
2020-01-09 10:00:00,38836.721537,FST,57.0,27.0,31.43,230.0,11.0,29.98,1012.6,10.0,,,CLR
2020-01-09 11:00:00,39150.854872,FST,64.9,26.1,22.88,230.0,11.0,29.99,1012.3,10.0,15.0,,CLR
2020-01-09 12:00:00,39300.036348,FST,69.1,21.9,16.6,0.0,0.0,29.99,1011.3,10.0,,,CLR
2020-01-09 13:00:00,39301.879853,FST,71.1,19.9,14.24,270.0,4.0,29.95,1009.6,10.0,,,CLR
2020-01-09 14:00:00,39282.24565,FST,73.0,15.1,10.86,330.0,8.0,29.91,1007.8,10.0,,,CLR
2020-01-09 15:00:00,39015.146736,FST,75.9,12.9,8.95,300.0,11.0,29.86,1006.7,10.0,,,CLR
2020-01-09 16:00:00,38804.829025,FST,77.0,10.9,7.9,260.0,13.0,29.83,1006.1,10.0,,,CLR
2020-01-09 17:00:00,38845.805093,FST,75.0,9.0,7.75,240.0,13.0,29.82,1006.1,10.0,,,CLR
2020-01-09 18:00:00,39434.058586,FST,70.0,9.0,9.18,230.0,11.0,29.82,1006.4,10.0,15.0,,CLR
2020-01-09 19:00:00,40910.853438,FST,63.0,10.9,12.73,220.0,10.0,29.83,1006.9,10.0,,,CLR
2020-01-09 20:00:00,40754.641499,FST,61.0,33.1,34.91,210.0,16.0,29.83,1007.0,10.0,22.0,,CLR
2020-01-09 21:00:00,40206.911346,FST,57.9,44.1,59.98,160.0,16.0,29.83,1007.0,10.0,,,CLR
2020-01-09 22:00:00,39031.981809,FST,55.9,48.0,74.72,140.0,17.0,29.81,1006.0,10.0,23.0,,CLR
2020-01-09 23:00:00,36950.696056,FST,54.0,48.9,82.82,150.0,19.0,29.8,1005.3,10.0,24.0,,CLR
2020-01-10 00:00:00,34557.190136,FST,54.0,48.9,82.82,160.0,17.0,29.78,1004.7,10.0,21.0,,CLR
2020-01-10 01:00:00,32768.267779,FST,53.1,48.9,85.59,170.0,17.0,29.77,1004.2,10.0,20.0,,CLR
2020-01-10 02:00:00,31789.642905,FST,53.1,46.9,79.92,200.0,15.0,29.77,1004.1,10.0,,,CLR
2020-01-10 03:00:00,31135.194615,FST,48.0,43.0,82.72,210.0,13.0,29.78,1004.8,10.0,,43.82,CLR
2020-01-10 04:00:00,31012.502567,FST,45.0,32.0,60.11,250.0,9.0,29.78,1004.5,10.0,,40.13,CLR
2020-01-10 05:00:00,31493.506707,FST,45.0,30.0,55.43,250.0,10.0,29.76,1004.5,10.0,,39.68,CLR
2020-01-10 06:00:00,33218.379942,FST,45.0,26.1,47.23,210.0,9.0,29.77,1004.7,10.0,,40.13,CLR
2020-01-10 07:00:00,36493.537199,FST,44.1,23.0,42.95,230.0,10.0,29.77,1005.4,10.0,,40.1,CLR
2020-01-10 08:00:00,38092.116226,FST,39.9,23.0,50.5,200.0,5.0,29.79,1006.2,10.0,,37.72,CLR
2020-01-10 09:00:00,38329.233883,FST,45.0,33.1,62.83,210.0,8.0,29.81,1006.8,10.0,,41.83,CLR
2020-01-10 10:00:00,39087.274298,FST,55.9,21.0,25.45,290.0,4.0,29.84,1007.4,10.0,,,CLR
2020-01-10 11:00:00,39810.423531,FST,57.0,21.0,24.45,350.0,7.0,29.85,1007.9,10.0,,,CLR
2020-01-10 12:00:00,40110.026025,FST,60.1,21.0,21.88,310.0,22.0,29.85,1007.6,10.0,26.0,,FEW
2020-01-10 13:00:00,40122.520696,FST,60.1,27.0,28.13,320.0,27.0,29.84,1006.8,10.0,32.0,,CLR
2020-01-10 14:00:00,40185.05149,FST,62.1,28.9,28.33,320.0,26.0,29.82,1006.4,10.0,29.0,,CLR
2020-01-10 15:00:00,40035.349533,FST,60.1,28.0,29.31,290.0,24.0,29.81,1006.8,10.0,33.0,,CLR
2020-01-10 16:00:00,39881.516778,FST,60.1,26.1,27.1,290.0,22.0,29.82,1007.2,10.0,30.0,,CLR
2020-01-10 17:00:00,40156.680219,FST,57.0,25.0,28.93,290.0,28.0,29.86,1008.7,10.0,32.0,,FEW
2020-01-10 18:00:00,40878.21198,FST,54.0,25.0,32.26,290.0,23.0,29.9,1010.2,10.0,28.0,,CLR
2020-01-10 19:00:00,41324.438391,FST,50.0,30.0,45.93,290.0,22.0,29.95,1012.2,10.0,28.0,42.68,CLR
2020-01-10 20:00:00,40562.973211,FST,46.9,30.0,51.58,290.0,21.0,29.96,1012.5,10.0,25.0,39.59,CLR
2020-01-10 21:00:00,39505.639727,FST,46.9,28.9,49.32,280.0,19.0,29.97,1013.1,10.0,23.0,,CLR
2020-01-10 22:00:00,38484.632924,FST,46.9,28.9,49.32,290.0,20.0,30.0,1013.6,10.0,26.0,39.36,CLR
2020-01-10 23:00:00,37124.611187,FST,45.0,33.1,62.83,300.0,19.0,30.04,1014.9,10.0,26.0,36.86,FEW
2020-01-11 00:00:00,35397.080178,FST,42.1,34.0,72.78,310.0,23.0,30.07,1016.0,10.0,26.0,32.79,CLR
2020-01-11 01:00:00,33571.173974,FST,42.1,34.0,72.78,320.0,22.0,30.1,1016.9,10.0,31.0,32.55,FEW
2020-01-11 02:00:00,32568.317176,FST,39.9,34.0,79.25,340.0,22.0,30.13,1017.9,10.0,23.0,31.02,OVC
2020-01-11 03:00:00,32338.485281,FST,39.0,33.1,79.17,340.0,20.0,30.16,1019.0,10.0,21.0,30.54,FEW
2020-01-11 04:00:00,32559.453197,FST,39.9,33.1,76.44,330.0,18.0,30.17,1019.6,10.0,,31.02,BKN
2020-01-11 05:00:00,33243.727455,FST,37.9,30.0,75.56,340.0,18.0,30.19,1020.3,10.0,,27.97,OVC
2020-01-11 06:00:00,34761.190429,FST,34.0,28.9,81.37,340.0,11.0,30.2,1021.0,10.0,,27.94,BKN
2020-01-11 07:00:00,36958.629721,FST,34.0,28.9,81.37,270.0,8.0,30.21,1021.6,10.0,,26.58,SCT
2020-01-11 08:00:00,39483.323775,FST,32.0,28.0,84.98,260.0,11.0,30.23,1022.5,10.0,,24.11,BKN
2020-01-11 09:00:00,41842.589959,FST,35.1,28.9,77.88,270.0,7.0,30.23,1022.5,10.0,,28.56,CLR
2020-01-11 10:00:00,43652.008078,FST,42.1,30.9,64.24,270.0,11.0,30.24,1022.6,10.0,,35.23,CLR
2020-01-11 11:00:00,44572.90584,FST,46.0,28.9,51.03,270.0,13.0,30.25,1022.3,10.0,,41.36,CLR
2020-01-11 12:00:00,44250.413797,FST,48.9,28.0,44.1,280.0,10.0,30.23,1021.6,10.0,,45.38,CLR
2020-01-11 13:00:00,43136.009468,FST,52.0,27.0,37.72,270.0,11.0,30.21,1019.7,10.0,,,CLR
2020-01-11 14:00:00,41453.888385,FST,54.0,19.9,26.02,280.0,11.0,30.16,1018.1,10.0,15.0,,CLR
2020-01-11 15:00:00,39968.99592,FST,57.9,21.0,23.67,260.0,11.0,30.11,1016.4,10.0,,,CLR
2020-01-11 16:00:00,39011.015813,FST,60.1,18.0,19.25,230.0,11.0,30.08,1015.6,10.0,,,CLR
2020-01-11 17:00:00,38861.756247,FST,61.0,14.0,15.67,240.0,15.0,30.05,1015.5,10.0,,,CLR
2020-01-11 18:00:00,40208.582817,FST,57.0,14.0,18.08,230.0,14.0,30.05,1015.5,10.0,19.0,,CLR
2020-01-11 19:00:00,42639.717717,FST,53.1,17.1,23.85,230.0,10.0,30.04,1015.6,10.0,,,CLR
2020-01-11 20:00:00,43186.684783,FST,48.9,16.0,26.57,190.0,12.0,30.04,1015.8,10.0,,43.51,CLR
2020-01-11 21:00:00,43501.792679,FST,48.9,12.9,23.2,200.0,15.0,30.03,1015.0,10.0,,42.95,CLR
2020-01-11 22:00:00,43406.458269,FST,45.0,12.9,26.87,220.0,15.0,30.02,1015.0,10.0,,39.27,CLR
2020-01-11 23:00:00,42768.250439,FST,45.0,12.9,26.87,230.0,10.0,30.03,1014.9,10.0,,41.19,CLR
2020-01-12 00:00:00,41769.221379,FST,41.0,16.0,35.88,220.0,8.0,30.03,1015.0,10.0,,35.75,CLR
2020-01-12 01:00:00,40958.866668,FST,39.9,15.1,36.01,170.0,8.0,30.02,1014.3,10.0,,33.84,CLR
2020-01-12 02:00:00,40483.948545,FST,37.9,16.0,40.49,170.0,10.0,30.01,1013.7,10.0,,30.85,CLR
2020-01-12 03:00:00,40351.643075,FST,37.9,17.1,42.46,160.0,9.0,29.99,1013.1,10.0,,31.97,CLR
2020-01-12 04:00:00,40529.277708,FST,37.0,21.0,51.99,150.0,8.0,29.98,1012.9,10.0,,32.33,CLR
2020-01-12 05:00:00,41120.865843,FST,39.9,19.0,42.62,200.0,10.0,29.98,1012.2,10.0,,33.34,CLR
2020-01-12 06:00:00,42193.226118,FST,45.0,17.1,32.28,220.0,12.0,29.97,1012.3,10.0,,38.55,CLR
2020-01-12 07:00:00,43777.990693,FST,46.9,16.0,28.64,200.0,14.0,29.97,1012.7,10.0,,40.66,CLR
2020-01-12 08:00:00,45398.213274,FST,46.0,16.0,29.63,200.0,13.0,29.99,1013.5,10.0,,39.82,CLR
2020-01-12 09:00:00,46057.318005,FST,51.1,17.1,25.67,220.0,11.0,30.02,1014.2,10.0,,,CLR
2020-01-12 10:00:00,45439.185142,FST,57.0,18.0,21.51,230.0,14.0,30.06,1015.5,10.0,,,CLR
2020-01-12 11:00:00,43803.149513,FST,64.9,18.0,16.25,280.0,11.0,30.1,1016.6,10.0,,,CLR
2020-01-12 12:00:00,41939.902974,FST,64.0,17.1,16.14,330.0,16.0,30.1,1016.8,10.0,19.0,,CLR
2020-01-12 13:00:00,40218.544405,FST,64.0,17.1,16.14,330.0,13.0,30.1,1016.1,10.0,,,CLR
2020-01-12 14:00:00,38790.214863,FST,64.0,16.0,15.39,320.0,9.0,30.08,1015.5,10.0,,,CLR
2020-01-12 15:00:00,37450.95805,FST,66.0,17.1,15.05,320.0,9.0,30.06,1014.9,10.0,,,CLR
2020-01-12 16:00:00,36895.294366,FST,66.9,17.1,14.59,350.0,8.0,30.04,1014.7,10.0,,,CLR
2020-01-12 17:00:00,37195.679298,FST,66.0,17.1,15.05,300.0,5.0,30.04,1014.8,10.0,,,CLR
2020-01-12 18:00:00,38932.630275,FST,62.1,19.9,19.45,150.0,5.0,30.06,1015.2,10.0,,,CLR
2020-01-12 19:00:00,41298.67972,FST,55.9,23.0,27.69,150.0,7.0,30.07,1015.9,10.0,,,CLR
2020-01-12 20:00:00,41565.732628,FST,50.0,25.0,37.39,160.0,10.0,30.09,1016.8,10.0,,45.9,CLR
2020-01-12 21:00:00,41182.053203,FST,48.9,25.0,38.95,160.0,11.0,30.09,1016.7,10.0,,43.82,CLR
2020-01-12 22:00:00,40230.996902,FST,46.9,23.0,38.62,170.0,11.0,30.1,1016.8,10.0,,41.65,CLR
2020-01-12 23:00:00,38226.042901,FST,46.0,21.9,38.15,180.0,11.0,30.1,1016.4,10.0,,40.16,CLR
2020-01-13 00:00:00,36316.508883,FST,43.0,21.9,42.77,180.0,11.0,30.1,1016.6,10.0,,36.76,CLR
2020-01-13 01:00:00,35022.169224,FST,43.0,21.0,41.17,170.0,11.0,30.09,1015.8,10.0,,37.19,CLR
2020-01-13 02:00:00,34411.282765,FST,44.1,23.0,42.95,160.0,10.0,30.07,1015.2,10.0,,39.53,CLR
2020-01-13 03:00:00,34261.520563,FST,42.1,21.0,42.62,170.0,7.0,30.06,1015.0,10.0,,37.69,CLR
2020-01-13 04:00:00,34586.16375,FST,41.0,19.0,40.83,280.0,8.0,30.05,1015.1,10.0,,,CLR
2020-01-13 05:00:00,35810.93088,FST,39.0,21.0,48.06,210.0,8.0,30.05,1014.6,10.0,,33.31,CLR
2020-01-13 06:00:00,38393.430979,FST,41.0,21.9,46.19,170.0,13.0,30.04,1014.7,10.0,,33.84,CLR
2020-01-13 07:00:00,42175.049178,FST,39.0,21.9,49.93,160.0,10.0,30.05,1015.5,10.0,,31.75,CLR
2020-01-13 08:00:00,43503.154335,FST,42.1,25.0,50.42,170.0,13.0,30.06,1016.1,10.0,,35.23,CLR
2020-01-13 09:00:00,43052.759448,FST,44.1,28.9,54.85,180.0,11.0,30.08,1016.7,10.0,,39.53,CLR
2020-01-13 10:00:00,42857.81187,FST,54.0,23.0,29.67,330.0,8.0,30.1,1017.0,10.0,,,CLR
2020-01-13 11:00:00,42575.451771,FST,60.1,23.0,23.81,360.0,5.0,30.11,1017.1,10.0,,,CLR
2020-01-13 12:00:00,42125.944464,FST,69.1,21.0,15.98,230.0,11.0,30.11,1016.6,10.0,,,CLR
2020-01-13 13:00:00,41514.529831,FST,75.0,17.1,11.07,230.0,14.0,30.1,1015.2,10.0,17.0,,CLR
2020-01-13 14:00:00,40995.313603,FST,75.0,16.0,10.56,250.0,13.0,30.07,1014.5,10.0,16.0,,CLR
2020-01-13 15:00:00,40444.90442,FST,75.0,12.9,9.22,270.0,11.0,30.05,1014.3,10.0,,,CLR
2020-01-13 16:00:00,40020.380883,FST,75.0,14.0,9.68,270.0,7.0,30.04,1014.3,10.0,,,CLR
2020-01-13 17:00:00,40258.164015,FST,73.9,18.0,11.95,210.0,5.0,30.05,1014.7,10.0,,,CLR
2020-01-13 18:00:00,41360.750561,FST,70.0,18.0,13.63,170.0,4.0,30.05,1014.9,10.0,,,CLR
2020-01-13 19:00:00,42517.737855,FST,60.1,16.0,17.66,230.0,7.0,30.07,1015.8,10.0,,,CLR
2020-01-13 20:00:00,41885.467813,FST,57.9,15.1,18.37,220.0,11.0,30.09,1016.7,10.0,,,CLR
2020-01-13 21:00:00,40944.001423,FST,55.9,9.0,15.07,220.0,13.0,30.11,1017.3,10.0,,,CLR
2020-01-13 22:00:00,39363.376928,FST,53.1,9.0,16.69,220.0,14.0,30.12,1017.3,10.0,,,CLR
2020-01-13 23:00:00,36999.605502,FST,53.1,10.9,18.17,210.0,14.0,30.12,1017.1,10.0,,,CLR
2020-01-14 00:00:00,34759.259422,FST,52.0,10.0,18.18,220.0,14.0,30.12,1016.6,10.0,,,CLR
2020-01-14 01:00:00,33052.45989,FST,51.1,10.9,19.56,220.0,14.0,30.12,1016.3,10.0,,,CLR
2020-01-14 02:00:00,32192.540028,FST,53.1,10.9,18.17,230.0,13.0,30.11,1016.1,10.0,,,CLR
2020-01-14 03:00:00,31667.587751,FST,52.0,10.9,18.92,220.0,14.0,30.11,1016.0,10.0,,,CLR
2020-01-14 04:00:00,31597.46779,FST,53.1,10.9,18.17,220.0,14.0,30.11,1016.2,10.0,,,CLR
2020-01-14 05:00:00,32258.769829,FST,52.0,10.9,18.92,220.0,14.0,30.11,1016.0,10.0,,,CLR
2020-01-14 06:00:00,34341.232565,FST,45.0,12.0,25.82,210.0,10.0,30.12,1016.8,10.0,,42.6,CLR
2020-01-14 07:00:00,37793.563765,FST,46.0,12.9,25.87,100.0,7.0,30.12,1017.6,10.0,,,CLR
2020-01-14 08:00:00,39283.41415,FST,44.1,14.0,29.19,250.0,5.0,30.14,1018.3,10.0,,41.55,CLR
2020-01-14 09:00:00,39236.87873,FST,51.1,15.1,23.54,230.0,8.0,30.14,1018.1,10.0,,,CLR
2020-01-14 10:00:00,39470.628859,FST,60.1,18.0,19.25,200.0,4.0,30.14,1018.0,10.0,,,CLR
2020-01-14 11:00:00,39770.10475,FST,64.0,17.1,16.14,360.0,4.0,30.16,1018.0,10.0,,,CLR
2020-01-14 12:00:00,39765.082116,FST,66.9,15.1,13.37,360.0,3.0,30.15,1017.3,10.0,,,CLR
2020-01-14 13:00:00,39776.820721,FST,72.0,16.0,11.68,360.0,5.0,30.13,1015.6,10.0,,,CLR
2020-01-14 14:00:00,40060.415125,FST,73.9,16.0,10.96,360.0,7.0,30.08,1014.1,10.0,,,CLR
2020-01-14 15:00:00,40111.694703,FST,73.9,16.0,10.96,360.0,9.0,30.05,1013.5,10.0,,,CLR
2020-01-14 16:00:00,40002.579139,FST,73.9,16.0,10.96,40.0,9.0,30.03,1013.2,10.0,,,CLR
2020-01-14 17:00:00,40233.539893,FST,73.0,16.0,11.29,360.0,9.0,30.03,1013.5,10.0,,,CLR
2020-01-14 18:00:00,40726.994304,FST,69.1,16.0,12.89,60.0,7.0,30.04,1014.2,10.0,,,CLR
2020-01-14 19:00:00,42087.617272,FST,61.0,21.0,21.19,130.0,6.0,30.05,1015.0,10.0,,,CLR
2020-01-14 20:00:00,41814.452962,FST,57.9,23.0,25.76,170.0,8.0,30.07,1015.8,10.0,,,CLR
2020-01-14 21:00:00,41054.027997,FST,59.0,32.0,35.87,170.0,9.0,30.07,1015.6,10.0,,,CLR
2020-01-14 22:00:00,39739.267506,FST,61.0,24.1,24.15,180.0,10.0,30.07,1014.9,10.0,,,CLR
2020-01-14 23:00:00,37540.43947,FST,54.0,24.1,31.07,200.0,9.0,30.07,1015.3,10.0,,,CLR
2020-01-15 00:00:00,34993.83831,FST,53.1,21.0,28.18,190.0,9.0,30.07,1014.7,10.0,,,CLR
2020-01-15 01:00:00,33177.161204,FST,53.1,19.0,25.88,220.0,14.0,30.05,1014.1,10.0,,,CLR
2020-01-15 02:00:00,32038.436388,FST,55.0,18.0,23.13,220.0,14.0,30.05,1013.4,10.0,,,CLR
2020-01-15 03:00:00,31393.717671,FST,57.0,16.0,19.73,220.0,14.0,30.03,1013.3,10.0,,,CLR
2020-01-15 04:00:00,31243.86806,FST,57.0,15.1,18.97,240.0,13.0,30.03,1013.2,10.0,,,CLR
2020-01-15 05:00:00,31842.657138,FST,55.9,16.0,20.53,240.0,11.0,30.03,1012.8,10.0,,,CLR
2020-01-15 06:00:00,33765.784487,FST,55.9,17.1,21.53,260.0,8.0,30.02,1013.2,10.0,,,CLR
2020-01-15 07:00:00,37158.431693,FST,55.0,18.0,23.13,220.0,11.0,30.03,1014.1,10.0,,,CLR
2020-01-15 08:00:00,38713.871342,FST,53.1,21.9,29.28,220.0,8.0,30.05,1014.9,10.0,,,CLR
2020-01-15 09:00:00,38714.376181,FST,57.0,21.9,25.4,290.0,7.0,30.07,1015.3,10.0,,,CLR
2020-01-15 10:00:00,39357.627157,FST,62.1,24.1,23.23,310.0,5.0,30.09,1015.5,10.0,,,CLR
2020-01-15 11:00:00,40046.931394,FST,66.9,26.1,21.35,320.0,7.0,30.11,1016.4,10.0,,,CLR
2020-01-15 12:00:00,40583.773156,FST,68.0,17.1,14.04,360.0,8.0,30.12,1016.7,10.0,,,CLR
2020-01-15 13:00:00,40914.84273,FST,64.9,25.0,21.86,360.0,9.0,30.12,1016.1,10.0,,,CLR
2020-01-15 14:00:00,41442.257675,FST,64.9,24.1,21.05,150.0,7.0,30.09,1015.1,10.0,,,CLR
2020-01-15 15:00:00,41792.428954,FST,66.0,30.0,25.85,350.0,7.0,30.06,1014.6,10.0,,,FEW
2020-01-15 16:00:00,41867.027606,FST,64.9,36.0,34.17,110.0,9.0,30.06,1014.8,10.0,,,FEW
2020-01-15 17:00:00,41850.200938,FST,63.0,50.0,62.49,70.0,11.0,30.08,1015.3,10.0,,,CLR
2020-01-15 18:00:00,42223.818285,FST,62.1,53.1,72.33,80.0,10.0,30.11,1016.4,10.0,,,CLR
2020-01-15 19:00:00,43244.95394,FST,59.0,53.1,80.75,100.0,5.0,30.12,1017.1,10.0,,,CLR
2020-01-15 20:00:00,42633.591095,FST,55.9,52.0,86.71,100.0,5.0,30.15,1018.1,10.0,,,CLR
2020-01-15 21:00:00,41634.672172,FST,55.0,52.0,89.59,120.0,5.0,30.17,1018.6,10.0,,,CLR
2020-01-15 22:00:00,40055.446028,FST,57.0,55.0,93.01,110.0,7.0,30.19,1019.1,10.0,,,CLR
2020-01-15 23:00:00,37464.484055,FST,57.9,55.9,93.04,130.0,7.0,30.19,1019.1,10.0,,,SCT
2020-01-16 00:00:00,34915.614382,FST,57.0,57.0,100.0,140.0,5.0,30.21,1019.5,10.0,,,CLR
2020-01-16 01:00:00,33005.176199,FST,57.9,57.0,96.81,340.0,5.0,30.22,1020.0,8.0,,,FEW
2020-01-16 02:00:00,31928.470127,FST,55.0,55.0,100.0,360.0,15.0,30.23,1020.7,10.0,19.0,,BKN
2020-01-16 03:00:00,31376.650149,FST,53.1,39.9,60.73,40.0,13.0,30.25,1021.2,10.0,,,SCT
2020-01-16 04:00:00,31304.532664,FST,50.0,30.9,47.64,50.0,11.0,30.26,1021.9,10.0,,46.29,OVC
2020-01-16 05:00:00,31909.014128,FST,48.9,30.9,49.63,40.0,11.0,30.28,1022.8,10.0,,44.93,OVC
2020-01-16 06:00:00,33893.667215,FST,48.0,33.1,56.1,30.0,11.0,30.3,1023.4,10.0,,43.41,OVC
2020-01-16 07:00:00,37610.492037,FST,46.9,36.0,65.63,360.0,9.0,30.34,1025.0,10.0,,43.48,OVC
2020-01-16 08:00:00,39392.281542,FST,46.0,37.0,70.64,360.0,9.0,30.35,1025.5,10.0,,41.36,OVC
2020-01-16 09:00:00,39726.979231,FST,44.1,37.9,78.66,360.0,9.0,30.37,1026.4,10.0,,39.53,OVC
2020-01-16 10:00:00,40513.567127,FST,44.1,41.0,93.3,360.0,10.0,30.4,1027.3,10.0,,39.53,OVC
2020-01-16 11:00:00,41320.836776,FST,43.0,41.0,95.84,360.0,10.0,30.4,1027.5,5.0,,37.69,SCT
2020-01-16 12:00:00,41783.646148,FST,43.0,41.0,95.84,360.0,10.0,30.41,1027.6,7.0,,38.78,BKN
2020-01-16 13:00:00,42013.831994,FST,43.0,41.0,95.84,360.0,11.0,30.4,1026.4,10.0,,37.19,OVC
2020-01-16 14:00:00,42185.71247,FST,42.1,39.9,91.84,360.0,11.0,30.36,1024.8,7.0,,36.07,BKN
2020-01-16 15:00:00,42101.425059,FST,41.0,39.0,92.52,360.0,10.0,30.31,1023.9,10.0,,34.7,OVC
2020-01-16 16:00:00,41882.666659,FST,41.0,39.0,92.52,360.0,10.0,30.3,1024.4,10.0,,35.75,OVC
2020-01-16 17:00:00,42183.236301,FST,41.0,39.0,96.55,360.0,9.0,30.3,1024.3,4.0,,35.2,OVC
2020-01-16 18:00:00,43064.04584,FST,39.9,39.0,96.55,360.0,8.0,30.3,1024.7,4.0,,35.04,OVC
2020-01-16 19:00:00,44122.672709,FST,39.0,37.9,95.78,360.0,7.0,30.31,1025.0,4.0,,33.96,OVC
2020-01-16 20:00:00,43720.45796,FST,39.0,37.9,95.78,360.0,8.0,30.32,1025.1,3.0,,34.71,BKN
2020-01-16 21:00:00,42859.989704,FST,37.9,37.9,100.0,360.0,5.0,30.33,1025.7,4.0,,33.4,OVC
2020-01-16 22:00:00,41289.482749,FST,37.9,37.9,100.0,360.0,7.0,30.32,1025.3,2.5,,32.64,OVC
2020-01-16 23:00:00,38818.478192,FST,37.0,36.0,100.0,50.0,6.0,30.33,1026.4,2.0,,32.33,OVC
2020-01-17 00:00:00,36423.748288,FST,37.0,37.0,100.0,360.0,4.0,30.33,1025.4,2.5,,34.4,OVC
2020-01-17 01:00:00,34638.905565,FST,36.0,36.0,100.0,300.0,2.0,30.33,1026.1,3.0,,,OVC
2020-01-17 02:00:00,33600.105078,FST,37.4,37.4,100.0,330.0,5.0,30.32,1023.6,5.0,,34.86,OVC
2020-01-17 03:00:00,33030.980226,FST,37.9,37.0,96.52,160.0,8.0,30.26,1022.3,9.0,,34.31,FEW
2020-01-17 04:00:00,32932.88123,FST,39.0,37.9,95.78,160.0,9.0,30.23,1021.0,10.0,,33.31,BKN
2020-01-17 05:00:00,33606.116807,FST,39.0,37.9,95.78,360.0,11.0,30.17,1020.2,10.0,,34.71,OVC
2020-01-17 06:00:00,35581.388251,FST,37.9,37.9,100.0,360.0,8.0,30.19,1020.1,10.0,,34.31,BKN
2020-01-17 07:00:00,38952.692117,FST,37.9,37.9,100.0,360.0,8.0,30.19,1021.1,2.0,,32.64,OVC
2020-01-17 08:00:00,40528.446181,FST,37.0,36.0,96.13,350.0,7.0,30.21,1022.0,1.25,,31.55,VV 
2020-01-17 09:00:00,40745.319219,FST,37.0,36.0,100.0,360.0,5.0,30.21,1022.0,1.25,,32.33,VV 
2020-01-17 10:00:00,41286.01274,FST,37.0,37.0,100.0,340.0,4.0,30.22,1022.4,2.5,,34.4,VV 
2020-01-17 11:00:00,41591.721752,FST,37.9,37.9,100.0,120.0,4.0,30.22,1022.3,10.0,,34.31,OVC
2020-01-17 12:00:00,41605.195887,FST,43.0,41.0,92.58,170.0,8.0,30.21,1021.2,10.0,,41.26,SCT
2020-01-17 13:00:00,41389.607267,FST,48.9,44.1,85.77,150.0,6.0,30.19,1019.0,10.0,,45.88,SCT
2020-01-17 14:00:00,41205.90416,FST,55.9,48.0,74.72,160.0,6.0,30.13,1016.8,10.0,,,SCT
2020-01-17 15:00:00,40877.457851,FST,61.0,51.1,69.86,130.0,5.0,30.08,1015.1,10.0,,,CLR
2020-01-17 16:00:00,40544.552524,FST,66.9,53.1,61.16,110.0,5.0,30.04,1014.0,10.0,,,CLR
2020-01-17 17:00:00,40619.024198,FST,69.1,51.1,52.67,350.0,8.0,30.03,1014.0,10.0,,,FEW
2020-01-17 18:00:00,41226.276573,FST,66.0,51.1,58.62,230.0,8.0,30.03,1014.4,10.0,,,CLR
2020-01-17 19:00:00,41653.938041,FST,62.1,50.0,64.5,220.0,11.0,30.04,1014.9,10.0,,,CLR
2020-01-17 20:00:00,40873.233135,FST,60.1,48.0,64.26,220.0,11.0,30.05,1015.6,10.0,,,CLR
2020-01-17 21:00:00,39992.739855,FST,55.9,48.0,74.72,260.0,11.0,30.07,1016.4,10.0,,,CLR
2020-01-17 22:00:00,38776.344835,FST,55.9,48.0,74.72,210.0,11.0,30.08,1016.6,10.0,,,CLR
2020-01-17 23:00:00,37067.444431,FST,55.0,46.9,74.08,210.0,11.0,30.08,1016.7,10.0,,,CLR
2020-01-18 00:00:00,34970.86557,FST,53.1,45.0,73.89,200.0,14.0,30.09,1016.7,10.0,,,CLR
2020-01-18 01:00:00,33193.577175,FST,53.1,44.1,71.4,210.0,12.0,30.09,1016.6,10.0,,,CLR
2020-01-18 02:00:00,32020.502481,FST,50.0,43.0,76.76,230.0,11.0,30.11,1017.1,10.0,,45.54,CLR
2020-01-18 03:00:00,31324.018419,FST,51.1,42.1,71.19,260.0,11.0,30.14,1017.9,10.0,,,CLR
2020-01-18 04:00:00,31021.826197,FST,52.0,41.0,66.0,290.0,9.0,30.19,1019.2,10.0,,,CLR
2020-01-18 05:00:00,31097.132393,FST,43.0,39.9,88.71,330.0,9.0,30.21,1020.4,10.0,,,CLR
2020-01-18 06:00:00,31739.113696,FST,45.0,43.0,92.65,360.0,5.0,30.26,1022.0,10.0,,41.83,CLR
2020-01-18 07:00:00,33170.144385,FST,44.1,39.9,85.06,360.0,6.0,30.29,1023.4,10.0,,40.1,CLR
2020-01-18 08:00:00,34761.501144,FST,42.1,37.0,81.98,320.0,5.0,30.33,1024.9,10.0,,38.39,CLR
2020-01-18 09:00:00,36259.145769,FST,44.1,37.0,75.93,300.0,7.0,30.37,1026.5,10.0,,39.53,CLR
2020-01-18 10:00:00,37493.243578,FST,48.0,36.0,62.97,330.0,8.0,30.4,1027.3,10.0,,44.28,CLR
2020-01-18 11:00:00,38337.365061,FST,51.1,30.9,45.73,350.0,11.0,30.42,1028.0,10.0,16.0,,CLR
2020-01-18 12:00:00,38571.637976,FST,,,,70.0,11.0,30.43,,10.0,,,CLR
2020-01-18 13:00:00,38236.262564,FST,53.1,30.9,42.48,70.0,10.0,30.42,1027.0,10.0,15.0,,CLR
2020-01-18 14:00:00,37647.267595,FST,54.0,30.0,39.63,80.0,11.0,30.39,1025.8,10.0,,,CLR
2020-01-18 15:00:00,37132.782021,FST,55.0,28.9,36.54,60.0,11.0,30.36,1025.1,10.0,,,CLR
2020-01-18 16:00:00,36797.558201,FST,55.0,30.0,38.21,60.0,10.0,30.34,1024.7,10.0,,,CLR
2020-01-18 17:00:00,36749.001847,FST,55.0,30.0,38.21,70.0,9.0,30.33,1025.2,10.0,,,CLR
2020-01-18 18:00:00,37439.12237,FST,53.1,32.0,44.42,70.0,8.0,30.34,1025.4,10.0,,,CLR
2020-01-18 19:00:00,38977.552152,FST,46.9,35.1,63.33,80.0,5.0,30.36,1026.4,10.0,,44.09,CLR
2020-01-18 20:00:00,39040.782083,FST,45.0,34.0,65.13,70.0,5.0,30.38,1027.2,10.0,,41.83,CLR
2020-01-18 21:00:00,38799.155,FST,42.1,34.0,72.78,80.0,6.0,30.4,1028.0,10.0,,37.69,CLR
2020-01-18 22:00:00,38296.07587,FST,41.0,34.0,75.94,100.0,7.0,30.4,1028.1,10.0,,37.08,CLR
2020-01-18 23:00:00,37494.263408,FST,41.0,33.1,73.25,120.0,8.0,30.41,1028.3,10.0,,36.37,CLR
2020-01-19 00:00:00,36556.715479,FST,39.9,32.0,73.14,130.0,8.0,30.42,1028.6,10.0,,35.04,CLR
2020-01-19 01:00:00,35848.646906,FST,37.9,32.0,79.08,130.0,7.0,30.42,1028.5,10.0,,31.97,CLR
2020-01-19 02:00:00,35432.856357,FST,39.0,30.9,72.45,160.0,8.0,30.42,1028.3,10.0,,33.31,CLR
2020-01-19 03:00:00,35321.622073,FST,39.0,30.0,69.85,130.0,9.0,30.42,1028.3,10.0,,32.74,FEW
2020-01-19 04:00:00,35649.288918,FST,39.0,28.9,66.79,140.0,11.0,30.41,1028.1,10.0,,31.75,OVC
2020-01-19 05:00:00,36355.779055,FST,36.0,27.0,69.51,130.0,11.0,30.42,1028.5,10.0,,29.65,BKN
2020-01-19 06:00:00,37559.507474,FST,34.0,28.0,78.43,120.0,8.0,30.42,1028.3,10.0,,26.58,CLR
2020-01-19 07:00:00,39203.435007,FST,35.1,28.0,75.06,110.0,7.0,30.44,1029.6,10.0,,28.56,CLR
2020-01-19 08:00:00,41303.633433,FST,35.1,27.0,72.04,110.0,9.0,30.47,1030.8,10.0,,28.56,SCT
2020-01-19 09:00:00,42401.63382,FST,36.0,27.0,69.51,120.0,9.0,30.49,1031.6,10.0,,29.04,OVC
2020-01-19 10:00:00,42180.472674,FST,37.9,19.9,47.89,130.0,13.0,30.51,1032.3,10.0,18.0,30.37,FEW
2020-01-19 11:00:00,41139.358042,FST,42.1,19.0,39.14,140.0,15.0,30.52,1031.7,10.0,20.0,34.86,FEW
2020-01-19 12:00:00,39893.692476,FST,45.0,21.0,38.14,140.0,14.0,30.5,1031.0,10.0,18.0,38.89,FEW
2020-01-19 13:00:00,38646.980252,FST,48.0,21.9,35.38,150.0,14.0,30.48,1029.9,10.0,17.0,43.03,CLR
2020-01-19 14:00:00,37521.812224,FST,50.0,21.9,32.83,110.0,13.0,30.44,1028.4,10.0,,45.9,CLR
2020-01-19 15:00:00,36645.60328,FST,51.1,23.0,33.01,130.0,13.0,30.41,1027.3,10.0,,,CLR
2020-01-19 16:00:00,36175.524566,FST,52.0,23.0,31.93,120.0,15.0,30.38,1026.9,10.0,,,CLR
2020-01-19 17:00:00,36335.979893,FST,52.0,24.1,33.44,110.0,14.0,30.37,1027.0,10.0,18.0,,CLR
2020-01-19 18:00:00,37765.745006,FST,50.0,23.0,34.39,120.0,15.0,30.37,1027.2,10.0,,45.21,CLR
2020-01-19 19:00:00,40566.399878,FST,46.9,24.1,40.44,110.0,13.0,30.38,1027.6,10.0,,41.65,CLR
2020-01-19 20:00:00,41369.002164,FST,46.0,26.1,45.47,120.0,10.0,30.41,1028.5,10.0,,40.92,CLR
2020-01-19 21:00:00,41515.140096,FST,46.0,23.0,39.96,130.0,11.0,30.43,1029.3,10.0,,41.84,BKN
2020-01-19 22:00:00,41117.843074,FST,45.0,24.1,43.46,140.0,7.0,30.45,1030.0,10.0,,41.83,BKN
2020-01-19 23:00:00,39792.52359,FST,43.0,28.9,57.21,130.0,5.0,30.47,1030.3,10.0,,41.26,OVC
2020-01-20 00:00:00,38309.562995,FST,41.0,28.9,61.79,110.0,5.0,30.48,1030.8,10.0,,38.98,BKN
2020-01-20 01:00:00,37385.936244,FST,39.9,28.9,64.49,110.0,6.0,30.48,1030.2,10.0,,35.04,SCT
2020-01-20 02:00:00,37011.811048,FST,39.0,28.9,66.79,110.0,6.0,30.47,1030.5,10.0,,33.96,SCT
2020-01-20 03:00:00,37120.32306,FST,39.0,28.0,64.37,120.0,7.0,30.47,1030.4,10.0,,33.31,FEW
2020-01-20 04:00:00,37662.083351,FST,37.9,28.0,67.2,130.0,7.0,30.48,1030.7,10.0,,34.31,BKN
2020-01-20 05:00:00,38919.85293,FST,39.0,30.0,69.85,140.0,7.0,30.48,1030.6,10.0,,33.96,OVC
2020-01-20 06:00:00,41470.246666,FST,39.0,30.0,69.85,110.0,10.0,30.49,1031.1,10.0,,33.96,BKN
2020-01-20 07:00:00,44793.688124,FST,37.9,28.9,69.73,120.0,7.0,30.52,1032.0,10.0,,31.97,OVC
2020-01-20 08:00:00,47064.222031,FST,37.9,28.0,67.2,140.0,7.0,30.52,1032.5,10.0,,32.64,SCT
2020-01-20 09:00:00,47031.183905,FST,39.0,26.1,59.52,140.0,9.0,30.53,1032.5,10.0,,33.31,OVC
2020-01-20 10:00:00,45771.522974,FST,41.0,25.0,52.61,150.0,13.0,30.53,1032.7,10.0,,33.46,BKN
2020-01-20 11:00:00,44293.150862,FST,43.0,25.0,48.7,150.0,15.0,30.53,1032.5,10.0,18.0,36.76,BKN
2020-01-20 12:00:00,42464.018177,FST,46.0,25.0,43.44,150.0,15.0,30.53,1031.5,10.0,,39.21,SCT
2020-01-20 13:00:00,40890.419321,FST,48.9,25.0,38.95,160.0,14.0,30.5,1030.2,10.0,,42.95,CLR
2020-01-20 14:00:00,39728.79054,FST,51.1,26.1,37.57,140.0,15.0,30.46,1028.8,10.0,16.0,,CLR
2020-01-20 15:00:00,38820.376519,FST,51.1,27.0,38.99,140.0,13.0,30.42,1027.3,10.0,,,CLR
2020-01-20 16:00:00,38334.238504,FST,52.0,27.0,37.72,140.0,14.0,30.38,1026.6,10.0,,,CLR
2020-01-20 17:00:00,38374.987498,FST,51.1,28.0,40.63,120.0,16.0,30.36,1026.2,10.0,,,BKN
2020-01-20 18:00:00,39545.759187,FST,50.0,26.1,39.14,130.0,17.0,30.35,1026.0,10.0,23.0,44.36,OVC
2020-01-20 19:00:00,42354.005711,FST,46.9,23.0,38.62,130.0,14.0,30.35,1026.3,10.0,,40.37,CLR
2020-01-20 20:00:00,43044.30394,FST,45.0,24.1,43.46,120.0,14.0,30.38,1027.7,10.0,19.0,38.22,CLR
2020-01-20 21:00:00,43124.927501,FST,44.1,24.1,44.98,130.0,13.0,30.39,1028.0,10.0,,37.4,FEW
2020-01-20 22:00:00,42227.166275,FST,43.0,25.0,48.7,150.0,12.0,30.4,1028.1,10.0,18.0,36.0,CLR
2020-01-20 23:00:00,40431.216974,FST,43.0,25.0,48.7,150.0,13.0,30.4,1027.2,10.0,,37.19,FEW
2020-01-21 00:00:00,38731.651229,FST,42.1,25.0,50.42,140.0,10.0,30.37,1026.7,10.0,,36.55,CLR
2020-01-21 01:00:00,37815.303954,FST,41.0,26.1,55.07,160.0,9.0,30.36,1026.2,10.0,,35.2,CLR
2020-01-21 02:00:00,37562.457181,FST,39.0,27.0,61.78,180.0,8.0,30.35,1026.1,10.0,,34.71,CLR
2020-01-21 03:00:00,37702.580162,FST,41.0,27.0,57.15,170.0,9.0,30.34,1024.9,10.0,,34.7,CLR
2020-01-21 04:00:00,38398.611041,FST,39.9,27.0,59.65,160.0,8.0,30.31,1023.9,10.0,,34.41,CLR
2020-01-21 05:00:00,39912.718728,FST,39.9,26.1,57.47,160.0,11.0,30.29,1022.4,10.0,,32.87,CLR
2020-01-21 06:00:00,43050.662734,FST,39.9,26.1,57.47,170.0,14.0,30.23,1022.0,10.0,,32.06,CLR
2020-01-21 07:00:00,47376.875376,FST,39.9,26.1,57.47,160.0,11.0,30.24,1021.9,10.0,,32.87,CLR
2020-01-21 08:00:00,48677.857522,FST,39.9,25.0,54.9,140.0,12.0,30.24,1022.4,10.0,,32.06,CLR
2020-01-21 09:00:00,47385.162402,FST,42.1,26.1,52.78,160.0,15.0,30.26,1023.3,10.0,,33.87,CLR
2020-01-21 10:00:00,45807.089551,FST,46.0,26.1,45.47,160.0,17.0,30.26,1022.8,10.0,23.0,38.93,CLR
2020-01-21 11:00:00,44296.204468,FST,50.0,26.1,39.14,150.0,22.0,30.25,1022.2,10.0,30.0,42.86,CLR
2020-01-21 12:00:00,42807.138228,FST,50.0,28.0,42.33,150.0,21.0,30.24,1021.9,10.0,22.0,43.66,CLR
2020-01-21 13:00:00,41515.200675,FST,52.0,30.0,42.65,150.0,19.0,30.22,1019.8,10.0,24.0,,SCT
2020-01-21 14:00:00,40785.012501,FST,54.0,30.9,41.11,150.0,20.0,30.16,1018.4,10.0,20.0,,BKN
2020-01-21 15:00:00,40346.809603,FST,54.0,30.9,41.11,150.0,19.0,30.12,1017.4,10.0,23.0,,CLR
2020-01-21 16:00:00,40189.578782,FST,54.0,35.1,48.65,140.0,19.0,30.1,1016.5,10.0,,,CLR
2020-01-21 17:00:00,40854.998914,FST,53.1,37.9,56.17,150.0,19.0,30.1,1017.3,10.0,23.0,,CLR
2020-01-21 18:00:00,42598.923542,FST,48.9,41.0,74.05,180.0,15.0,30.14,1019.1,10.0,20.0,43.51,OVC
2020-01-21 19:00:00,44891.92725,FST,46.9,42.1,83.28,170.0,13.0,30.14,1017.7,10.0,16.0,41.3,OVC
2020-01-21 20:00:00,45082.290159,FST,46.9,41.0,79.82,150.0,22.0,30.11,1015.6,10.0,31.0,39.14,BKN
2020-01-21 21:00:00,44728.303285,FST,46.9,39.9,76.48,150.0,22.0,30.07,1016.6,10.0,27.0,41.3,OVC
2020-01-21 22:00:00,43260.022349,FST,46.9,39.9,76.48,150.0,13.0,30.08,1016.2,10.0,15.0,41.3,FEW
2020-01-21 23:00:00,40815.064247,FST,46.9,39.9,76.48,160.0,17.0,30.06,1015.2,10.0,,40.1,OVC
2020-01-22 00:00:00,38564.470088,FST,46.9,39.9,76.48,180.0,18.0,30.05,1015.2,10.0,,41.65,SCT
2020-01-22 01:00:00,37306.863512,FST,44.1,39.0,82.12,280.0,10.0,30.05,1015.2,10.0,,41.55,BKN
2020-01-22 02:00:00,36740.287451,FST,43.0,39.0,85.66,270.0,5.0,30.04,1014.3,10.0,,41.26,CLR
2020-01-22 03:00:00,36661.656795,FST,44.1,37.9,78.66,220.0,7.0,30.02,1014.0,10.0,,,FEW
2020-01-22 04:00:00,36871.679872,FST,43.0,37.9,82.04,180.0,10.0,30.0,1013.1,10.0,,37.66,BKN
2020-01-22 05:00:00,38115.571281,FST,44.1,37.0,75.93,170.0,11.0,29.98,1012.6,10.0,,38.14,SCT
2020-01-22 06:00:00,40886.313376,FST,44.1,37.9,78.66,180.0,9.0,29.97,1012.6,10.0,,40.1,CLR
2020-01-22 07:00:00,44838.263368,FST,43.0,39.0,85.66,210.0,7.0,29.96,1012.6,10.0,,38.19,CLR
2020-01-22 08:00:00,46426.807342,FST,46.9,41.0,79.82,210.0,8.0,29.97,1013.0,10.0,,42.47,CLR
2020-01-22 09:00:00,46246.475659,FST,46.9,42.1,83.28,220.0,10.0,29.98,1013.2,10.0,,41.65,CLR
2020-01-22 10:00:00,46331.233156,FST,55.0,43.0,63.86,230.0,10.0,29.99,1013.1,10.0,,,CLR
2020-01-22 11:00:00,46526.820355,FST,60.1,43.0,53.15,290.0,14.0,29.99,1012.8,10.0,20.0,,CLR
2020-01-22 12:00:00,46306.798313,FST,64.0,41.0,42.88,290.0,20.0,29.98,1011.7,10.0,26.0,,CLR
2020-01-22 13:00:00,45734.908637,FST,64.9,39.9,39.82,290.0,24.0,29.96,1010.7,10.0,33.0,,CLR
2020-01-22 14:00:00,45270.271781,FST,64.9,39.0,38.44,300.0,22.0,29.93,1009.8,10.0,26.0,,CLR
2020-01-22 15:00:00,44654.044107,FST,66.0,37.9,35.44,290.0,22.0,29.9,1009.1,10.0,29.0,,CLR
2020-01-22 16:00:00,44276.408317,FST,66.9,37.0,33.16,300.0,21.0,29.88,1008.5,10.0,25.0,,CLR
2020-01-22 17:00:00,44412.635101,FST,66.0,35.1,31.73,300.0,20.0,29.86,1008.2,10.0,25.0,,CLR
2020-01-22 18:00:00,45036.391547,FST,64.0,36.0,35.26,300.0,19.0,29.88,1009.2,10.0,24.0,,CLR
2020-01-22 19:00:00,45953.045072,FST,59.0,37.0,43.78,310.0,14.0,29.91,1010.4,10.0,,,CLR
2020-01-22 20:00:00,45428.168229,FST,55.9,37.0,48.95,290.0,11.0,29.93,1011.1,10.0,,,CLR
2020-01-22 21:00:00,44394.307832,FST,53.1,37.0,54.21,270.0,10.0,29.96,1012.1,10.0,,,CLR
2020-01-22 22:00:00,42557.332132,FST,55.0,37.0,50.58,280.0,13.0,29.99,1012.7,10.0,,,CLR
2020-01-22 23:00:00,39914.014465,FST,52.0,37.0,56.45,280.0,11.0,30.0,1013.1,10.0,,,CLR
2020-01-23 00:00:00,37347.993807,FST,52.0,36.0,54.26,280.0,13.0,30.02,1013.4,10.0,16.0,,CLR
2020-01-23 01:00:00,35685.608206,FST,50.0,35.1,56.39,290.0,11.0,30.03,1013.9,10.0,,45.54,CLR
2020-01-23 02:00:00,34734.701387,FST,46.9,36.0,65.63,300.0,10.0,30.03,1014.2,10.0,,42.47,CLR
2020-01-23 03:00:00,34289.953191,FST,46.9,35.1,63.33,280.0,9.0,30.05,1014.6,10.0,,42.47,CLR
2020-01-23 04:00:00,34401.035186,FST,43.0,34.0,70.3,280.0,8.0,30.05,1014.8,10.0,,38.19,CLR
2020-01-23 05:00:00,35281.734739,FST,43.0,33.1,67.82,280.0,8.0,30.05,1014.7,10.0,,38.19,CLR
2020-01-23 06:00:00,37733.755385,FST,42.1,33.1,70.2,270.0,9.0,30.05,1015.2,10.0,,36.07,CLR
2020-01-23 07:00:00,41590.700278,FST,42.1,33.1,70.2,260.0,10.0,30.07,1015.8,10.0,,37.69,CLR
2020-01-23 08:00:00,42843.538269,FST,41.0,32.0,70.08,270.0,8.0,30.1,1017.0,10.0,,36.37,CLR
2020-01-23 09:00:00,42379.82574,FST,46.9,34.0,60.61,240.0,9.0,30.12,1017.9,10.0,,42.94,CLR
2020-01-23 10:00:00,42062.370123,FST,51.1,35.1,54.13,250.0,9.0,30.13,1017.9,10.0,,,CLR
2020-01-23 11:00:00,41910.929862,FST,55.0,33.1,43.31,300.0,9.0,30.14,1018.1,10.0,,,CLR
2020-01-23 12:00:00,41161.568047,FST,57.9,32.0,37.31,330.0,10.0,30.15,1018.2,10.0,,,CLR
2020-01-23 13:00:00,40095.727114,FST,60.1,30.9,32.99,340.0,13.0,30.14,1017.1,10.0,,,CLR
2020-01-23 14:00:00,39251.283607,FST,61.0,28.9,29.45,310.0,13.0,30.11,1016.0,10.0,21.0,,CLR
2020-01-23 15:00:00,38579.342163,FST,61.0,27.0,27.24,310.0,14.0,30.07,1015.3,10.0,18.0,,CLR
2020-01-23 16:00:00,38164.251438,FST,61.0,28.0,28.38,320.0,15.0,30.06,1015.4,10.0,19.0,,CLR
2020-01-23 17:00:00,38382.063969,FST,60.1,27.0,28.13,320.0,15.0,30.06,1015.4,10.0,19.0,,CLR
2020-01-23 18:00:00,39265.3352,FST,57.9,28.0,31.71,330.0,11.0,30.06,1015.8,10.0,,,CLR
2020-01-23 19:00:00,41378.947589,FST,53.1,28.9,39.16,310.0,7.0,30.07,1016.3,10.0,,,CLR
2020-01-23 20:00:00,41877.911057,FST,48.0,30.9,51.34,310.0,7.0,30.09,1017.2,10.0,,44.8,CLR
2020-01-23 21:00:00,41767.62808,FST,46.9,30.0,51.58,250.0,10.0,30.11,1017.6,10.0,,42.94,CLR
2020-01-23 22:00:00,40951.828961,FST,44.1,30.0,57.37,320.0,7.0,30.12,1018.0,10.0,,,CLR
2020-01-23 23:00:00,39180.260252,FST,45.0,33.1,62.83,110.0,8.0,30.13,1018.1,10.0,,40.63,CLR
2020-01-24 00:00:00,37345.12094,FST,44.1,32.0,62.21,150.0,5.0,30.13,1018.0,10.0,,40.77,CLR
2020-01-24 01:00:00,36366.325863,FST,43.0,32.0,64.88,160.0,7.0,30.13,1018.0,10.0,,38.19,CLR
2020-01-24 02:00:00,35986.252721,FST,42.1,32.0,67.17,160.0,9.0,30.13,1017.9,10.0,,36.55,CLR
2020-01-24 03:00:00,36156.936621,FST,42.1,33.1,70.2,170.0,11.0,30.13,1017.7,10.0,,36.07,CLR
2020-01-24 04:00:00,36802.72291,FST,39.0,32.0,75.75,170.0,8.0,30.12,1017.8,10.0,,33.31,CLR
2020-01-24 05:00:00,38252.864503,FST,39.9,33.1,76.44,170.0,9.0,30.12,1017.6,10.0,,33.84,CLR
2020-01-24 06:00:00,41288.442946,FST,42.1,33.1,70.2,180.0,10.0,30.11,1017.4,10.0,,35.63,CLR
2020-01-24 07:00:00,45604.425617,FST,37.0,32.0,81.93,170.0,8.0,30.13,1018.7,10.0,,33.26,CLR
2020-01-24 08:00:00,47114.335916,FST,35.1,30.9,84.49,280.0,5.0,30.16,1019.8,10.0,,,CLR
2020-01-24 09:00:00,45795.754005,FST,39.9,34.0,79.25,180.0,2.0,30.17,1020.3,10.0,,,CLR
2020-01-24 10:00:00,44021.876614,FST,46.0,36.0,67.9,170.0,2.0,30.18,1020.3,10.0,,,CLR
2020-01-24 11:00:00,42331.141914,FST,54.0,39.0,56.74,180.0,5.0,30.18,1019.6,10.0,,,CLR
2020-01-24 12:00:00,40788.831577,FST,57.0,39.0,50.88,150.0,8.0,30.17,1018.7,10.0,,,CLR
2020-01-24 13:00:00,39504.239906,FST,62.1,37.0,39.21,200.0,8.0,30.15,1017.1,10.0,,,CLR
2020-01-24 14:00:00,38670.986806,FST,64.9,36.0,34.17,330.0,5.0,30.1,1015.4,10.0,,,CLR
2020-01-24 15:00:00,37944.653237,FST,66.9,34.0,29.44,340.0,5.0,30.06,1014.3,10.0,,,CLR
2020-01-24 16:00:00,37400.168391,FST,66.0,34.0,30.37,360.0,9.0,30.03,1013.7,10.0,,,CLR
2020-01-24 17:00:00,37337.271035,FST,64.9,36.0,34.17,80.0,13.0,30.01,1013.6,10.0,,,CLR
2020-01-24 18:00:00,37879.667495,FST,62.1,35.1,36.37,90.0,14.0,30.01,1013.5,10.0,,,CLR
2020-01-24 19:00:00,39797.675975,FST,57.0,35.1,43.63,100.0,11.0,30.01,1014.2,10.0,,,CLR
2020-01-24 20:00:00,40041.433177,FST,55.0,34.0,44.9,140.0,11.0,30.02,1014.7,10.0,,,CLR
2020-01-24 21:00:00,40108.263796,FST,53.1,36.0,52.11,150.0,13.0,30.03,1015.1,10.0,16.0,,CLR
2020-01-24 22:00:00,39760.4507,FST,51.1,36.0,56.1,170.0,13.0,30.03,1014.7,10.0,,,CLR
2020-01-24 23:00:00,38877.25615,FST,50.0,36.0,58.44,170.0,14.0,30.03,1014.4,10.0,,44.91,CLR
2020-01-25 00:00:00,37708.760075,FST,48.9,35.1,58.75,170.0,14.0,30.03,1014.0,10.0,,43.51,CLR
2020-01-25 01:00:00,36804.317133,FST,48.0,35.1,60.76,160.0,12.0,30.02,1013.2,10.0,,42.37,CLR
2020-01-25 02:00:00,36421.495293,FST,46.9,35.1,63.33,170.0,11.0,30.0,1012.7,10.0,,42.04,CLR
2020-01-25 03:00:00,36326.321715,FST,46.9,36.0,65.63,180.0,12.0,30.0,1012.5,10.0,,40.97,CLR
2020-01-25 04:00:00,36426.987743,FST,46.0,36.0,67.9,180.0,13.0,29.99,1012.4,10.0,,40.16,CLR
2020-01-25 05:00:00,36966.865593,FST,45.0,35.1,68.05,330.0,11.0,29.99,1012.9,10.0,,,CLR
2020-01-25 06:00:00,38185.033198,FST,44.1,36.0,72.99,260.0,8.0,30.0,1013.5,10.0,,39.02,CLR
2020-01-25 07:00:00,39956.263475,FST,44.1,34.0,67.41,230.0,9.0,30.02,1014.0,10.0,,39.53,CLR
2020-01-25 08:00:00,41605.506068,FST,46.9,34.0,60.61,200.0,10.0,30.03,1014.4,10.0,,42.47,CLR
2020-01-25 09:00:00,42180.405165,FST,48.9,35.1,58.75,190.0,11.0,30.03,1014.2,10.0,,43.82,CLR
2020-01-25 10:00:00,41541.923387,FST,55.0,36.0,48.62,210.0,10.0,30.04,1014.6,10.0,,,CLR
2020-01-25 11:00:00,40464.67577,FST,61.0,37.0,40.77,220.0,4.0,30.05,1014.7,10.0,,,CLR
2020-01-25 12:00:00,39394.515724,FST,64.9,37.0,35.54,240.0,10.0,30.05,1014.2,10.0,,,CLR
2020-01-25 13:00:00,38402.876105,FST,69.1,33.1,26.32,290.0,10.0,30.04,1013.1,10.0,,,CLR
2020-01-25 14:00:00,37529.034531,FST,71.1,33.1,24.59,310.0,11.0,30.0,1011.8,10.0,,,CLR
2020-01-25 15:00:00,36934.113393,FST,72.0,33.1,23.85,320.0,16.0,29.97,1011.2,10.0,20.0,,CLR
2020-01-25 16:00:00,36600.089937,FST,72.0,30.9,21.82,320.0,15.0,29.96,1011.0,10.0,20.0,,CLR
2020-01-25 17:00:00,36655.485615,FST,72.0,30.0,21.04,320.0,19.0,29.95,1011.1,10.0,,,CLR
2020-01-25 18:00:00,37353.274088,FST,69.1,28.0,21.4,350.0,15.0,29.96,1011.5,10.0,20.0,,CLR
2020-01-25 19:00:00,38498.846212,FST,61.0,27.0,27.24,350.0,8.0,29.97,1012.4,10.0,,,CLR
2020-01-25 20:00:00,38165.425752,FST,60.1,30.0,31.8,360.0,5.0,30.0,1013.4,10.0,,,CLR
2020-01-25 21:00:00,37486.195848,FST,53.1,39.9,60.73,180.0,8.0,30.03,1014.5,10.0,,,CLR
2020-01-25 22:00:00,36496.346916,FST,51.1,32.0,47.81,230.0,10.0,30.04,1014.9,10.0,,,CLR
2020-01-25 23:00:00,35144.777,FST,53.1,28.0,37.74,270.0,10.0,30.06,1015.0,10.0,,,CLR
2020-01-26 00:00:00,33730.343502,FST,53.1,26.1,34.9,280.0,9.0,30.06,1014.7,10.0,,,CLR
2020-01-26 01:00:00,32443.587131,FST,50.0,28.9,43.92,230.0,10.0,30.05,1014.5,10.0,,45.9,CLR
2020-01-26 02:00:00,31496.228292,FST,50.0,30.0,45.93,240.0,11.0,30.06,1014.6,10.0,,45.54,CLR
2020-01-26 03:00:00,30860.634241,FST,51.1,28.0,40.63,260.0,11.0,30.06,1014.6,10.0,,,CLR
2020-01-26 04:00:00,30704.472483,FST,48.0,27.0,43.77,260.0,11.0,30.06,1014.9,10.0,,42.69,CLR
2020-01-26 05:00:00,30890.064898,FST,46.9,27.0,45.62,270.0,10.0,30.08,1015.3,10.0,,42.47,CLR
2020-01-26 06:00:00,31479.806251,FST,46.9,26.1,43.95,270.0,9.0,30.08,1015.7,10.0,,42.47,CLR
2020-01-26 07:00:00,32502.17858,FST,46.0,26.1,45.47,260.0,9.0,30.09,1016.5,10.0,,41.36,CLR
2020-01-26 08:00:00,33678.356128,FST,43.0,27.0,52.91,230.0,10.0,30.11,1017.3,10.0,,36.76,CLR
2020-01-26 09:00:00,34933.542325,FST,51.1,28.0,40.63,220.0,10.0,30.13,1017.9,10.0,,,CLR
2020-01-26 10:00:00,35736.155775,FST,55.9,28.9,35.36,240.0,8.0,30.14,1018.1,10.0,,,CLR
2020-01-26 11:00:00,35909.194964,FST,62.1,27.0,26.2,240.0,5.0,30.14,1017.5,10.0,,,CLR
2020-01-26 12:00:00,35771.523827,FST,66.0,27.0,22.86,240.0,7.0,30.13,1016.6,10.0,,,CLR
2020-01-26 13:00:00,35844.60929,FST,70.0,28.9,21.53,290.0,11.0,30.11,1015.3,10.0,16.0,,CLR
2020-01-26 14:00:00,35906.499129,FST,71.1,28.9,20.74,320.0,11.0,30.07,1014.0,10.0,14.0,,CLR
2020-01-26 15:00:00,35979.53605,FST,73.0,28.0,18.74,310.0,15.0,30.03,1013.0,10.0,17.0,,CLR
2020-01-26 16:00:00,36200.722064,FST,73.0,26.1,17.33,310.0,16.0,30.01,1012.4,10.0,17.0,,CLR
2020-01-26 17:00:00,36468.983561,FST,73.0,19.0,12.85,300.0,14.0,29.99,1012.5,10.0,,,CLR
2020-01-26 18:00:00,37106.184234,FST,70.0,27.0,19.92,340.0,10.0,29.99,1012.5,10.0,,,CLR
2020-01-26 19:00:00,38731.125332,FST,63.0,27.0,25.38,360.0,5.0,30.0,1013.2,10.0,,,CLR
2020-01-26 20:00:00,38859.066571,FST,57.0,28.0,32.75,170.0,5.0,30.02,1014.2,10.0,,,CLR
2020-01-26 21:00:00,38234.375467,FST,54.0,26.1,33.77,220.0,11.0,30.03,1014.4,10.0,,,CLR
2020-01-26 22:00:00,36938.469239,FST,54.0,25.0,32.26,230.0,11.0,30.04,1014.4,10.0,,,CLR
2020-01-26 23:00:00,35072.946718,FST,55.9,30.0,36.98,220.0,11.0,30.03,1013.9,10.0,,,CLR
2020-01-27 00:00:00,33182.768907,FST,52.0,30.9,44.24,220.0,11.0,30.03,1013.7,10.0,,,CLR
2020-01-27 01:00:00,31918.823148,FST,51.1,30.9,45.73,220.0,11.0,30.02,1013.2,10.0,,,CLR
2020-01-27 02:00:00,31459.551555,FST,48.0,32.0,53.67,210.0,11.0,30.02,1012.8,10.0,,43.03,CLR
2020-01-27 03:00:00,31474.885434,FST,50.0,32.0,49.81,210.0,12.0,30.0,1012.3,10.0,,44.91,CLR
2020-01-27 04:00:00,32010.615368,FST,50.0,32.0,49.81,220.0,13.0,29.99,1011.9,10.0,,44.63,CLR
2020-01-27 05:00:00,33277.980894,FST,51.1,32.0,47.81,220.0,14.0,29.98,1011.5,10.0,,,CLR
2020-01-27 06:00:00,36095.181923,FST,51.1,33.1,49.98,220.0,14.0,29.97,1011.5,10.0,,,CLR
2020-01-27 07:00:00,40236.817515,FST,51.1,34.0,51.81,220.0,15.0,29.97,1012.0,10.0,,,CLR
2020-01-27 08:00:00,41739.167927,FST,50.0,34.0,53.97,220.0,13.0,29.98,1012.6,10.0,,45.21,CLR
2020-01-27 09:00:00,41307.908441,FST,55.0,35.1,46.91,230.0,13.0,30.0,1013.2,10.0,,,CLR
2020-01-27 10:00:00,40799.140776,FST,62.1,37.0,39.21,240.0,12.0,30.01,1013.0,10.0,,,CLR
2020-01-27 11:00:00,40276.391522,FST,69.1,39.0,33.25,270.0,16.0,30.01,1012.7,10.0,,,CLR
2020-01-27 12:00:00,39526.88722,FST,70.0,39.0,32.24,290.0,17.0,30.01,1012.3,10.0,20.0,,OVC
2020-01-27 13:00:00,38879.158265,FST,71.1,37.9,29.74,290.0,18.0,29.98,1010.8,10.0,21.0,,OVC
2020-01-27 14:00:00,38568.298376,FST,72.0,35.1,25.83,290.0,19.0,29.94,1009.5,10.0,24.0,,SCT
2020-01-27 15:00:00,38326.038268,FST,73.0,34.0,23.9,290.0,16.0,29.9,1008.3,10.0,23.0,,FEW
2020-01-27 16:00:00,38107.043778,FST,73.0,35.1,24.97,300.0,21.0,29.87,1007.8,10.0,24.0,,CLR
2020-01-27 17:00:00,38262.980912,FST,71.1,34.0,25.49,300.0,20.0,29.86,1007.6,10.0,27.0,,CLR
2020-01-27 18:00:00,38744.919672,FST,68.0,33.1,27.34,290.0,19.0,29.86,1007.7,10.0,20.0,,CLR
2020-01-27 19:00:00,40519.606637,FST,61.0,33.1,34.91,300.0,11.0,29.87,1008.4,10.0,,,CLR
2020-01-27 20:00:00,40862.398292,FST,54.0,46.0,74.26,280.0,24.0,29.96,1011.9,10.0,45.0,,FEW
2020-01-27 21:00:00,40253.859205,FST,54.0,46.9,76.83,280.0,21.0,29.99,1012.7,10.0,19.0,,BKN
2020-01-27 22:00:00,38873.928207,FST,53.1,46.0,76.75,270.0,14.0,29.99,1010.8,10.0,16.0,,OVC
2020-01-27 23:00:00,36545.25955,FST,53.1,43.0,68.46,230.0,11.0,29.94,1010.3,10.0,,,BKN
2020-01-28 00:00:00,34411.587068,FST,51.1,41.0,68.23,250.0,11.0,29.93,1010.1,10.0,,,CLR
2020-01-28 01:00:00,32924.045009,FST,51.1,37.9,60.46,260.0,11.0,29.93,1009.7,10.0,,,CLR
2020-01-28 02:00:00,32180.501852,FST,52.0,35.1,52.36,280.0,15.0,29.91,1009.4,10.0,18.0,,CLR
2020-01-28 03:00:00,31867.764997,FST,51.1,33.1,49.98,280.0,19.0,29.92,1009.8,10.0,25.0,,CLR
2020-01-28 04:00:00,31843.661811,FST,48.9,28.9,45.75,280.0,16.0,29.93,1010.3,10.0,19.0,42.95,CLR
2020-01-28 05:00:00,32608.079536,FST,46.9,27.0,45.62,280.0,13.0,29.94,1010.6,10.0,17.0,40.66,CLR
2020-01-28 06:00:00,34909.467727,FST,46.9,26.1,43.95,270.0,14.0,29.94,1010.8,10.0,21.0,40.66,CLR
2020-01-28 07:00:00,38746.207108,FST,46.9,25.0,41.99,280.0,18.0,29.97,1012.2,10.0,23.0,40.1,CLR
2020-01-28 08:00:00,40490.403494,FST,46.0,25.0,43.44,290.0,17.0,30.0,1013.6,10.0,21.0,38.67,CLR
2020-01-28 09:00:00,40478.057933,FST,48.0,25.0,40.29,290.0,17.0,30.03,1014.7,10.0,19.0,41.27,FEW
2020-01-28 10:00:00,40822.129923,FST,48.0,35.1,60.76,340.0,23.0,30.08,1016.1,10.0,31.0,39.82,OVC
2020-01-28 11:00:00,40856.49003,FST,48.9,34.0,56.23,330.0,29.0,30.11,1017.2,10.0,32.0,41.03,OVC
2020-01-28 12:00:00,40615.626859,FST,51.1,32.0,47.81,330.0,29.0,30.11,1017.3,10.0,36.0,,OVC
2020-01-28 13:00:00,40185.593147,FST,52.0,30.9,44.24,340.0,28.0,30.11,1017.0,10.0,27.0,,BKN
2020-01-28 14:00:00,39881.531445,FST,55.9,30.0,36.98,340.0,26.0,30.1,1015.6,10.0,32.0,,SCT
2020-01-28 15:00:00,39406.020588,FST,57.9,27.0,30.43,340.0,26.0,30.07,1015.3,10.0,29.0,,FEW
2020-01-28 16:00:00,39218.961276,FST,57.9,26.1,29.32,340.0,24.0,30.06,1015.4,10.0,28.0,,FEW
2020-01-28 17:00:00,39508.214026,FST,57.0,25.0,28.93,350.0,22.0,30.07,1015.8,10.0,27.0,,SCT
2020-01-28 18:00:00,40608.608824,FST,55.9,24.1,29.0,340.0,19.0,30.08,1016.2,10.0,,,CLR
2020-01-28 19:00:00,42784.576359,FST,50.0,23.0,34.39,340.0,14.0,30.09,1016.9,10.0,,47.77,CLR
2020-01-28 20:00:00,43251.453787,FST,48.0,23.0,37.06,360.0,4.0,30.1,1017.4,10.0,,,CLR
2020-01-28 21:00:00,42910.328264,FST,39.9,26.1,57.47,30.0,2.0,30.11,1017.8,10.0,,,CLR
2020-01-28 22:00:00,41817.756145,FST,42.1,25.0,50.42,170.0,5.0,30.11,1017.9,10.0,,39.21,CLR
2020-01-28 23:00:00,39766.924907,FST,39.9,25.0,54.9,200.0,7.0,30.12,1018.4,10.0,,34.41,CLR
2020-01-29 00:00:00,37800.147341,FST,39.9,24.1,52.88,210.0,7.0,30.14,1018.9,10.0,,35.78,CLR
2020-01-29 01:00:00,36624.470128,FST,37.9,25.0,59.36,210.0,8.0,30.14,1018.9,10.0,,33.4,CLR
2020-01-29 02:00:00,36152.607211,FST,37.9,24.1,57.18,210.0,8.0,30.13,1018.3,10.0,,34.31,CLR
2020-01-29 03:00:00,36212.768487,FST,33.1,24.1,69.17,210.0,5.0,30.13,1018.1,10.0,,29.95,CLR
2020-01-29 04:00:00,36588.336403,FST,35.1,24.1,63.86,130.0,4.0,30.12,1018.0,10.0,,31.04,CLR
2020-01-29 05:00:00,37916.43784,FST,36.0,23.0,58.85,170.0,6.0,30.12,1018.1,10.0,,30.35,CLR
2020-01-29 06:00:00,40922.343809,FST,32.0,23.0,69.04,170.0,7.0,30.12,1018.1,10.0,,24.78,CLR
2020-01-29 07:00:00,45260.511511,FST,32.0,23.0,69.04,160.0,9.0,30.11,1018.1,10.0,,23.51,CLR
2020-01-29 08:00:00,46847.964498,FST,33.1,23.0,66.06,160.0,9.0,30.11,1018.3,10.0,,25.47,CLR
2020-01-29 09:00:00,46280.392395,FST,39.9,23.0,50.5,140.0,10.0,30.11,1018.3,10.0,,33.84,CLR
2020-01-29 10:00:00,45633.199205,FST,46.0,21.9,38.15,130.0,16.0,30.12,1018.2,10.0,,39.21,CLR
2020-01-29 11:00:00,44752.189334,FST,50.0,23.0,34.39,130.0,14.0,30.12,1018.0,10.0,,45.21,CLR
2020-01-29 12:00:00,43740.161182,FST,54.0,21.9,28.33,140.0,15.0,30.11,1016.6,10.0,18.0,,CLR
2020-01-29 13:00:00,42529.34311,FST,55.9,21.9,26.43,130.0,14.0,30.07,1015.6,10.0,19.0,,CLR
2020-01-29 14:00:00,41655.316765,FST,59.0,21.9,23.64,130.0,15.0,30.04,1013.4,10.0,19.0,,CLR
2020-01-29 15:00:00,41156.00185,FST,60.1,21.9,22.73,130.0,19.0,29.99,1012.3,10.0,22.0,,CLR
2020-01-29 16:00:00,40957.763485,FST,60.1,21.0,21.88,130.0,18.0,29.95,1011.3,10.0,24.0,,CLR
2020-01-29 17:00:00,41473.822748,FST,59.0,21.0,22.76,140.0,19.0,29.92,1011.0,10.0,,,CLR
2020-01-29 18:00:00,42828.880235,FST,57.0,19.9,23.34,140.0,17.0,29.92,1011.3,10.0,19.0,,CLR
2020-01-29 19:00:00,44935.218316,FST,54.0,21.9,28.33,130.0,14.0,29.94,1012.0,10.0,,,CLR
2020-01-29 20:00:00,45254.591346,FST,50.0,23.0,34.39,130.0,9.0,29.96,1012.8,10.0,,46.29,CLR
2020-01-29 21:00:00,45012.80846,FST,46.9,24.1,40.44,120.0,9.0,29.96,1012.9,10.0,,42.47,CLR
2020-01-29 22:00:00,43701.091894,FST,45.0,25.0,45.12,120.0,8.0,29.98,1013.3,10.0,,41.19,CLR
2020-01-29 23:00:00,41413.463686,FST,45.0,25.0,45.12,110.0,16.0,29.98,1012.2,10.0,,37.63,CLR
2020-01-30 00:00:00,39201.333439,FST,44.1,27.0,50.73,100.0,13.0,29.98,1013.0,10.0,,38.56,FEW
2020-01-30 01:00:00,37834.566501,FST,41.0,28.0,59.55,100.0,11.0,29.97,1012.4,10.0,,34.25,CLR
2020-01-30 02:00:00,37213.354292,FST,37.0,27.0,66.82,100.0,8.0,29.98,1012.8,10.0,,30.87,CLR
2020-01-30 03:00:00,37006.71588,FST,37.9,28.0,67.2,100.0,8.0,29.99,1013.4,10.0,,31.97,CLR
2020-01-30 04:00:00,37172.943758,FST,34.0,28.0,78.43,90.0,8.0,30.0,1014.0,10.0,,27.94,CLR
2020-01-30 05:00:00,38375.055484,FST,34.0,28.9,81.37,60.0,7.0,30.02,1014.8,10.0,,27.7,CLR
2020-01-30 06:00:00,41127.194302,FST,35.1,30.9,84.49,60.0,11.0,30.04,1015.3,10.0,,27.93,OVC
2020-01-30 07:00:00,45186.780505,FST,36.0,33.1,89.09,70.0,11.0,30.05,1015.9,10.0,,27.98,OVC
2020-01-30 08:00:00,46523.126208,FST,35.1,33.1,96.46,70.0,11.0,30.07,1016.6,10.0,,26.86,OVC
2020-01-30 09:00:00,46005.240992,FST,34.0,33.1,96.46,90.0,10.0,30.08,1017.3,8.0,,27.22,OVC
2020-01-30 10:00:00,45911.11884,FST,35.1,34.0,100.0,100.0,8.0,30.08,1017.5,1.5,,29.26,OVC
2020-01-30 11:00:00,45649.015346,FST,35.1,35.1,100.0,110.0,8.0,30.08,1017.3,2.5,,29.26,OVC
2020-01-30 12:00:00,45000.191668,FST,37.0,36.0,96.49,90.0,7.0,30.08,1017.1,5.0,,32.33,OVC
2020-01-30 13:00:00,44034.382481,FST,39.0,35.1,92.76,110.0,4.0,30.08,1016.4,10.0,,35.59,OVC
2020-01-30 14:00:00,43326.090381,FST,39.0,36.0,88.87,130.0,4.0,30.04,1015.4,10.0,,36.69,OVC
2020-01-30 15:00:00,42731.47697,FST,41.0,35.1,79.34,60.0,4.0,30.02,1014.9,10.0,,38.98,OVC
2020-01-30 16:00:00,42669.218226,FST,43.0,36.0,82.22,320.0,4.0,30.01,1015.1,10.0,,,OVC
2020-01-30 17:00:00,43226.030993,FST,43.0,34.0,70.3,190.0,2.0,30.01,1014.9,10.0,,,OVC
2020-01-30 18:00:00,44557.373363,FST,43.0,34.0,70.3,190.0,5.0,30.01,1015.2,10.0,,40.27,SCT
2020-01-30 19:00:00,46207.300237,FST,39.9,35.1,82.8,150.0,7.0,30.02,1015.6,10.0,,35.78,CLR
2020-01-30 20:00:00,46090.205342,FST,37.9,34.0,85.69,160.0,8.0,30.03,1016.2,10.0,,32.64,CLR
2020-01-30 21:00:00,45474.998787,FST,36.0,34.0,92.35,160.0,7.0,30.04,1016.8,10.0,,29.65,CLR
2020-01-30 22:00:00,43894.208675,FST,35.1,33.1,92.32,150.0,7.0,30.05,1016.8,10.0,,29.26,CLR
2020-01-30 23:00:00,41346.757514,FST,34.0,32.0,92.29,150.0,6.0,30.05,1016.7,10.0,,27.94,CLR
2020-01-31 00:00:00,39067.390027,FST,32.0,30.9,95.65,160.0,7.0,30.04,1016.6,10.0,,26.4,CLR
2020-01-31 01:00:00,37600.847637,FST,33.1,32.0,95.67,170.0,8.0,30.04,1016.5,10.0,,25.47,CLR
2020-01-31 02:00:00,36764.622892,FST,33.1,32.0,95.67,170.0,7.0,30.04,1016.7,10.0,,26.86,CLR
2020-01-31 03:00:00,36600.692816,FST,34.0,32.0,92.29,170.0,7.0,30.06,1016.8,10.0,,28.77,BKN
2020-01-31 04:00:00,36744.313707,FST,34.0,30.9,88.27,160.0,4.0,30.06,1017.1,10.0,,,OVC
2020-01-31 05:00:00,37837.672109,FST,34.0,32.0,92.29,180.0,7.0,30.07,1017.3,10.0,,27.94,OVC
2020-01-31 06:00:00,40514.019854,FST,34.0,33.1,96.46,170.0,5.0,30.09,1017.9,10.0,,,FEW
2020-01-31 07:00:00,44314.268659,FST,33.1,30.9,91.51,330.0,6.0,30.12,1019.0,10.0,,26.86,CLR
2020-01-31 08:00:00,45709.144615,FST,32.0,30.2,100.0,320.0,15.0,30.19,1022.0,10.0,18.0,22.15,CLR
2020-01-31 09:00:00,45201.231614,FST,33.1,33.1,100.0,310.0,10.0,30.24,1023.6,4.0,,24.88,OVC
2020-01-31 10:00:00,44661.616412,FST,36.0,34.0,100.0,290.0,10.0,30.27,1024.7,10.0,,28.49,VV 
2020-01-31 11:00:00,43750.517076,FST,39.0,35.1,89.53,330.0,13.0,30.29,1025.1,10.0,,30.91,BKN
2020-01-31 12:00:00,42032.422393,FST,39.9,35.1,89.53,350.0,14.0,30.3,1025.6,10.0,,31.35,BKN
2020-01-31 13:00:00,40349.927878,FST,37.9,36.0,92.78,350.0,13.0,30.3,1025.2,10.0,,30.37,OVC
2020-01-31 14:00:00,39149.113159,FST,37.0,35.1,95.71,350.0,14.0,30.29,1025.0,10.0,,28.79,OVC
2020-01-31 15:00:00,38232.556623,FST,37.0,36.0,96.49,310.0,14.0,30.28,1024.4,10.0,,28.79,OVC
2020-01-31 16:00:00,37631.42885,FST,41.0,36.0,92.78,320.0,10.0,30.26,1023.5,10.0,,34.7,BKN
2020-01-31 17:00:00,37697.016213,FST,42.1,36.0,78.8,320.0,11.0,30.26,1023.7,10.0,17.0,35.23,SCT
2020-01-31 18:00:00,38610.38723,FST,41.0,35.1,79.34,280.0,11.0,30.28,1024.6,10.0,,33.84,SCT
2020-01-31 19:00:00,40711.37744,FST,39.9,35.1,85.69,280.0,10.0,30.29,1025.0,10.0,,35.04,BKN
2020-01-31 20:00:00,41388.17214,FST,36.0,33.1,89.09,240.0,10.0,30.29,1025.2,10.0,,27.98,CLR
2020-01-31 21:00:00,41506.60605,FST,35.1,32.0,88.33,220.0,12.0,30.29,1025.3,10.0,,25.95,CLR
2020-01-31 22:00:00,41198.01138,FST,35.1,32.0,88.33,230.0,12.0,30.3,1025.5,10.0,,25.95,CLR
2020-01-31 23:00:00,40252.397252,FST,35.1,30.9,84.49,220.0,11.0,30.3,1025.2,10.0,,26.38,CLR
2020-02-01 00:00:00,39060.283128,FST,34.0,30.0,85.11,220.0,13.0,30.3,1025.3,10.0,,24.13,CLR
2020-02-01 01:00:00,38219.959797,FST,34.0,28.9,81.37,220.0,12.0,30.31,1025.8,10.0,,24.55,CLR
2020-02-01 02:00:00,37858.507754,FST,36.0,28.0,72.43,210.0,12.0,30.31,1025.3,10.0,,27.09,CLR
2020-02-01 03:00:00,37979.072152,FST,35.1,27.0,72.04,220.0,11.0,30.3,1025.4,10.0,,26.86,CLR
2020-02-01 04:00:00,38345.897099,FST,37.0,26.1,64.38,220.0,14.0,30.3,1024.9,10.0,,27.97,CLR
2020-02-01 05:00:00,39203.138775,FST,37.9,26.1,62.14,230.0,14.0,30.3,1024.5,10.0,,29.13,CLR
2020-02-01 06:00:00,40654.359027,FST,37.9,26.1,62.14,240.0,15.0,30.3,1025.1,10.0,,29.51,CLR
2020-02-01 07:00:00,42776.894548,FST,37.9,25.0,59.36,230.0,14.0,30.31,1025.6,10.0,,29.51,CLR
2020-02-01 08:00:00,44519.809177,FST,37.9,24.1,57.18,230.0,14.0,30.31,1025.7,10.0,,29.13,CLR
2020-02-01 09:00:00,44598.063079,FST,43.0,25.0,48.7,230.0,14.0,30.32,1025.9,10.0,,36.0,CLR
2020-02-01 10:00:00,43037.570726,FST,48.9,27.0,42.32,230.0,13.0,30.35,1026.4,10.0,,43.82,CLR
2020-02-01 11:00:00,41115.759931,FST,55.9,28.9,35.36,250.0,11.0,30.36,1026.4,10.0,,,CLR
2020-02-01 12:00:00,39157.763583,FST,59.0,24.1,25.93,310.0,11.0,30.37,1026.5,10.0,,,CLR
2020-02-01 13:00:00,37376.662725,FST,62.1,24.1,23.23,300.0,11.0,30.36,1025.3,10.0,,,CLR
2020-02-01 14:00:00,35964.120781,FST,63.0,23.0,21.49,310.0,10.0,30.33,1023.6,10.0,,,CLR
2020-02-01 15:00:00,35066.634064,FST,66.0,24.1,20.26,290.0,11.0,30.28,1022.9,10.0,17.0,,CLR
2020-02-01 16:00:00,34637.95549,FST,66.0,21.9,18.47,300.0,10.0,30.27,1022.6,10.0,,,CLR
2020-02-01 17:00:00,34689.763341,FST,66.9,21.0,17.24,350.0,7.0,30.26,1021.8,10.0,,,CLR
2020-02-01 18:00:00,35181.022259,FST,66.0,23.0,19.35,350.0,4.0,30.24,1021.8,10.0,,,CLR
2020-02-01 19:00:00,36911.663827,FST,55.0,26.1,32.56,350.0,5.0,30.25,1022.7,10.0,,,CLR
2020-02-01 20:00:00,37483.197449,FST,,,,170.0,4.0,30.26,,10.0,,,CLR
2020-02-01 21:00:00,37649.397789,FST,53.1,25.0,33.34,180.0,10.0,30.27,1023.1,10.0,,,CLR
2020-02-01 22:00:00,37498.778548,FST,51.1,23.0,33.01,220.0,11.0,30.27,1022.2,10.0,,,CLR
2020-02-01 23:00:00,36787.14973,FST,50.0,23.0,34.39,220.0,12.0,30.25,1021.8,10.0,,44.91,CLR
2020-02-02 00:00:00,35753.684446,FST,50.0,21.9,32.83,230.0,13.0,30.25,1021.3,10.0,,45.21,CLR
2020-02-02 01:00:00,34860.121543,FST,50.0,21.0,31.6,230.0,13.0,30.23,1020.6,10.0,,44.91,CLR
2020-02-02 02:00:00,34341.525195,FST,48.9,21.0,32.93,230.0,13.0,30.22,1020.3,10.0,,43.22,CLR
2020-02-02 03:00:00,34134.839818,FST,46.9,19.9,33.87,230.0,14.0,30.21,1019.5,10.0,,40.37,CLR
2020-02-02 04:00:00,34302.247882,FST,46.0,19.0,33.72,230.0,13.0,30.19,1019.3,10.0,,40.16,CLR
2020-02-02 05:00:00,34776.216284,FST,48.0,17.1,28.82,230.0,13.0,30.18,1018.4,10.0,,42.07,CLR
2020-02-02 06:00:00,35798.487933,FST,46.9,16.0,28.64,230.0,14.0,30.16,1018.4,10.0,,40.66,CLR
2020-02-02 07:00:00,37246.375866,FST,46.0,17.1,31.07,220.0,14.0,30.16,1018.6,10.0,,39.82,CLR
2020-02-02 08:00:00,38638.31025,FST,46.9,17.1,30.04,220.0,15.0,30.15,1018.8,10.0,,40.1,CLR
2020-02-02 09:00:00,39182.958614,FST,52.0,17.1,24.83,220.0,16.0,30.15,1018.7,10.0,,,CLR
2020-02-02 10:00:00,38289.746883,FST,59.0,18.0,20.02,230.0,16.0,30.16,1018.4,10.0,,,CLR
2020-02-02 11:00:00,36955.667342,FST,63.0,17.1,16.71,230.0,16.0,30.15,1017.7,10.0,,,CLR
2020-02-02 12:00:00,35798.94796,FST,66.0,16.0,14.35,240.0,17.0,30.13,1017.0,10.0,,,CLR
2020-02-02 13:00:00,35316.19206,FST,68.0,16.0,13.39,240.0,17.0,30.12,1015.6,10.0,,,CLR
2020-02-02 14:00:00,35410.971055,FST,71.1,16.0,12.04,240.0,15.0,30.07,1013.0,10.0,,,CLR
2020-02-02 15:00:00,35654.095542,FST,72.0,16.0,11.68,230.0,13.0,30.01,1012.0,10.0,19.0,,CLR
2020-02-02 16:00:00,35946.408574,FST,71.1,12.0,10.11,230.0,14.0,29.98,1011.1,10.0,,,CLR
2020-02-02 17:00:00,36131.616336,FST,70.0,14.0,11.46,210.0,15.0,29.95,1010.5,10.0,,,CLR
2020-02-02 18:00:00,36124.781551,FST,66.9,12.0,11.67,200.0,16.0,29.93,1010.5,10.0,,,CLR
2020-02-02 19:00:00,36870.074534,FST,63.0,18.0,17.37,190.0,8.0,29.92,1010.3,10.0,,,BKN
2020-02-02 20:00:00,36760.738192,FST,61.0,16.0,17.1,190.0,19.0,29.92,1010.3,10.0,23.0,,CLR
2020-02-02 21:00:00,36299.037129,FST,57.9,17.1,20.03,180.0,17.0,29.92,1010.3,10.0,,,CLR
2020-02-02 22:00:00,35818.313488,FST,55.9,18.0,22.39,190.0,14.0,29.92,1010.1,10.0,,,CLR
2020-02-02 23:00:00,34674.153129,FST,53.1,19.9,26.89,200.0,11.0,29.91,1009.3,10.0,,,CLR
2020-02-03 00:00:00,32378.544786,FST,52.0,23.0,31.93,220.0,10.0,29.89,1008.4,10.0,,,CLR
2020-02-03 01:00:00,30872.153455,FST,53.1,25.0,33.34,220.0,11.0,29.86,1007.1,10.0,,,CLR
2020-02-03 02:00:00,30166.440868,FST,54.0,26.1,33.77,240.0,15.0,29.84,1006.9,10.0,,,CLR
2020-02-03 03:00:00,29924.006707,FST,50.0,25.0,37.39,240.0,11.0,29.84,1006.0,10.0,,45.21,CLR
2020-02-03 04:00:00,30074.245081,FST,53.1,26.1,34.9,230.0,12.0,29.81,1005.7,10.0,,,CLR
2020-02-03 05:00:00,31082.398797,FST,54.0,28.0,36.52,250.0,13.0,29.8,1005.3,10.0,,,CLR
2020-02-03 06:00:00,33543.408587,FST,55.9,34.0,43.46,240.0,13.0,29.79,1005.0,10.0,,,CLR
2020-02-03 07:00:00,37267.584405,FST,55.0,34.0,44.9,230.0,13.0,29.78,1004.8,10.0,,,OVC
2020-02-03 08:00:00,38521.10119,FST,54.0,35.1,48.65,230.0,13.0,29.8,1005.9,10.0,,,SCT
2020-02-03 09:00:00,38075.569746,FST,57.9,39.9,51.02,220.0,11.0,29.82,1006.5,10.0,,,OVC
2020-02-03 10:00:00,38144.45787,FST,63.0,42.1,46.34,210.0,11.0,29.82,1006.3,10.0,,,BKN
2020-02-03 11:00:00,38172.698583,FST,66.9,42.1,40.45,220.0,14.0,29.83,1006.7,10.0,,,BKN
2020-02-03 12:00:00,38194.002885,FST,69.1,41.0,35.94,230.0,15.0,29.83,1005.9,10.0,21.0,,OVC
2020-02-03 13:00:00,38297.223623,FST,70.0,41.0,34.85,230.0,15.0,29.8,1004.3,10.0,,,BKN
2020-02-03 14:00:00,38227.337783,FST,73.0,44.1,35.46,240.0,17.0,29.76,1002.5,10.0,19.0,,BKN
2020-02-03 15:00:00,37994.912904,FST,73.9,46.0,36.98,240.0,19.0,29.71,1001.4,10.0,23.0,,FEW
2020-02-03 16:00:00,37786.540662,FST,73.0,45.0,36.7,210.0,21.0,29.67,1000.5,10.0,27.0,,FEW
2020-02-03 17:00:00,37885.393609,FST,73.0,44.1,35.46,240.0,22.0,29.66,1000.2,10.0,29.0,,FEW
2020-02-03 18:00:00,38803.361143,FST,71.1,44.1,37.81,240.0,20.0,29.65,1000.0,10.0,21.0,,CLR
2020-02-03 19:00:00,40182.359597,FST,66.9,45.0,45.19,230.0,17.0,29.66,1000.9,10.0,,,CLR
2020-02-03 20:00:00,40303.105665,FST,64.9,44.1,46.81,230.0,16.0,29.7,1002.3,10.0,,,CLR
2020-02-03 21:00:00,39677.238655,FST,64.0,45.0,49.99,250.0,24.0,29.73,1003.5,10.0,30.0,,BKN
2020-02-03 22:00:00,38044.059396,FST,62.1,45.0,53.45,250.0,18.0,29.73,1002.6,10.0,,,FEW
2020-02-03 23:00:00,35761.616462,FST,60.1,44.1,55.44,220.0,15.0,29.72,1002.7,10.0,,,CLR
2020-02-04 00:00:00,33385.270761,FST,57.9,44.1,59.98,210.0,15.0,29.73,1003.0,10.0,,,CLR
2020-02-04 01:00:00,31768.650492,FST,55.9,43.0,61.81,220.0,14.0,29.73,1002.8,10.0,,,CLR
2020-02-04 02:00:00,30807.665418,FST,60.1,43.0,53.15,240.0,16.0,29.73,1002.7,10.0,22.0,,CLR
2020-02-04 03:00:00,30265.853307,FST,54.0,43.0,66.24,230.0,14.0,29.73,1003.2,10.0,,,CLR
2020-02-04 04:00:00,30180.90696,FST,51.1,42.1,71.19,220.0,10.0,29.75,1003.7,10.0,,,CLR
2020-02-04 05:00:00,30775.029851,FST,50.0,41.0,71.07,210.0,10.0,29.75,1003.6,10.0,,47.77,CLR
2020-02-04 06:00:00,32811.814987,FST,46.9,39.9,76.48,190.0,8.0,29.75,1004.0,10.0,,42.47,CLR
2020-02-04 07:00:00,36373.925643,FST,48.9,39.9,70.95,180.0,8.0,29.75,1004.3,10.0,,45.88,CLR
2020-02-04 08:00:00,37938.261226,FST,46.9,39.9,76.48,330.0,5.0,29.78,1005.4,10.0,,45.72,CLR
2020-02-04 09:00:00,38228.585508,FST,55.9,42.1,59.71,200.0,10.0,29.79,1005.5,10.0,,,BKN
2020-02-04 10:00:00,38992.104302,FST,55.9,42.1,59.71,330.0,5.0,29.81,1006.3,10.0,,,SCT
2020-02-04 11:00:00,39914.427618,FST,64.0,43.0,46.32,350.0,8.0,29.81,1005.7,10.0,,,OVC
2020-02-04 12:00:00,40514.035607,FST,52.0,43.0,71.28,350.0,16.0,29.81,1006.2,10.0,17.0,,CLR
2020-02-04 13:00:00,41126.78083,FST,51.1,42.1,71.19,70.0,14.0,29.8,1006.2,10.0,19.0,,FEW
2020-02-04 14:00:00,41720.931506,FST,46.9,43.0,86.21,50.0,16.0,29.79,1005.4,10.0,,39.84,SCT
2020-02-04 15:00:00,41973.840355,FST,48.9,44.1,83.42,50.0,17.0,29.78,1005.7,10.0,21.0,42.45,FEW
2020-02-04 16:00:00,41887.364671,FST,45.0,39.0,79.36,60.0,15.0,29.81,1006.9,10.0,,38.89,FEW
2020-02-04 17:00:00,42409.275089,FST,43.0,39.9,88.71,350.0,19.0,29.84,1008.5,10.0,21.0,34.23,BKN
2020-02-04 18:00:00,43250.39137,FST,39.9,37.0,92.78,40.0,16.0,29.88,1009.8,10.0,23.0,31.02,OVC
2020-02-04 19:00:00,44999.568693,FST,37.0,36.0,96.13,360.0,13.0,29.93,1011.7,10.0,,28.79,OVC
2020-02-04 20:00:00,45241.755522,FST,36.0,35.1,96.49,30.0,15.0,29.97,1012.7,10.0,19.0,26.32,SCT
2020-02-04 21:00:00,44612.471583,FST,34.0,33.1,96.46,360.0,11.0,29.98,1013.2,7.0,,26.0,BKN
2020-02-04 22:00:00,43314.262703,FST,32.0,32.0,100.0,360.0,10.0,30.01,1014.4,5.0,,25.53,OVC
2020-02-04 23:00:00,41077.28587,FST,32.0,30.9,100.0,360.0,13.0,30.02,1014.3,4.0,,22.76,OVC
2020-02-05 00:00:00,38689.029437,FST,30.9,30.9,100.0,360.0,11.0,30.02,1015.3,5.0,,22.76,OVC
2020-02-05 01:00:00,37146.735882,FST,30.0,28.9,96.38,360.0,16.0,30.04,1015.1,4.0,17.0,19.46,OVC
2020-02-05 02:00:00,36500.755985,FST,28.0,27.0,96.35,360.0,15.0,30.02,1015.8,5.0,,17.3,BKN
2020-02-05 03:00:00,36487.445092,FST,27.0,25.0,95.53,360.0,14.0,30.03,1015.5,8.0,,16.7,BKN
2020-02-05 04:00:00,36959.418693,FST,26.1,25.0,100.0,360.0,13.0,30.03,1015.2,10.0,,15.57,OVC
2020-02-05 05:00:00,38257.516735,FST,25.0,24.1,96.31,350.0,11.0,30.01,1014.7,10.0,,14.81,BKN
2020-02-05 06:00:00,41033.351991,FST,25.0,23.0,91.97,350.0,11.0,29.99,1015.3,10.0,,17.1,SCT
2020-02-05 07:00:00,45286.551718,FST,25.0,23.0,91.97,330.0,14.0,30.01,1015.6,10.0,,16.25,SCT
2020-02-05 08:00:00,47534.545642,FST,24.1,21.9,91.17,340.0,14.0,30.0,1015.5,8.0,,11.95,OVC
2020-02-05 09:00:00,47967.365872,FST,25.0,21.9,87.81,340.0,12.0,30.03,1017.0,9.0,,13.09,OVC
2020-02-05 10:00:00,48549.595108,FST,25.0,23.0,95.47,340.0,17.0,30.04,1017.6,4.0,,13.09,SCT
2020-02-05 11:00:00,48814.551366,FST,25.0,23.0,95.49,340.0,16.0,30.05,1017.8,1.0,,17.01,VV 
2020-02-05 12:00:00,48699.600325,FST,26.1,23.0,91.97,360.0,11.0,30.04,1015.8,9.0,,17.59,FEW
2020-02-05 13:00:00,48355.812541,FST,27.0,23.0,84.66,360.0,10.0,30.0,1015.1,10.0,,19.51,FEW
2020-02-05 14:00:00,48068.235013,FST,27.0,23.0,84.66,310.0,11.0,29.96,1014.1,10.0,,17.3,OVC
2020-02-05 15:00:00,48071.258847,FST,28.0,23.0,81.25,320.0,14.0,29.94,1013.2,10.0,,16.44,OVC
2020-02-05 16:00:00,48260.623819,FST,28.0,21.9,77.57,320.0,11.0,29.91,1013.2,10.0,15.0,18.54,OVC
2020-02-05 17:00:00,49317.190093,FST,27.0,21.9,80.83,330.0,11.0,29.91,1013.2,10.0,,16.15,OVC
2020-02-05 18:00:00,51142.601153,FST,27.0,21.9,80.83,330.0,11.0,29.9,1013.1,10.0,,16.15,OVC
2020-02-05 19:00:00,53393.083786,FST,28.0,23.0,87.76,350.0,11.0,29.91,1013.4,10.0,,17.41,OVC
2020-02-05 20:00:00,53822.385162,FST,24.1,21.0,87.76,350.0,5.0,29.91,1013.8,10.0,,,CLR
2020-02-05 21:00:00,53394.90429,FST,21.9,19.9,91.86,230.0,7.0,29.91,1013.8,10.0,,12.47,CLR
2020-02-05 22:00:00,51828.455441,FST,21.0,19.0,91.83,220.0,10.0,29.92,1014.5,10.0,,9.84,CLR
2020-02-05 23:00:00,49156.991594,FST,21.9,19.0,88.4,230.0,11.0,29.93,1014.4,10.0,,10.3,CLR
2020-02-06 00:00:00,46810.017323,FST,24.1,19.9,83.75,220.0,11.0,29.92,1013.6,10.0,,12.48,CLR
2020-02-06 01:00:00,45554.609832,FST,26.1,21.0,80.75,210.0,10.0,29.91,1012.7,10.0,,16.18,CLR
2020-02-06 02:00:00,45024.022391,FST,23.0,19.9,87.7,200.0,8.0,29.89,1012.6,10.0,,13.81,FEW
2020-02-06 03:00:00,45183.914987,FST,21.9,19.0,88.4,190.0,7.0,29.88,1012.1,10.0,,,CLR
2020-02-06 04:00:00,45835.860559,FST,28.0,21.9,77.57,230.0,10.0,29.87,1011.2,10.0,,18.54,BKN
2020-02-06 05:00:00,47472.436183,FST,28.0,23.0,81.25,240.0,10.0,29.86,1010.9,10.0,,17.95,OVC
2020-02-06 06:00:00,50741.763789,FST,28.0,23.0,81.25,250.0,9.0,29.85,1011.1,10.0,,18.54,SCT
2020-02-06 07:00:00,55010.732793,FST,28.0,23.0,81.25,250.0,10.0,29.87,1011.9,10.0,,18.54,CLR
2020-02-06 08:00:00,56116.335931,FST,26.1,21.9,83.89,250.0,10.0,29.88,1012.7,10.0,,15.57,BKN
2020-02-06 09:00:00,54351.019032,FST,28.9,24.1,82.0,240.0,10.0,29.89,1012.7,10.0,,19.66,CLR
2020-02-06 10:00:00,52213.584371,FST,35.1,26.1,69.41,250.0,9.0,29.9,1012.8,10.0,,28.56,CLR
2020-02-06 11:00:00,49982.489436,FST,39.0,25.0,56.86,270.0,12.0,29.9,1012.2,10.0,,30.91,CLR
2020-02-06 12:00:00,47653.089949,FST,41.0,26.1,55.07,290.0,15.0,29.9,1011.8,10.0,,33.84,CLR
2020-02-06 13:00:00,45653.454442,FST,45.0,25.0,45.12,300.0,22.0,29.89,1009.9,10.0,28.0,36.86,CLR
2020-02-06 14:00:00,44182.640721,FST,46.9,24.1,40.44,300.0,23.0,29.85,1009.2,10.0,29.0,38.53,CLR
2020-02-06 15:00:00,43075.108987,FST,48.9,24.1,37.52,290.0,24.0,29.82,1008.5,10.0,33.0,40.86,CLR
2020-02-06 16:00:00,42346.806132,FST,50.0,24.1,36.01,290.0,23.0,29.8,1007.3,10.0,31.0,42.86,CLR
2020-02-06 17:00:00,42328.659589,FST,51.1,25.0,35.89,290.0,22.0,29.78,1007.1,10.0,29.0,,CLR
2020-02-06 18:00:00,43479.002961,FST,48.9,25.0,38.95,290.0,21.0,29.79,1007.3,10.0,27.0,43.22,CLR
2020-02-06 19:00:00,46588.764142,FST,44.1,28.0,52.86,300.0,16.0,29.81,1008.5,10.0,,38.56,CLR
2020-02-06 20:00:00,48120.205283,FST,42.1,28.0,57.08,270.0,9.0,29.81,1008.7,10.0,,37.09,CLR
2020-02-06 21:00:00,48717.454493,FST,39.9,28.0,62.15,250.0,9.0,29.82,1008.9,10.0,,33.34,CLR
2020-02-06 22:00:00,48132.366856,FST,43.0,28.9,57.21,220.0,13.0,29.82,1008.6,10.0,,35.66,CLR
2020-02-06 23:00:00,46401.499612,FST,44.1,28.9,54.85,230.0,15.0,29.82,1007.9,10.0,,36.47,CLR
2020-02-07 00:00:00,44582.853995,FST,45.0,28.0,51.08,230.0,16.0,29.81,1007.9,10.0,,37.92,CLR
2020-02-07 01:00:00,43470.150811,FST,45.0,28.0,51.08,230.0,15.0,29.81,1007.5,10.0,,37.63,CLR
2020-02-07 02:00:00,43084.348851,,,,,,,,,,,,
2020-02-07 03:00:00,43217.335172,,,,,,,,,,,,
2020-02-07 04:00:00,43701.131466,FST,,,,230.0,11.0,29.82,,10.0,,,CLR
2020-02-07 05:00:00,44985.592268,FST,,,,230.0,14.0,29.82,,10.0,,,CLR
2020-02-07 06:00:00,47649.223522,FST,45.0,28.0,51.08,230.0,13.0,29.84,1008.3,10.0,,38.55,CLR
2020-02-07 07:00:00,51555.686866,FST,43.0,28.9,57.21,230.0,13.0,29.87,1009.7,10.0,,36.0,CLR
2020-02-07 08:00:00,52242.671557,FST,43.0,28.9,57.21,230.0,12.0,29.9,1010.8,10.0,,36.0,CLR
2020-02-07 09:00:00,49790.109089,FST,46.9,30.0,51.58,240.0,9.0,29.93,1011.7,10.0,,42.04,CLR
2020-02-07 10:00:00,46816.476325,FST,53.1,32.0,44.42,270.0,9.0,29.95,1012.1,10.0,,,CLR
2020-02-07 11:00:00,44199.305816,FST,59.0,33.1,37.49,330.0,10.0,29.96,1012.0,10.0,,,CLR
2020-02-07 12:00:00,41890.739276,FST,61.0,35.1,37.81,310.0,13.0,29.96,1011.8,10.0,,,CLR
2020-02-07 13:00:00,39952.289022,FST,63.0,33.1,32.53,330.0,13.0,29.95,1011.2,10.0,,,CLR
2020-02-07 14:00:00,38813.281632,FST,64.9,34.0,31.55,330.0,10.0,29.94,1010.1,10.0,,,CLR
2020-02-07 15:00:00,37965.391322,FST,66.9,33.1,28.39,330.0,8.0,29.91,1009.6,10.0,,,CLR
2020-02-07 16:00:00,37428.876591,FST,68.0,32.0,26.15,310.0,9.0,29.89,1008.9,10.0,,,CLR
2020-02-07 17:00:00,37358.719478,FST,68.0,30.9,25.02,300.0,7.0,29.89,1009.2,10.0,,,CLR
2020-02-07 18:00:00,37702.810571,FST,66.0,36.0,32.88,360.0,5.0,29.9,1009.8,10.0,,,CLR
2020-02-07 19:00:00,39222.145436,FST,62.1,35.1,36.37,40.0,4.0,29.92,1010.5,10.0,,,CLR
2020-02-07 20:00:00,39782.010356,FST,53.1,37.0,54.21,180.0,5.0,29.93,1011.3,10.0,,,CLR
2020-02-07 21:00:00,39710.439581,FST,54.0,37.0,52.45,150.0,7.0,29.97,1012.4,10.0,,,CLR
2020-02-07 22:00:00,39232.175398,FST,48.9,37.9,65.62,160.0,8.0,30.0,1013.5,10.0,,48.01,CLR
2020-02-07 23:00:00,38084.394916,FST,48.9,37.0,63.34,180.0,10.0,30.01,1013.5,10.0,,44.16,CLR
2020-02-08 00:00:00,36839.123561,FST,48.9,35.1,58.75,210.0,9.0,30.02,1013.7,10.0,,44.93,CLR
2020-02-08 01:00:00,35795.600716,FST,52.0,34.0,50.12,210.0,10.0,30.02,1013.3,10.0,,,CLR
2020-02-08 02:00:00,35363.35261,FST,44.1,35.1,70.43,220.0,11.0,30.02,1013.8,10.0,,37.76,CLR
2020-02-08 03:00:00,35230.796798,FST,46.9,34.0,60.61,180.0,10.0,30.02,1013.4,10.0,,42.47,CLR
2020-02-08 04:00:00,35464.70024,FST,46.0,33.1,60.49,220.0,10.0,30.01,1013.3,10.0,,,CLR
2020-02-08 05:00:00,36139.527816,FST,39.9,33.1,76.44,130.0,8.0,30.02,1014.1,10.0,,37.72,CLR
2020-02-08 06:00:00,37476.40418,FST,37.0,32.0,81.93,330.0,8.0,30.05,1015.0,10.0,,33.26,CLR
2020-02-08 07:00:00,39354.029683,FST,37.0,32.0,81.93,180.0,5.0,30.07,1015.9,10.0,,34.4,CLR
2020-02-08 08:00:00,41088.2888,FST,36.0,32.0,85.23,340.0,5.0,30.09,1017.2,10.0,,31.15,CLR
2020-02-08 09:00:00,41745.820327,FST,37.0,33.1,85.64,270.0,11.0,30.12,1018.1,10.0,,28.79,CLR
2020-02-08 10:00:00,41292.562435,FST,42.1,35.1,76.04,290.0,11.0,30.13,1018.4,10.0,,35.23,CLR
2020-02-08 11:00:00,40586.822175,FST,46.0,37.0,70.64,290.0,10.0,30.14,1018.7,10.0,,41.36,CLR
2020-02-08 12:00:00,39536.252324,FST,50.0,37.9,62.98,300.0,8.0,30.14,1017.8,10.0,,47.21,CLR
2020-02-08 13:00:00,38391.399229,FST,54.0,39.9,58.76,350.0,7.0,30.12,1016.1,10.0,,,CLR
2020-02-08 14:00:00,37403.269903,FST,59.0,39.0,47.35,350.0,5.0,30.08,1014.6,10.0,,,CLR
2020-02-08 15:00:00,36712.49777,FST,61.0,41.0,47.66,100.0,7.0,30.03,1013.4,10.0,,,CLR
2020-02-08 16:00:00,36438.912934,FST,64.9,39.9,39.82,100.0,7.0,30.0,1012.1,10.0,,,CLR
2020-02-08 17:00:00,36406.319843,FST,66.0,41.0,39.99,110.0,10.0,29.97,1011.5,10.0,,,CLR
2020-02-08 18:00:00,36686.08235,FST,66.0,44.1,45.05,70.0,9.0,29.95,1011.2,10.0,,,CLR
2020-02-08 19:00:00,38127.566659,FST,63.0,35.1,35.24,140.0,10.0,29.93,1011.1,10.0,14.0,,CLR
2020-02-08 20:00:00,38546.986965,FST,59.0,36.0,42.08,150.0,13.0,29.94,1011.6,10.0,17.0,,CLR
2020-02-08 21:00:00,38147.503616,FST,57.0,36.0,45.22,160.0,13.0,29.94,1012.0,10.0,,,CLR
2020-02-08 22:00:00,37327.013833,FST,55.9,39.9,54.83,160.0,16.0,29.95,1011.9,10.0,21.0,,CLR
2020-02-08 23:00:00,35779.168611,FST,55.9,43.0,61.81,160.0,14.0,29.95,1011.5,10.0,,,CLR
2020-02-09 00:00:00,34288.149077,FST,54.0,43.0,66.24,170.0,11.0,29.94,1011.1,10.0,,,CLR
2020-02-09 01:00:00,32975.464278,FST,53.1,44.1,71.4,170.0,14.0,29.93,1010.2,10.0,,,CLR
2020-02-09 02:00:00,31906.378605,FST,53.1,44.1,71.4,170.0,13.0,29.9,1009.5,10.0,,,CLR
2020-02-09 03:00:00,31228.941784,FST,51.1,44.1,76.86,170.0,13.0,29.9,1009.6,10.0,,,CLR
2020-02-09 04:00:00,30914.4973,FST,48.9,41.0,74.05,240.0,10.0,29.91,1009.6,10.0,,44.16,CLR
2020-02-09 05:00:00,30957.386636,FST,48.9,44.1,83.42,190.0,9.0,29.91,1009.8,10.0,,44.53,CLR
2020-02-09 06:00:00,31346.785468,FST,45.0,42.1,89.49,250.0,11.0,29.92,1010.4,10.0,,41.83,CLR
2020-02-09 07:00:00,32082.101751,FST,45.0,43.0,92.65,170.0,10.0,29.93,1010.8,10.0,,39.68,CLR
2020-02-09 08:00:00,33045.552377,FST,45.0,43.0,92.65,170.0,11.0,29.94,1011.5,10.0,,38.89,CLR
2020-02-09 09:00:00,34446.321489,FST,46.9,44.1,89.92,170.0,11.0,29.96,1012.2,10.0,,41.65,CLR
2020-02-09 10:00:00,35833.535858,FST,55.0,45.0,68.93,180.0,10.0,29.98,1012.4,10.0,,,CLR
2020-02-09 11:00:00,36731.656072,FST,64.9,39.9,39.82,180.0,8.0,29.99,1012.2,10.0,,,CLR
2020-02-09 12:00:00,37137.470414,FST,69.1,30.0,23.22,300.0,5.0,29.99,1011.9,10.0,,,CLR
2020-02-09 13:00:00,37379.209079,FST,71.1,30.0,21.69,330.0,5.0,29.98,1011.2,10.0,,,CLR
2020-02-09 14:00:00,37448.199362,FST,73.0,30.0,20.34,330.0,7.0,29.96,1010.0,10.0,,,CLR
2020-02-09 15:00:00,37427.562155,FST,75.0,30.9,19.73,320.0,5.0,29.93,1009.4,10.0,,,CLR
2020-02-09 16:00:00,37420.279567,FST,75.0,30.9,19.73,350.0,8.0,29.91,1009.3,10.0,,,CLR
2020-02-09 17:00:00,37690.91671,FST,73.0,30.9,21.1,90.0,7.0,29.9,1009.0,10.0,,,CLR
2020-02-09 18:00:00,38371.37686,FST,71.1,34.0,25.49,100.0,4.0,29.93,1010.3,10.0,,,CLR
2020-02-09 19:00:00,39912.671124,FST,66.0,37.9,35.44,110.0,2.0,29.95,1011.2,10.0,,,CLR
2020-02-09 20:00:00,40303.11407,FST,64.0,39.9,41.09,140.0,5.0,29.96,1012.0,10.0,,,CLR
2020-02-09 21:00:00,39757.642801,FST,64.0,43.0,46.32,170.0,10.0,29.98,1012.1,10.0,,,CLR
2020-02-09 22:00:00,38712.987282,FST,60.1,46.0,59.59,170.0,6.0,30.0,1012.7,10.0,,,CLR
2020-02-09 23:00:00,36659.406061,FST,62.1,45.0,53.45,170.0,9.0,30.01,1011.4,10.0,,,CLR
2020-02-10 00:00:00,34346.186984,FST,60.1,46.0,59.59,160.0,8.0,29.99,1011.6,10.0,,,CLR
2020-02-10 01:00:00,32624.984839,FST,59.0,48.0,66.83,160.0,9.0,29.99,1011.2,10.0,,,CLR
2020-02-10 02:00:00,31599.967359,FST,55.0,46.9,74.08,350.0,13.0,29.98,1011.4,10.0,,,SCT
2020-02-10 03:00:00,31137.797463,FST,53.1,44.1,71.4,360.0,10.0,29.97,1010.9,10.0,,,SCT
2020-02-10 04:00:00,31113.470241,FST,48.9,39.9,70.95,360.0,11.0,30.0,1012.3,10.0,16.0,43.82,BKN
2020-02-10 05:00:00,32059.645596,FST,46.9,41.0,82.58,360.0,13.0,30.01,1012.7,10.0,,42.04,FEW
2020-02-10 06:00:00,34443.287349,FST,46.0,41.0,88.77,50.0,15.0,30.02,1012.5,10.0,,40.63,FEW
2020-02-10 07:00:00,38449.181561,FST,43.0,39.9,88.71,360.0,10.0,30.04,1014.4,10.0,,40.27,FEW
2020-02-10 08:00:00,40282.161474,FST,42.1,37.9,84.93,360.0,9.0,30.06,1015.5,10.0,,38.39,OVC
2020-02-10 09:00:00,40762.786315,FST,42.1,39.0,88.67,360.0,8.0,30.11,1015.9,10.0,,40.23,BKN
2020-02-10 10:00:00,41588.755171,FST,41.0,37.9,88.62,360.0,10.0,30.1,1016.8,10.0,,37.93,BKN
2020-02-10 11:00:00,42370.20199,FST,43.0,41.0,92.58,300.0,9.0,30.14,1015.6,10.0,,40.27,SCT
2020-02-10 12:00:00,42669.971205,FST,44.1,41.0,88.77,340.0,8.0,30.09,1015.6,10.0,,39.53,BKN
2020-02-10 13:00:00,42975.622239,FST,44.1,41.0,92.58,350.0,10.0,30.06,1015.2,10.0,,38.56,OVC
2020-02-10 14:00:00,43242.803697,FST,46.0,41.0,88.77,360.0,8.0,30.05,1014.0,10.0,,42.39,OVC
2020-02-10 15:00:00,43297.827824,FST,48.0,42.1,79.91,360.0,7.0,30.01,1013.0,10.0,,45.4,OVC
2020-02-10 16:00:00,43496.62718,FST,48.9,42.1,77.26,360.0,5.0,29.98,1012.5,10.0,,46.47,OVC
2020-02-10 17:00:00,44237.036694,FST,50.0,43.0,79.98,360.0,7.0,29.97,1012.2,10.0,,49.27,BKN
2020-02-10 18:00:00,45203.223557,FST,48.0,42.1,79.91,110.0,8.0,29.96,1012.8,10.0,,44.8,CLR
2020-02-10 19:00:00,46481.143592,FST,46.9,42.1,83.28,150.0,9.0,29.97,1013.3,10.0,,43.48,CLR
2020-02-10 20:00:00,46579.689905,FST,46.0,42.1,86.16,130.0,7.0,29.97,1013.1,10.0,,41.84,CLR
2020-02-10 21:00:00,45781.996545,FST,46.0,42.1,86.16,120.0,8.0,29.98,1013.7,10.0,,41.84,CLR
2020-02-10 22:00:00,43997.530792,FST,46.9,42.1,83.28,120.0,10.0,29.99,1013.9,10.0,,42.04,CLR
2020-02-10 23:00:00,41234.107336,FST,48.0,42.1,79.91,130.0,11.0,29.99,1013.3,10.0,,42.69,CLR
2020-02-11 00:00:00,38688.991547,FST,46.9,42.1,83.28,130.0,11.0,29.98,1012.8,10.0,,41.65,CLR
2020-02-11 01:00:00,37149.312297,FST,46.0,43.0,89.2,90.0,7.0,29.98,1013.4,10.0,,42.39,CLR
2020-02-11 02:00:00,36292.865417,FST,44.1,43.0,95.88,90.0,10.0,29.99,1013.5,10.0,,38.14,CLR
2020-02-11 03:00:00,35970.503537,FST,43.0,43.0,100.0,80.0,11.0,29.99,1013.6,10.0,,37.66,SCT
2020-02-11 04:00:00,36102.187525,FST,42.1,41.0,100.0,70.0,13.0,30.0,1014.2,2.0,16.0,34.86,OVC
2020-02-11 05:00:00,37115.823898,FST,39.0,39.0,100.0,80.0,13.0,30.02,1015.1,0.5,,30.91,VV 
2020-02-11 06:00:00,39851.464779,FST,37.9,37.9,100.0,60.0,11.0,30.05,1016.0,0.25,,29.92,VV 
2020-02-11 07:00:00,43990.489752,FST,37.0,37.0,100.0,70.0,15.0,30.08,1017.2,0.25,,27.97,VV 
2020-02-11 08:00:00,45732.339847,FST,35.1,35.1,100.0,60.0,14.0,30.12,1018.5,0.5,,26.38,VV 
2020-02-11 09:00:00,45742.479998,FST,34.0,34.0,100.0,40.0,14.0,30.15,1019.7,0.25,,24.55,VV 
2020-02-11 10:00:00,45972.733889,FST,34.0,34.0,100.0,50.0,13.0,30.21,1020.5,2.0,,25.48,VV 
2020-02-11 11:00:00,46379.333549,FST,35.1,34.0,100.0,40.0,11.0,30.21,1021.8,4.0,,27.37,BKN
2020-02-11 12:00:00,46392.065828,FST,35.1,34.0,100.0,360.0,12.0,30.22,1021.4,2.5,,27.37,BKN
2020-02-11 13:00:00,46363.874482,FST,35.1,34.0,100.0,50.0,11.0,30.2,1021.1,10.0,,27.37,OVC
2020-02-11 14:00:00,46255.157659,FST,35.1,34.0,95.71,60.0,11.0,30.18,1019.5,7.0,,27.37,OVC
2020-02-11 15:00:00,45991.088915,FST,35.1,34.0,95.71,40.0,11.0,30.14,1018.1,9.0,,27.93,BKN
2020-02-11 16:00:00,45892.134284,FST,35.1,33.1,92.32,70.0,11.0,30.09,1017.6,10.0,,27.37,OVC
2020-02-11 17:00:00,46473.095693,FST,34.0,34.0,100.0,50.0,10.0,30.09,1017.5,10.0,,26.97,BKN
2020-02-11 18:00:00,47612.320876,FST,35.1,33.1,96.46,80.0,9.0,30.07,1017.3,10.0,,28.56,OVC
2020-02-11 19:00:00,48807.842686,FST,34.0,33.1,96.46,90.0,8.0,30.07,1017.1,8.0,,28.77,BKN
2020-02-11 20:00:00,48437.068419,FST,34.0,33.1,96.46,80.0,10.0,30.05,1016.4,10.0,,27.22,OVC
2020-02-11 21:00:00,47527.462305,FST,34.0,33.1,96.46,70.0,8.0,30.06,1017.4,9.0,,29.76,OVC
2020-02-11 22:00:00,45709.082313,FST,34.0,33.1,96.46,360.0,8.0,30.08,1018.0,8.0,,27.94,OVC
2020-02-11 23:00:00,42971.738247,FST,34.0,33.1,96.46,360.0,8.0,30.08,1017.9,6.0,,27.94,OVC
2020-02-12 00:00:00,40572.051922,FST,34.0,33.1,96.46,360.0,7.0,30.08,1017.5,10.0,,29.76,BKN
2020-02-12 01:00:00,38978.104821,FST,34.0,33.1,96.46,360.0,5.0,30.06,1016.6,10.0,,30.97,BKN
2020-02-12 02:00:00,38128.98125,FST,34.0,33.1,100.0,350.0,5.0,30.03,1014.8,10.0,,29.95,OVC
2020-02-12 03:00:00,37767.824665,FST,34.0,33.1,96.46,300.0,5.0,29.99,1013.7,10.0,,28.77,OVC
2020-02-12 04:00:00,37840.397283,FST,34.0,33.1,96.46,300.0,8.0,29.94,1012.6,10.0,,28.77,OVC
2020-02-12 05:00:00,38838.160711,FST,34.0,33.8,100.0,300.0,11.0,29.94,1013.1,10.0,,26.58,OVC
2020-02-12 06:00:00,41337.492694,FST,34.0,32.0,92.29,300.0,13.0,29.93,1012.7,10.0,,26.0,OVC
2020-02-12 07:00:00,45143.6989,FST,35.1,34.0,95.71,260.0,12.0,29.94,1012.2,10.0,,27.93,OVC
2020-02-12 08:00:00,46459.602365,FST,35.1,33.1,92.32,330.0,11.0,29.91,1011.2,10.0,,29.26,BKN
2020-02-12 09:00:00,46074.334161,FST,35.1,34.0,95.71,340.0,11.0,29.93,1013.0,10.0,,27.37,FEW
2020-02-12 10:00:00,45846.658182,FST,36.0,35.1,96.49,340.0,11.0,29.98,1014.4,10.0,,30.35,BKN
2020-02-12 11:00:00,45647.406925,FST,41.0,37.0,85.81,300.0,8.0,29.99,1014.2,10.0,,37.08,OVC
2020-02-12 12:00:00,45237.736099,FST,46.0,39.0,76.4,290.0,11.0,29.98,1013.3,10.0,,40.16,FEW
2020-02-12 13:00:00,44332.001138,FST,52.0,37.0,56.45,300.0,18.0,29.96,1012.1,10.0,23.0,,CLR
2020-02-12 14:00:00,43594.083552,FST,54.0,34.0,46.57,290.0,24.0,29.93,1011.0,10.0,32.0,,CLR
2020-02-12 15:00:00,42858.366019,FST,55.0,35.1,46.91,290.0,24.0,29.9,1010.7,10.0,32.0,,CLR
2020-02-12 16:00:00,42467.533798,FST,55.0,33.1,43.31,290.0,25.0,29.91,1011.2,10.0,31.0,,SCT
2020-02-12 17:00:00,42510.202167,FST,55.0,34.0,44.9,300.0,23.0,29.94,1012.1,10.0,31.0,,BKN
2020-02-12 18:00:00,43173.788707,FST,52.0,33.1,48.34,300.0,22.0,29.97,1013.4,10.0,26.0,,BKN
2020-02-12 19:00:00,44850.032815,FST,48.9,34.0,56.23,290.0,17.0,30.0,1014.6,10.0,23.0,43.82,CLR
2020-02-12 20:00:00,45607.284274,FST,46.9,34.0,60.61,280.0,11.0,30.04,1015.9,10.0,,41.65,CLR
2020-02-12 21:00:00,45476.756667,FST,44.1,34.0,67.41,280.0,10.0,30.07,1017.0,10.0,,40.1,CLR
2020-02-12 22:00:00,44286.434678,FST,42.1,34.0,72.78,280.0,9.0,30.1,1018.1,10.0,,36.07,CLR
2020-02-12 23:00:00,42094.74027,FST,39.9,32.0,73.14,320.0,8.0,30.13,1019.2,10.0,,34.41,CLR
2020-02-13 00:00:00,40086.174778,FST,39.0,30.0,69.85,340.0,8.0,30.15,1019.5,10.0,,36.69,CLR
2020-02-13 01:00:00,38869.32942,FST,35.1,28.9,77.88,340.0,4.0,30.16,1019.6,10.0,,,CLR
2020-02-13 02:00:00,38491.394373,FST,35.1,28.0,75.06,190.0,2.0,30.16,1019.6,10.0,,,CLR
2020-02-13 03:00:00,38481.039952,FST,37.9,27.0,64.49,100.0,4.0,30.16,1019.5,10.0,,35.43,CLR
2020-02-13 04:00:00,38992.758558,FST,35.1,27.0,72.04,110.0,2.0,30.16,1019.6,10.0,,,CLR
2020-02-13 05:00:00,40435.186279,FST,30.9,27.0,85.26,220.0,3.0,30.17,1020.2,10.0,,27.43,CLR
2020-02-13 06:00:00,43581.466839,FST,33.1,27.0,78.03,220.0,4.0,30.18,1020.4,10.0,,,CLR
2020-02-13 07:00:00,47980.992282,FST,32.0,26.1,78.58,0.0,0.0,30.2,1021.3,10.0,,,CLR
2020-02-13 08:00:00,49324.547852,FST,30.9,26.1,82.15,170.0,5.0,30.21,1022.2,10.0,,25.09,CLR
2020-02-13 09:00:00,48251.010854,FST,36.0,28.9,75.15,180.0,5.0,30.24,1023.0,10.0,,33.26,CLR
2020-02-13 10:00:00,47485.144366,FST,41.0,30.0,64.63,140.0,9.0,30.25,1023.0,10.0,,34.7,CLR
2020-02-13 11:00:00,46749.218971,FST,46.0,30.9,55.36,140.0,11.0,30.25,1022.8,10.0,,40.92,CLR
2020-02-13 12:00:00,45756.131951,FST,48.9,30.0,47.85,150.0,13.0,30.24,1022.1,10.0,17.0,43.82,CLR
2020-02-13 13:00:00,44536.605402,FST,53.1,30.0,40.96,170.0,14.0,30.22,1021.0,10.0,17.0,,CLR
2020-02-13 14:00:00,43346.828751,FST,55.0,28.9,36.54,160.0,11.0,30.19,1019.5,10.0,,,CLR
2020-02-13 15:00:00,42152.891577,FST,57.0,28.9,33.98,180.0,9.0,30.15,1018.2,10.0,,,CLR
2020-02-13 16:00:00,41174.736954,FST,57.9,28.9,32.9,210.0,10.0,30.12,1017.9,10.0,,,CLR
2020-02-13 17:00:00,41145.392285,FST,57.9,28.0,31.71,160.0,10.0,30.11,1017.5,10.0,,,CLR
2020-02-13 18:00:00,42160.116364,FST,57.0,28.0,32.75,130.0,11.0,30.1,1017.6,10.0,,,CLR
2020-02-13 19:00:00,45124.066481,FST,52.0,30.0,42.65,130.0,13.0,30.12,1018.4,10.0,,,CLR
2020-02-13 20:00:00,46948.450756,FST,50.0,28.9,43.92,130.0,13.0,30.14,1019.3,10.0,,,CLR
2020-02-13 21:00:00,47622.118178,FST,48.0,30.0,49.49,130.0,11.0,30.17,1020.2,10.0,,42.69,CLR
2020-02-13 22:00:00,47253.843456,FST,46.9,28.9,49.32,130.0,11.0,30.18,1020.6,10.0,,42.04,CLR
2020-02-13 23:00:00,45774.07946,FST,45.0,28.9,53.0,140.0,9.0,30.19,1020.7,10.0,,39.68,CLR
2020-02-14 00:00:00,44286.899743,FST,45.0,28.9,53.0,150.0,11.0,30.19,1020.6,10.0,,39.27,CLR
2020-02-14 01:00:00,43511.272758,FST,44.1,28.9,54.85,160.0,11.0,30.2,1020.4,10.0,,38.14,CLR
2020-02-14 02:00:00,43322.632253,FST,37.9,30.9,75.64,130.0,10.0,30.22,1021.5,10.0,,31.38,CLR
2020-02-14 03:00:00,43574.204743,FST,41.0,30.9,67.03,120.0,14.0,30.22,1021.1,10.0,,33.1,CLR
2020-02-14 04:00:00,44262.222953,FST,39.0,32.0,75.75,140.0,15.0,30.22,1021.1,10.0,19.0,30.54,CLR
2020-02-14 05:00:00,45951.054456,FST,39.0,32.0,75.75,150.0,20.0,30.21,1020.6,10.0,26.0,29.85,CLR
2020-02-14 06:00:00,49160.780045,FST,37.9,32.0,79.08,160.0,17.0,30.22,1021.2,10.0,22.0,28.43,CLR
2020-02-14 07:00:00,53427.18839,FST,37.0,32.0,81.93,160.0,15.0,30.24,1022.2,10.0,17.0,28.37,CLR
2020-02-14 08:00:00,54649.11618,FST,36.0,32.0,85.23,170.0,13.0,30.26,1023.3,10.0,,27.09,CLR
2020-02-14 09:00:00,52760.488508,FST,39.0,33.1,79.17,160.0,14.0,30.27,1023.5,10.0,17.0,30.54,CLR
2020-02-14 10:00:00,50316.271319,FST,42.1,35.1,76.04,160.0,13.0,30.27,1023.5,10.0,,35.63,CLR
2020-02-14 11:00:00,47920.806105,FST,46.0,35.1,65.52,150.0,11.0,30.27,1023.3,10.0,,41.36,CLR
2020-02-14 12:00:00,45357.084887,FST,50.0,36.0,58.44,160.0,9.0,30.26,1022.3,10.0,,,CLR
2020-02-14 13:00:00,43143.288255,FST,55.0,37.0,50.58,100.0,7.0,30.24,1021.0,10.0,,,CLR
2020-02-14 14:00:00,41513.931345,FST,55.0,37.0,50.58,100.0,13.0,30.21,1020.1,10.0,,,CLR
2020-02-14 15:00:00,40033.512237,FST,57.0,37.0,47.04,100.0,13.0,30.17,1018.6,10.0,,,CLR
2020-02-14 16:00:00,39133.910123,FST,57.0,37.0,47.04,100.0,15.0,30.14,1018.0,10.0,,,CLR
2020-02-14 17:00:00,39023.386724,FST,57.0,36.0,45.22,140.0,15.0,30.12,1017.4,10.0,,,CLR
2020-02-14 18:00:00,39608.59139,FST,53.1,35.1,50.28,130.0,18.0,30.1,1017.5,10.0,23.0,,CLR
2020-02-14 19:00:00,41769.926362,FST,50.0,35.1,56.39,140.0,17.0,30.12,1018.3,10.0,22.0,,CLR
2020-02-14 20:00:00,42865.155981,FST,46.9,36.0,65.63,150.0,18.0,30.14,1019.1,10.0,24.0,39.59,CLR
2020-02-14 21:00:00,43240.625047,FST,45.0,36.0,70.53,160.0,19.0,30.15,1019.6,10.0,24.0,37.11,CLR
2020-02-14 22:00:00,43071.912302,FST,44.1,36.0,72.99,160.0,19.0,30.17,1019.9,10.0,24.0,35.93,CLR
2020-02-14 23:00:00,42191.316701,FST,43.0,36.0,76.12,160.0,17.0,30.16,1019.1,10.0,23.0,34.76,CLR
2020-02-15 00:00:00,41013.147791,FST,43.0,36.0,76.12,160.0,18.0,30.14,1018.5,10.0,21.0,36.0,CLR
2020-02-15 01:00:00,40116.993298,FST,42.1,36.0,78.8,170.0,11.0,30.14,1018.3,10.0,,36.07,CLR
2020-02-15 02:00:00,39669.323277,FST,42.1,36.0,78.8,160.0,16.0,30.13,1017.7,10.0,,34.51,CLR
2020-02-15 03:00:00,39533.010612,FST,41.0,36.0,82.22,160.0,14.0,30.11,1017.4,10.0,,33.46,CLR
2020-02-15 04:00:00,39639.992024,FST,41.0,36.0,82.22,160.0,13.0,30.11,1017.0,10.0,,33.46,CLR
2020-02-15 05:00:00,40185.399379,FST,39.0,35.1,85.76,180.0,11.0,30.1,1017.1,10.0,,35.59,CLR
2020-02-15 06:00:00,41394.70414,FST,36.0,34.0,92.35,200.0,3.0,30.11,1017.8,10.0,,33.26,CLR
2020-02-15 07:00:00,42937.933975,FST,35.1,33.1,92.32,220.0,5.0,30.11,1018.2,10.0,,30.08,CLR
2020-02-15 08:00:00,44217.814357,FST,36.0,33.1,89.09,210.0,5.0,30.12,1018.6,10.0,,32.09,CLR
2020-02-15 09:00:00,44658.197443,FST,42.1,37.0,81.98,210.0,5.0,30.12,1018.3,10.0,,39.21,CLR
2020-02-15 10:00:00,43684.610442,FST,52.0,39.9,63.24,140.0,4.0,30.13,1018.3,10.0,,,CLR
2020-02-15 11:00:00,42103.667248,FST,64.0,39.0,39.67,240.0,8.0,30.13,1017.4,10.0,,,CLR
2020-02-15 12:00:00,40223.282444,FST,68.0,33.1,27.34,290.0,9.0,30.12,1016.9,10.0,,,CLR
2020-02-15 13:00:00,38576.048183,FST,70.0,30.9,23.36,300.0,15.0,30.11,1016.0,10.0,19.0,,CLR
2020-02-15 14:00:00,37307.759943,FST,73.9,30.0,19.73,320.0,14.0,30.08,1015.0,10.0,,,CLR
2020-02-15 15:00:00,36412.021827,FST,72.0,28.9,20.12,310.0,11.0,30.06,1014.7,10.0,,,CLR
2020-02-15 16:00:00,35960.026017,FST,73.0,28.9,19.45,330.0,7.0,30.05,1014.0,10.0,,,CLR
2020-02-15 17:00:00,35986.556113,FST,72.0,27.0,18.61,340.0,8.0,30.03,1013.9,10.0,,,CLR
2020-02-15 18:00:00,36456.408213,FST,69.1,30.0,23.22,340.0,7.0,30.04,1014.6,10.0,,,CLR
2020-02-15 19:00:00,37844.700778,FST,63.0,33.1,32.53,320.0,5.0,30.04,1015.1,10.0,,,CLR
2020-02-15 20:00:00,38070.493444,FST,62.1,37.0,39.21,310.0,5.0,30.05,1015.5,10.0,,,CLR
2020-02-15 21:00:00,37616.451194,FST,57.9,37.9,47.18,210.0,8.0,30.07,1016.0,10.0,,,CLR
2020-02-15 22:00:00,36832.911608,FST,57.0,33.1,40.28,210.0,11.0,30.08,1015.7,10.0,,,CLR
2020-02-15 23:00:00,35709.45174,FST,57.0,32.0,38.54,220.0,12.0,30.09,1015.2,10.0,,,CLR
2020-02-16 00:00:00,34324.918692,FST,57.9,32.0,37.31,220.0,11.0,30.07,1014.8,10.0,,,CLR
2020-02-16 01:00:00,33083.638026,FST,55.9,32.0,40.1,230.0,11.0,30.07,1014.5,10.0,,,CLR
2020-02-16 02:00:00,32306.547101,FST,53.1,32.0,44.42,230.0,13.0,30.06,1014.6,10.0,,,CLR
2020-02-16 03:00:00,31969.119977,FST,50.0,32.0,49.81,220.0,12.0,30.06,1014.5,10.0,,,CLR
2020-02-16 04:00:00,31908.861051,FST,50.0,32.0,49.81,220.0,13.0,30.06,1014.1,10.0,,,CLR
2020-02-16 05:00:00,32201.185354,FST,48.0,32.0,53.67,230.0,11.0,30.05,1014.4,10.0,,42.69,CLR
2020-02-16 06:00:00,32895.358714,FST,48.9,30.9,49.63,230.0,11.0,30.05,1014.4,10.0,,44.16,CLR
2020-02-16 07:00:00,33996.249974,FST,50.0,30.9,47.64,220.0,11.0,30.06,1015.0,10.0,,,CLR
2020-02-16 08:00:00,34991.002899,FST,50.0,30.9,47.64,220.0,11.0,30.07,1015.5,10.0,,,CLR
2020-02-16 09:00:00,35832.736055,FST,55.0,32.0,41.44,220.0,11.0,30.09,1015.9,10.0,,,CLR
2020-02-16 10:00:00,36146.133084,FST,63.0,32.0,31.12,230.0,13.0,30.09,1015.9,10.0,,,CLR
2020-02-16 11:00:00,35968.523967,FST,69.1,32.0,25.18,240.0,11.0,30.09,1015.5,10.0,15.0,,CLR
2020-02-16 12:00:00,35755.971169,FST,72.0,28.0,19.39,290.0,14.0,30.09,1015.0,10.0,18.0,,CLR
2020-02-16 13:00:00,35694.773236,FST,73.9,28.0,18.19,280.0,13.0,30.07,1013.4,10.0,22.0,,CLR
2020-02-16 14:00:00,35521.872204,FST,75.0,26.1,16.21,280.0,14.0,30.03,1012.1,10.0,16.0,,CLR
2020-02-16 15:00:00,35563.319153,FST,75.9,25.0,15.02,280.0,11.0,29.98,1010.7,10.0,16.0,,CLR
2020-02-16 16:00:00,35818.823875,FST,77.0,26.1,15.16,270.0,11.0,29.95,1010.5,10.0,,,CLR
2020-02-16 17:00:00,36027.295969,FST,75.9,24.1,14.47,260.0,9.0,29.94,1010.1,10.0,,,CLR
2020-02-16 18:00:00,36417.7785,FST,75.0,25.0,15.48,230.0,9.0,29.93,1009.7,10.0,,,CLR
2020-02-16 19:00:00,37675.196101,FST,66.9,25.0,20.39,210.0,10.0,29.93,1010.2,10.0,,,CLR
2020-02-16 20:00:00,38221.578998,FST,62.1,27.0,26.2,220.0,11.0,29.94,1010.8,10.0,,,CLR
2020-02-16 21:00:00,37666.844946,FST,57.0,28.9,33.98,230.0,11.0,29.95,1011.2,10.0,,,CLR
2020-02-16 22:00:00,36695.322275,FST,57.0,28.0,32.75,220.0,12.0,29.95,1010.7,10.0,,,CLR
2020-02-16 23:00:00,35050.069179,FST,57.9,27.0,30.43,220.0,13.0,29.94,1010.0,10.0,,,CLR
2020-02-17 00:00:00,33109.121362,FST,59.0,26.1,28.18,230.0,16.0,29.93,1009.4,10.0,,,CLR
2020-02-17 01:00:00,31498.929725,FST,57.9,27.0,30.43,220.0,14.0,29.92,1009.2,10.0,,,CLR
2020-02-17 02:00:00,30522.242323,FST,57.0,27.0,31.43,220.0,14.0,29.91,1008.8,10.0,,,CLR
2020-02-17 03:00:00,30112.193421,FST,54.0,27.0,35.05,220.0,14.0,29.9,1008.4,10.0,,,CLR
2020-02-17 04:00:00,30087.132538,FST,55.9,25.0,30.1,230.0,14.0,29.89,1007.6,10.0,,,CLR
2020-02-17 05:00:00,30737.014384,FST,54.0,26.1,33.77,230.0,13.0,29.87,1007.5,10.0,,,CLR
2020-02-17 06:00:00,32567.874431,FST,57.0,24.1,27.86,230.0,14.0,29.87,1007.7,10.0,,,CLR
2020-02-17 07:00:00,35158.065108,FST,54.0,25.0,32.26,220.0,13.0,29.87,1008.2,10.0,,,CLR
2020-02-17 08:00:00,36634.578433,FST,54.0,25.0,32.26,220.0,11.0,29.9,1009.5,10.0,,,CLR
2020-02-17 09:00:00,37375.850661,FST,60.1,27.0,28.13,220.0,11.0,29.91,1009.7,10.0,,,CLR
2020-02-17 10:00:00,38159.450076,FST,69.1,27.0,20.54,230.0,11.0,29.92,1009.5,10.0,,,CLR
2020-02-17 11:00:00,38922.00562,FST,72.0,25.0,17.13,230.0,12.0,29.92,1009.6,10.0,,,CLR
2020-02-17 12:00:00,39398.513798,FST,75.9,23.0,13.82,300.0,13.0,29.92,1008.9,10.0,18.0,,CLR
2020-02-17 13:00:00,39694.095659,FST,77.0,25.0,14.49,290.0,14.0,29.91,1007.8,10.0,18.0,,CLR
2020-02-17 14:00:00,40114.867234,FST,79.0,24.1,13.06,290.0,14.0,29.88,1006.7,10.0,18.0,,CLR
2020-02-17 15:00:00,40611.650689,FST,80.1,25.0,13.08,290.0,14.0,29.84,1005.8,10.0,,78.42,CLR
2020-02-17 16:00:00,40949.424875,FST,79.0,24.1,13.06,340.0,11.0,29.82,1005.2,10.0,,,CLR
2020-02-17 17:00:00,41035.947808,FST,75.9,25.0,15.02,340.0,11.0,29.81,1005.6,10.0,,,CLR
2020-02-17 18:00:00,41113.168215,FST,73.0,28.9,19.45,350.0,10.0,29.82,1006.0,10.0,,,CLR
2020-02-17 19:00:00,42038.742922,FST,69.1,30.0,23.22,350.0,5.0,29.83,1006.8,10.0,,,CLR
2020-02-17 20:00:00,42234.565563,FST,66.0,33.1,29.29,170.0,5.0,29.85,1007.7,10.0,,,CLR
2020-02-17 21:00:00,41093.921298,FST,64.9,30.9,27.85,170.0,8.0,29.87,1007.9,10.0,,,CLR
2020-02-17 22:00:00,39282.935717,FST,64.0,30.0,27.71,200.0,9.0,29.88,1007.9,10.0,,,CLR
2020-02-17 23:00:00,36698.528259,FST,64.0,30.0,27.71,190.0,9.0,29.89,1008.0,10.0,,,CLR
2020-02-18 00:00:00,34043.460111,FST,63.0,32.0,31.12,190.0,7.0,29.9,1008.2,10.0,,,CLR
2020-02-18 01:00:00,32214.463069,FST,66.0,28.9,24.71,220.0,11.0,29.9,1008.0,10.0,,,CLR
2020-02-18 02:00:00,31187.796216,FST,63.0,30.0,28.7,250.0,11.0,29.91,1008.4,10.0,,,CLR
2020-02-18 03:00:00,30571.979679,FST,64.9,30.0,26.85,310.0,11.0,29.91,1008.1,10.0,,,FEW
2020-02-18 04:00:00,30467.806992,FST,61.0,34.0,36.19,310.0,9.0,29.93,1009.5,10.0,,,CLR
2020-02-18 05:00:00,31067.611729,FST,57.0,37.0,47.04,130.0,5.0,29.94,1010.0,10.0,,,CLR
2020-02-18 06:00:00,33225.251687,FST,53.1,37.9,56.17,90.0,11.0,29.96,1010.5,10.0,,,CLR
2020-02-18 07:00:00,36797.843567,FST,50.0,42.1,74.15,360.0,13.0,30.0,1012.7,10.0,,,SCT
2020-02-18 08:00:00,38474.387178,FST,48.0,43.0,82.72,360.0,13.0,30.06,1014.7,10.0,,,CLR
2020-02-18 09:00:00,38777.573922,FST,48.0,44.1,86.28,360.0,19.0,30.1,1015.9,10.0,,42.69,FEW
2020-02-18 10:00:00,39572.532309,FST,48.9,45.0,86.33,360.0,19.0,30.15,1018.0,9.0,23.0,43.51,OVC
2020-02-18 11:00:00,40467.358466,FST,48.9,45.0,86.33,360.0,13.0,30.2,1019.9,9.0,,44.53,OVC
2020-02-18 12:00:00,41081.2486,FST,46.9,41.0,79.82,30.0,12.0,30.21,1020.3,10.0,,41.65,OVC
2020-02-18 13:00:00,41429.088087,FST,46.9,39.0,73.85,360.0,11.0,30.22,1020.2,10.0,,42.04,OVC
2020-02-18 14:00:00,41704.977354,FST,50.0,36.0,58.44,360.0,11.0,30.21,1019.6,10.0,,,OVC
2020-02-18 15:00:00,41535.078813,FST,51.1,36.0,56.1,360.0,11.0,30.19,1019.2,10.0,,,OVC
2020-02-18 16:00:00,41308.532671,FST,51.1,36.0,56.1,360.0,11.0,30.19,1019.6,10.0,,,OVC
2020-02-18 17:00:00,41365.452261,FST,51.1,36.0,56.1,360.0,10.0,30.19,1019.9,10.0,,,OVC
2020-02-18 18:00:00,41962.509805,FST,51.1,35.1,54.13,360.0,9.0,30.2,1020.2,10.0,,,FEW
2020-02-18 19:00:00,43267.25308,FST,50.0,35.1,56.39,60.0,9.0,30.22,1021.1,10.0,,,CLR
2020-02-18 20:00:00,43360.388876,FST,48.0,35.1,60.76,80.0,8.0,30.24,1021.9,10.0,,45.4,CLR
2020-02-18 21:00:00,42481.247774,FST,46.9,35.1,63.33,110.0,5.0,30.25,1022.4,10.0,,44.82,CLR
2020-02-18 22:00:00,40808.163494,FST,46.9,35.1,63.33,110.0,5.0,30.28,1023.1,10.0,,44.09,CLR
2020-02-18 23:00:00,38274.450819,FST,44.1,35.1,70.43,90.0,5.0,30.28,1023.4,10.0,,41.55,BKN
2020-02-19 00:00:00,35857.695991,FST,44.1,35.1,70.43,90.0,5.0,30.28,1023.6,10.0,,41.55,CLR
2020-02-19 01:00:00,34328.767958,FST,43.0,35.1,73.45,90.0,5.0,30.28,1023.8,10.0,,40.27,FEW
2020-02-19 02:00:00,33568.504943,FST,44.1,35.1,70.43,90.0,7.0,30.28,1023.1,10.0,,39.53,BKN
2020-02-19 03:00:00,33271.206315,FST,44.1,35.1,70.43,90.0,7.0,30.28,1023.1,10.0,,40.77,OVC
2020-02-19 04:00:00,33443.411084,FST,44.1,35.1,70.43,90.0,8.0,30.27,1022.1,10.0,,40.1,OVC
2020-02-19 05:00:00,34387.309147,FST,43.0,35.1,73.45,70.0,8.0,30.25,1022.1,10.0,,38.19,OVC
2020-02-19 06:00:00,36996.113848,FST,43.0,35.1,73.45,80.0,7.0,30.25,1022.7,10.0,,38.78,OVC
2020-02-19 07:00:00,41061.873476,FST,42.1,33.1,70.2,70.0,10.0,30.26,1022.8,10.0,,37.09,OVC
2020-02-19 08:00:00,42671.73609,FST,42.1,33.1,70.2,80.0,9.0,30.27,1023.5,10.0,,36.07,OVC
2020-02-19 09:00:00,42599.599781,FST,42.1,33.1,70.2,90.0,12.0,30.29,1023.3,10.0,,34.86,OVC
2020-02-19 10:00:00,42735.801329,FST,44.1,34.0,67.41,90.0,11.0,30.29,1024.1,10.0,,39.53,SCT
2020-02-19 11:00:00,42811.18281,FST,44.1,34.0,67.41,80.0,8.0,30.3,1023.9,10.0,,39.53,SCT
2020-02-19 12:00:00,42686.11912,FST,45.0,35.1,68.05,80.0,9.0,30.28,1022.9,10.0,,41.19,OVC
2020-02-19 13:00:00,42494.465148,FST,46.0,35.1,65.52,110.0,8.0,30.25,1022.1,10.0,,42.39,CLR
2020-02-19 14:00:00,42416.900429,FST,46.9,35.1,63.33,100.0,7.0,30.22,1021.0,10.0,,44.82,BKN
2020-02-19 15:00:00,42268.24426,FST,46.9,36.0,65.63,110.0,8.0,30.2,1019.7,10.0,,42.47,FEW
2020-02-19 16:00:00,42340.642193,FST,46.0,37.0,70.64,80.0,8.0,30.16,1019.0,10.0,,41.36,FEW
2020-02-19 17:00:00,42972.962791,FST,44.1,37.9,78.66,60.0,9.0,30.18,1020.3,10.0,,40.77,FEW
2020-02-19 18:00:00,44138.626717,FST,43.0,39.9,88.71,30.0,8.0,30.18,1020.5,10.0,,39.46,OVC
2020-02-19 19:00:00,45550.712742,FST,42.1,39.9,91.84,80.0,5.0,30.19,1020.7,10.0,,40.23,OVC
2020-02-19 20:00:00,45643.504631,FST,42.1,39.9,91.84,120.0,6.0,30.18,1020.4,10.0,,37.69,FEW
2020-02-19 21:00:00,44928.528592,FST,42.1,39.9,91.84,140.0,7.0,30.17,1020.0,10.0,,38.39,OVC
2020-02-19 22:00:00,43402.609722,FST,42.1,39.9,91.84,130.0,5.0,30.18,1020.4,10.0,,38.39,SCT
2020-02-19 23:00:00,40931.755936,FST,41.0,39.9,95.82,90.0,8.0,30.19,1020.9,7.0,,36.37,CLR
2020-02-20 00:00:00,38527.688909,FST,41.0,39.9,100.0,80.0,6.0,30.2,1020.8,4.0,,37.08,OVC
2020-02-20 01:00:00,37047.996821,FST,41.0,39.9,100.0,100.0,5.0,30.2,1020.9,9.0,,38.98,VV 
2020-02-20 02:00:00,36397.742814,FST,41.0,39.9,96.55,100.0,6.0,30.22,1021.9,7.0,,37.08,OVC
2020-02-20 03:00:00,36292.139307,FST,39.9,39.2,100.0,30.0,9.0,30.24,1022.4,5.0,,33.84,OVC
2020-02-20 04:00:00,36428.486867,FST,39.9,39.0,96.55,30.0,10.0,30.26,1023.4,9.0,,35.78,OVC
2020-02-20 05:00:00,37682.18582,FST,39.9,39.9,100.0,30.0,11.0,30.28,1024.1,10.0,,33.34,BKN
2020-02-20 06:00:00,40647.110583,FST,39.9,39.9,100.0,360.0,9.0,30.33,1025.7,2.5,,33.84,VV 
2020-02-20 07:00:00,44865.120272,FST,39.9,39.0,96.55,360.0,10.0,30.37,1027.2,3.0,,34.41,OVC
2020-02-20 08:00:00,46466.765239,FST,39.9,39.9,100.0,360.0,11.0,30.41,1028.6,3.0,,32.87,OVC
2020-02-20 09:00:00,46441.622669,FST,39.9,39.0,96.55,30.0,11.0,30.46,1030.2,3.5,,32.45,OVC
2020-02-20 10:00:00,46615.666512,FST,41.0,39.9,96.55,40.0,14.0,30.5,1031.6,3.5,,33.84,OVC
2020-02-20 11:00:00,46664.574925,FST,39.9,39.0,96.55,40.0,15.0,30.53,1032.9,5.0,17.0,31.69,BKN
2020-02-20 12:00:00,46122.794272,FST,39.9,39.0,96.55,50.0,16.0,30.55,1033.6,10.0,18.0,32.06,BKN
2020-02-20 13:00:00,45437.159975,FST,37.9,37.0,96.52,50.0,15.0,30.55,1033.5,9.0,19.0,29.13,BKN
2020-02-20 14:00:00,44883.040485,FST,39.9,35.1,82.8,50.0,14.0,30.55,1033.1,10.0,,32.87,OVC
2020-02-20 15:00:00,44350.047977,FST,41.0,32.0,70.08,50.0,11.0,30.54,1032.9,10.0,,33.84,FEW
2020-02-20 16:00:00,44114.989625,FST,42.1,30.9,64.24,50.0,12.0,30.54,1033.0,10.0,,34.86,FEW
2020-02-20 17:00:00,44565.154702,FST,42.1,30.9,64.24,50.0,11.0,30.53,1032.6,10.0,,36.07,SCT
2020-02-20 18:00:00,45665.847017,FST,42.1,30.9,64.24,60.0,10.0,30.55,1033.6,10.0,,36.07,BKN
2020-02-20 19:00:00,47793.292902,FST,41.0,32.0,70.08,60.0,11.0,30.57,1034.2,10.0,,33.84,SCT
2020-02-20 20:00:00,48707.434478,FST,39.0,32.0,75.75,60.0,13.0,30.6,1035.3,10.0,,32.22,BKN
2020-02-20 21:00:00,48540.436752,FST,36.0,32.0,85.23,70.0,10.0,30.62,1036.5,10.0,,30.35,BKN
2020-02-20 22:00:00,47424.666932,FST,34.0,30.9,88.27,80.0,8.0,30.64,1037.0,10.0,,28.77,BKN
2020-02-20 23:00:00,45303.860141,FST,35.1,30.9,88.27,80.0,5.0,30.66,1037.5,10.0,,30.08,CLR
2020-02-21 00:00:00,43436.779227,FST,35.1,30.0,81.46,90.0,8.0,30.66,1037.6,10.0,,28.56,OVC
2020-02-21 01:00:00,42462.625713,FST,35.1,30.0,81.46,110.0,8.0,30.65,1037.7,10.0,,29.26,OVC
2020-02-21 02:00:00,42185.547897,FST,35.1,30.0,81.46,110.0,10.0,30.65,1036.8,10.0,,26.86,OVC
2020-02-21 03:00:00,42411.696222,FST,35.1,28.9,77.88,100.0,9.0,30.63,1036.2,10.0,,28.56,OVC
2020-02-21 04:00:00,43136.700581,FST,34.0,28.9,81.37,100.0,8.0,30.62,1035.6,10.0,,27.22,OVC
2020-02-21 05:00:00,44863.404591,FST,34.0,28.0,78.43,100.0,8.0,30.6,1035.1,10.0,,27.22,OVC
2020-02-21 06:00:00,48054.647823,FST,34.0,28.0,81.3,110.0,7.0,30.58,1034.8,10.0,,27.22,SCT
2020-02-21 07:00:00,52500.87992,FST,33.1,28.0,81.3,100.0,7.0,30.59,1035.3,10.0,,26.12,BKN
2020-02-21 08:00:00,53535.285745,FST,33.1,28.9,84.36,110.0,8.0,30.61,1036.0,10.0,,26.12,OVC
2020-02-21 09:00:00,51771.606817,FST,35.1,30.0,81.46,140.0,9.0,30.62,1036.4,10.0,,28.56,BKN
2020-02-21 10:00:00,49669.152908,FST,36.0,28.4,74.8,140.0,11.0,30.62,1036.2,10.0,,27.98,BKN
2020-02-21 11:00:00,47382.621556,FST,37.0,28.9,72.24,150.0,11.0,30.61,1036.0,10.0,,30.27,FEW
2020-02-21 12:00:00,45107.666105,FST,37.9,28.9,69.73,150.0,10.0,30.61,1036.0,10.0,,31.97,OVC
2020-02-21 13:00:00,43029.565407,FST,41.0,30.0,64.63,140.0,11.0,30.6,1033.4,10.0,,34.7,BKN
2020-02-21 14:00:00,41349.351505,FST,45.0,32.0,60.11,160.0,11.0,30.53,1031.2,10.0,,39.68,OVC
2020-02-21 15:00:00,40013.445443,FST,46.9,33.1,58.47,170.0,10.0,30.48,1029.8,10.0,,42.47,OVC
2020-02-21 16:00:00,39060.791859,FST,48.9,34.0,56.23,160.0,9.0,30.45,1028.5,10.0,,44.93,OVC
2020-02-21 17:00:00,38849.414063,FST,48.9,34.0,56.23,180.0,8.0,30.41,1027.8,10.0,,45.88,OVC
2020-02-21 18:00:00,39681.598412,FST,48.0,34.0,58.16,130.0,10.0,30.38,1027.4,10.0,,43.41,OVC
2020-02-21 19:00:00,42161.663215,FST,46.0,34.0,62.71,120.0,11.0,30.38,1027.7,10.0,,42.39,CLR
2020-02-21 20:00:00,43651.886843,FST,44.1,33.1,65.02,160.0,11.0,30.38,1027.7,10.0,,38.14,CLR
2020-02-21 21:00:00,44052.125134,FST,43.0,33.1,67.82,170.0,14.0,30.38,1027.5,10.0,19.0,36.0,CLR
2020-02-21 22:00:00,43700.101064,FST,43.0,33.1,67.82,170.0,14.0,30.37,1027.3,10.0,20.0,35.66,CLR
2020-02-21 23:00:00,42542.678345,FST,43.0,32.0,64.88,170.0,13.0,30.37,1027.2,10.0,,36.0,CLR
2020-02-22 00:00:00,41176.691026,FST,42.1,32.0,67.17,180.0,13.0,30.38,1026.7,10.0,,35.23,CLR
2020-02-22 01:00:00,40182.465597,FST,41.0,30.9,67.03,170.0,12.0,30.35,1025.4,10.0,,33.46,CLR
2020-02-22 02:00:00,39652.770463,FST,41.0,32.0,70.08,170.0,11.0,30.31,1025.0,10.0,,34.7,CLR
2020-02-22 03:00:00,39358.804909,FST,41.0,32.0,70.08,170.0,10.0,30.31,1023.5,10.0,,35.2,CLR
2020-02-22 04:00:00,39384.417831,FST,41.0,32.0,70.08,170.0,11.0,30.27,1021.9,10.0,,33.84,CLR
2020-02-22 05:00:00,39817.201623,FST,39.9,32.0,73.14,170.0,10.0,30.24,1021.5,10.0,,34.41,CLR
2020-02-22 06:00:00,41084.193024,FST,39.9,32.0,73.14,160.0,9.0,30.21,1021.4,10.0,,33.84,CLR
2020-02-22 07:00:00,42879.363709,FST,39.0,32.0,75.75,160.0,9.0,30.21,1020.8,10.0,,32.22,CLR
2020-02-22 08:00:00,44134.827131,FST,39.9,33.1,76.44,170.0,10.0,30.21,1021.8,10.0,,33.34,CLR
2020-02-22 09:00:00,44560.374157,FST,45.0,36.0,70.53,160.0,9.0,30.23,1022.2,10.0,,43.55,CLR
2020-02-22 10:00:00,43811.884437,FST,50.0,39.0,65.75,170.0,8.0,30.23,1022.0,10.0,,,CLR
2020-02-22 11:00:00,42346.007736,FST,55.9,39.9,54.83,210.0,5.0,30.24,1021.5,10.0,,,CLR
2020-02-22 12:00:00,40507.997135,FST,60.1,42.1,51.35,340.0,4.0,30.23,1020.6,10.0,,,CLR
2020-02-22 13:00:00,38769.120815,FST,64.0,43.0,46.32,350.0,5.0,30.2,1018.8,10.0,,,CLR
2020-02-22 14:00:00,37520.265841,FST,68.0,43.0,40.31,360.0,8.0,30.15,1017.0,10.0,,,CLR
2020-02-22 15:00:00,36552.90374,FST,71.1,44.1,37.81,140.0,6.0,30.11,1015.3,10.0,,,CLR
2020-02-22 16:00:00,36025.392545,FST,70.0,42.1,36.36,110.0,7.0,30.06,1014.1,10.0,,,CLR
2020-02-22 17:00:00,35930.419342,FST,70.0,42.1,36.36,360.0,9.0,30.03,1014.1,10.0,,,CLR
2020-02-22 18:00:00,36432.588554,FST,66.9,39.9,37.14,360.0,11.0,30.03,1014.1,10.0,14.0,,CLR
2020-02-22 19:00:00,38295.04268,FST,61.0,39.0,44.1,160.0,17.0,30.03,1014.6,10.0,23.0,,CLR
2020-02-22 20:00:00,39190.559517,FST,57.0,37.9,48.73,160.0,17.0,30.05,1015.3,10.0,,,CLR
2020-02-22 21:00:00,39219.220773,FST,55.0,37.9,52.4,170.0,11.0,30.08,1016.2,10.0,,,CLR
2020-02-22 22:00:00,38711.748836,FST,55.0,39.0,54.7,160.0,13.0,30.09,1016.0,10.0,,,CLR
2020-02-22 23:00:00,37672.465635,FST,54.0,39.0,56.74,160.0,13.0,30.09,1016.0,10.0,,,CLR
2020-02-23 00:00:00,36485.03641,FST,51.1,39.0,63.12,160.0,14.0,30.08,1015.4,10.0,,,CLR
2020-02-23 01:00:00,35337.35875,FST,50.0,39.0,65.75,160.0,14.0,30.07,1014.6,10.0,,,CLR
2020-02-23 02:00:00,34491.149334,FST,50.0,37.9,62.98,160.0,11.0,30.04,1013.8,10.0,,,CLR
2020-02-23 03:00:00,33969.391252,FST,48.9,37.9,65.62,160.0,13.0,30.03,1013.0,10.0,,44.53,CLR
2020-02-23 04:00:00,33723.670878,FST,50.0,37.9,62.98,150.0,13.0,30.0,1011.3,10.0,,,CLR
2020-02-23 05:00:00,33767.500603,FST,48.9,39.0,68.51,150.0,13.0,29.97,1011.2,10.0,,44.53,CLR
2020-02-23 06:00:00,34173.11028,FST,50.0,39.0,65.75,160.0,10.0,29.96,1011.2,10.0,,,FEW
2020-02-23 07:00:00,35104.316646,FST,50.0,39.9,68.1,170.0,10.0,29.97,1011.7,10.0,,,CLR
2020-02-23 08:00:00,35930.152456,FST,53.1,42.1,66.13,220.0,8.0,29.97,1012.1,10.0,,,CLR
2020-02-23 09:00:00,36932.619914,FST,57.0,43.0,59.4,240.0,9.0,29.98,1011.9,10.0,,,CLR
2020-02-23 10:00:00,37600.254419,FST,55.9,46.0,69.3,350.0,8.0,30.0,1012.9,10.0,,,CLR
2020-02-23 11:00:00,37821.353931,FST,60.1,44.1,55.44,320.0,3.0,29.99,1012.6,10.0,,,CLR
2020-02-23 12:00:00,37683.746393,FST,66.0,45.0,46.62,280.0,4.0,29.99,1011.4,10.0,,,CLR
2020-02-23 13:00:00,37569.178705,FST,72.0,44.1,36.68,360.0,7.0,29.96,1010.4,10.0,,,CLR
2020-02-23 14:00:00,37517.659646,FST,69.1,46.9,45.02,360.0,10.0,29.93,1009.5,10.0,,,CLR
2020-02-23 15:00:00,37397.724295,FST,70.0,46.0,42.2,360.0,18.0,29.91,1009.5,10.0,,,CLR
2020-02-23 16:00:00,37357.448562,FST,68.0,46.0,45.19,350.0,11.0,29.91,1009.5,10.0,,,SCT
2020-02-23 17:00:00,37775.533931,FST,69.1,35.1,28.51,350.0,19.0,29.91,1009.6,10.0,24.0,,FEW
2020-02-23 18:00:00,38547.265152,FST,68.0,34.0,28.34,300.0,22.0,29.92,1009.7,10.0,30.0,,CLR
2020-02-23 19:00:00,39908.261107,FST,64.9,28.9,25.68,300.0,19.0,29.93,1010.5,10.0,24.0,,CLR
2020-02-23 20:00:00,40309.480056,FST,62.1,30.9,30.73,300.0,15.0,29.95,1011.3,10.0,19.0,,CLR
2020-02-23 21:00:00,39655.609593,FST,60.1,27.0,28.13,290.0,10.0,29.97,1011.6,10.0,,,CLR
2020-02-23 22:00:00,38366.851987,FST,57.0,27.0,31.43,310.0,10.0,29.98,1012.2,10.0,,,CLR
2020-02-23 23:00:00,36263.114341,FST,55.0,27.0,33.79,350.0,11.0,29.99,1012.5,10.0,,,CLR
2020-02-24 00:00:00,33936.652981,FST,54.0,28.0,36.52,320.0,11.0,29.99,1012.3,10.0,,,CLR
2020-02-24 01:00:00,32240.663631,FST,55.0,28.9,36.54,310.0,13.0,30.0,1012.2,10.0,,,CLR
2020-02-24 02:00:00,31298.148566,FST,55.9,28.0,34.08,300.0,18.0,30.01,1012.5,10.0,24.0,,CLR
2020-02-24 03:00:00,30877.484245,FST,54.0,28.0,36.52,310.0,19.0,30.0,1012.5,10.0,,,CLR
2020-02-24 04:00:00,30890.230885,FST,51.1,28.9,42.16,280.0,11.0,29.99,1012.3,10.0,,,CLR
2020-02-24 05:00:00,31795.338643,FST,51.1,28.9,42.16,310.0,11.0,29.99,1011.9,10.0,,,CLR
2020-02-24 06:00:00,34045.591432,FST,48.9,28.9,45.75,280.0,10.0,29.98,1012.3,10.0,,44.53,CLR
2020-02-24 07:00:00,37873.256578,FST,48.0,28.9,47.32,260.0,10.0,29.99,1012.6,10.0,,43.03,CLR
2020-02-24 08:00:00,39248.374759,FST,46.9,28.9,49.32,250.0,10.0,30.0,1013.0,10.0,,42.04,CLR
2020-02-24 09:00:00,39083.088423,FST,52.0,30.0,42.65,260.0,10.0,30.0,1013.2,10.0,,,CLR
2020-02-24 10:00:00,39050.25925,FST,57.9,28.9,32.9,290.0,21.0,30.01,1013.2,10.0,26.0,,CLR
2020-02-24 11:00:00,39104.902434,FST,61.0,28.9,29.45,300.0,19.0,30.01,1012.9,10.0,22.0,,CLR
2020-02-24 12:00:00,38899.079294,FST,63.0,28.9,27.44,300.0,16.0,30.0,1012.0,10.0,20.0,,CLR
2020-02-24 13:00:00,38580.106115,FST,66.0,28.9,24.71,320.0,16.0,29.97,1010.7,10.0,22.0,,CLR
2020-02-24 14:00:00,38272.001839,FST,68.0,28.0,22.23,320.0,15.0,29.94,1009.2,10.0,19.0,,CLR
2020-02-24 15:00:00,37958.346567,FST,71.1,23.0,16.24,300.0,16.0,29.9,1008.1,10.0,21.0,,CLR
2020-02-24 16:00:00,37682.031514,FST,72.0,21.9,15.04,300.0,17.0,29.87,1007.5,10.0,23.0,,CLR
2020-02-24 17:00:00,37641.044506,FST,72.0,21.9,15.04,300.0,18.0,29.85,1007.2,10.0,22.0,,CLR
2020-02-24 18:00:00,37922.280186,FST,70.0,21.0,15.5,310.0,17.0,29.85,1007.3,10.0,25.0,,CLR
2020-02-24 19:00:00,39352.038533,FST,64.0,21.9,19.81,300.0,16.0,29.84,1007.7,10.0,19.0,,CLR
2020-02-24 20:00:00,40189.279328,FST,62.1,21.9,21.18,290.0,10.0,29.87,1008.7,10.0,,,CLR
2020-02-24 21:00:00,39778.931184,FST,59.0,23.0,24.76,280.0,10.0,29.89,1009.1,10.0,,,CLR
2020-02-24 22:00:00,38680.973417,FST,53.1,25.0,33.34,240.0,9.0,29.9,1009.7,10.0,,,CLR
2020-02-24 23:00:00,36602.064488,FST,51.1,26.1,37.57,230.0,11.0,29.91,1009.9,10.0,,,CLR
2020-02-25 00:00:00,34630.84736,FST,51.1,26.1,37.57,230.0,12.0,29.91,1009.6,10.0,,,CLR
2020-02-25 01:00:00,33419.100867,FST,51.1,25.0,35.89,230.0,13.0,29.9,1009.3,10.0,,,CLR
2020-02-25 02:00:00,32892.357425,FST,53.1,25.0,33.34,350.0,13.0,29.95,1010.8,10.0,,,CLR
2020-02-25 03:00:00,32876.563646,FST,46.9,24.1,40.44,360.0,13.0,29.97,1011.8,10.0,,42.94,CLR
2020-02-25 04:00:00,33347.52115,FST,42.1,32.0,67.17,20.0,11.0,29.99,1012.7,10.0,,35.63,CLR
2020-02-25 05:00:00,34439.918886,FST,39.9,32.0,73.14,360.0,9.0,30.03,1013.9,10.0,,33.84,CLR
2020-02-25 06:00:00,37260.326967,FST,41.0,34.0,75.94,360.0,11.0,30.05,1014.7,10.0,,34.25,BKN
2020-02-25 07:00:00,41632.367882,FST,41.0,34.0,75.94,360.0,9.0,30.07,1015.8,10.0,,34.7,OVC
2020-02-25 08:00:00,42658.619269,FST,39.9,34.0,79.25,340.0,10.0,30.11,1017.2,10.0,,33.34,OVC
2020-02-25 09:00:00,41641.712596,FST,43.0,33.1,67.82,330.0,12.0,30.13,1018.1,10.0,,36.0,FEW
2020-02-25 10:00:00,41023.789636,FST,45.0,30.9,57.5,350.0,11.0,30.14,1018.3,10.0,,39.68,FEW
2020-02-25 11:00:00,40321.496098,FST,46.9,28.9,49.32,360.0,10.0,30.13,1018.2,10.0,,,CLR
2020-02-25 12:00:00,39561.436788,FST,48.0,28.0,45.61,360.0,10.0,30.13,1017.7,10.0,,43.41,FEW
2020-02-25 13:00:00,39085.547851,FST,50.0,28.0,42.33,350.0,9.0,30.11,1016.8,10.0,,,CLR
2020-02-25 14:00:00,38905.819709,FST,51.1,26.1,37.57,360.0,11.0,30.09,1015.9,10.0,18.0,,FEW
2020-02-25 15:00:00,38803.915782,FST,53.1,25.0,33.34,360.0,14.0,30.08,1016.2,10.0,16.0,,FEW
2020-02-25 16:00:00,38805.070583,FST,52.0,23.0,31.93,360.0,15.0,30.1,1017.3,10.0,,,BKN
2020-02-25 17:00:00,39136.010247,FST,53.1,21.0,28.18,350.0,15.0,30.11,1017.7,10.0,,,FEW
2020-02-25 18:00:00,39670.267452,FST,51.1,16.0,24.48,360.0,18.0,30.14,1018.8,10.0,21.0,,SCT
2020-02-25 19:00:00,41234.906928,FST,48.0,15.1,26.42,360.0,19.0,30.2,1020.9,10.0,22.0,42.37,BKN
2020-02-25 20:00:00,42535.577844,FST,46.9,15.1,27.54,360.0,22.0,30.25,1022.9,10.0,27.0,39.36,FEW
2020-02-25 21:00:00,42451.281328,FST,44.1,19.9,37.67,360.0,21.0,30.31,1024.8,10.0,26.0,36.76,FEW
2020-02-25 22:00:00,41429.579266,FST,44.1,19.9,37.67,350.0,13.0,30.35,1026.1,10.0,,38.56,BKN
2020-02-25 23:00:00,39398.434942,FST,39.9,12.9,32.7,20.0,26.0,30.41,1028.4,10.0,33.0,29.16,BKN
2020-02-26 00:00:00,37554.025329,FST,36.0,10.9,34.87,30.0,21.0,30.46,1030.2,10.0,22.0,26.32,BKN
2020-02-26 01:00:00,36597.123138,FST,34.0,10.9,37.76,360.0,18.0,30.48,1031.0,10.0,22.0,25.48,CLR
2020-02-26 02:00:00,36254.900249,FST,32.0,12.9,44.7,360.0,15.0,30.5,1031.7,10.0,18.0,24.11,CLR
2020-02-26 03:00:00,36508.610789,FST,30.9,12.9,46.74,360.0,10.0,30.52,1032.3,10.0,,22.15,CLR
2020-02-26 04:00:00,37243.023525,FST,28.0,14.0,55.21,320.0,9.0,30.53,1032.9,10.0,,19.19,CLR
2020-02-26 05:00:00,38911.284661,FST,27.0,14.0,57.53,320.0,8.0,30.54,1033.3,10.0,,19.51,CLR
2020-02-26 06:00:00,42197.350501,FST,27.0,15.1,60.37,330.0,10.0,30.56,1034.2,10.0,,16.7,CLR
2020-02-26 07:00:00,47063.769821,FST,26.1,14.0,59.71,340.0,10.0,30.57,1034.7,10.0,,15.57,CLR
2020-02-26 08:00:00,48606.178031,FST,26.1,14.0,59.71,340.0,7.0,30.58,1035.1,10.0,,17.59,CLR
2020-02-26 09:00:00,48084.690899,FST,30.9,15.1,51.47,340.0,14.0,30.6,1035.5,10.0,,20.16,CLR
2020-02-26 10:00:00,47824.705941,FST,34.0,14.0,43.3,350.0,14.0,30.6,1035.2,10.0,,24.13,CLR
2020-02-26 11:00:00,46632.57011,FST,35.1,12.9,39.49,360.0,16.0,30.59,1035.3,10.0,19.0,25.16,CLR
2020-02-26 12:00:00,45031.145586,FST,37.0,12.9,36.63,350.0,14.0,30.59,1034.9,10.0,17.0,28.79,CLR
2020-02-26 13:00:00,43557.912092,FST,39.9,12.9,32.7,360.0,11.0,30.57,1033.7,10.0,16.0,32.87,CLR
2020-02-26 14:00:00,42580.815219,FST,42.1,12.0,28.86,360.0,14.0,30.53,1032.3,10.0,14.0,38.39,CLR
2020-02-26 15:00:00,41539.923936,FST,44.1,12.9,27.81,360.0,11.0,30.49,1031.0,10.0,,40.1,CLR
2020-02-26 16:00:00,40808.420512,FST,45.0,12.0,25.82,340.0,9.0,30.46,1030.1,10.0,,39.68,CLR
2020-02-26 17:00:00,40965.694866,FST,46.0,10.9,23.68,360.0,6.0,30.44,1029.3,10.0,,42.39,CLR
2020-02-26 18:00:00,41943.443291,FST,45.0,10.0,23.63,350.0,5.0,30.41,1028.6,10.0,,,CLR
2020-02-26 19:00:00,44621.760635,FST,43.0,10.0,25.5,90.0,2.0,30.39,1028.8,10.0,,,CLR
2020-02-26 20:00:00,47041.171239,FST,37.9,12.9,35.35,100.0,3.0,30.4,1029.4,10.0,,35.43,CLR
2020-02-26 21:00:00,47631.277785,FST,37.9,14.0,37.1,150.0,4.0,30.41,1029.3,10.0,,35.43,CLR
2020-02-26 22:00:00,47166.506977,FST,33.1,12.9,42.77,160.0,6.0,30.41,1029.5,10.0,,26.86,CLR
2020-02-26 23:00:00,45487.253353,FST,33.1,12.9,42.77,180.0,8.0,30.41,1029.5,10.0,,26.12,CLR
2020-02-27 00:00:00,43977.838013,FST,32.0,12.9,44.7,180.0,9.0,30.4,1028.9,10.0,,25.53,CLR
2020-02-27 01:00:00,43272.998702,FST,30.9,12.9,46.74,190.0,9.0,30.39,1028.4,10.0,,22.76,CLR
2020-02-27 02:00:00,43394.71599,FST,30.0,12.9,48.48,190.0,9.0,30.38,1027.8,10.0,,21.03,CLR
2020-02-27 03:00:00,43889.60905,FST,28.9,12.0,48.72,180.0,9.0,30.36,1026.8,10.0,,19.66,CLR
2020-02-27 04:00:00,44917.322227,FST,33.1,12.0,41.1,210.0,11.0,30.34,1025.6,10.0,,23.86,CLR
2020-02-27 05:00:00,46771.473256,FST,30.9,10.9,42.78,220.0,12.0,30.31,1025.1,10.0,,20.6,CLR
2020-02-27 06:00:00,50299.007716,FST,30.9,10.9,42.78,220.0,14.0,30.3,1025.0,10.0,,20.6,CLR
2020-02-27 07:00:00,55003.247052,FST,30.9,10.9,42.78,220.0,14.0,30.3,1025.2,10.0,,20.6,CLR
2020-02-27 08:00:00,55393.163838,FST,33.1,10.0,37.61,220.0,14.0,30.3,1025.6,10.0,,23.4,CLR
2020-02-27 09:00:00,51826.164847,FST,39.9,10.9,29.92,230.0,13.0,30.33,1026.1,10.0,,31.69,CLR
2020-02-27 10:00:00,48484.412939,FST,48.9,10.0,20.4,250.0,14.0,30.34,1026.1,10.0,,43.82,CLR
2020-02-27 11:00:00,45710.229301,FST,52.0,6.1,15.25,290.0,10.0,30.34,1025.5,10.0,,,CLR
2020-02-27 12:00:00,43304.709098,FST,55.9,6.1,13.22,300.0,7.0,30.32,1025.1,10.0,,,CLR
2020-02-27 13:00:00,41231.504024,FST,57.9,5.0,11.7,330.0,9.0,30.31,1024.2,10.0,,,CLR
2020-02-27 14:00:00,39749.748769,FST,61.0,8.1,12.06,280.0,11.0,30.29,1022.9,10.0,,,CLR
2020-02-27 15:00:00,38456.79854,FST,63.0,9.0,11.7,330.0,10.0,30.25,1022.2,10.0,,,CLR
2020-02-27 16:00:00,37555.331562,FST,64.9,10.9,11.91,330.0,9.0,30.24,1021.5,10.0,15.0,,CLR
2020-02-27 17:00:00,37443.815327,FST,64.9,10.0,11.45,360.0,13.0,30.23,1021.5,10.0,,,CLR
2020-02-27 18:00:00,37872.583681,FST,64.0,10.9,12.3,310.0,10.0,30.23,1021.6,10.0,,,CLR
2020-02-27 19:00:00,39871.788618,FST,57.0,12.9,17.23,310.0,8.0,30.24,1022.4,10.0,,,CLR
2020-02-27 20:00:00,41806.444419,FST,53.1,12.9,19.86,280.0,5.0,30.26,1023.1,10.0,,,CLR
2020-02-27 21:00:00,42423.65967,FST,48.9,15.1,25.55,270.0,4.0,30.27,1023.5,10.0,,48.01,CLR
2020-02-27 22:00:00,42028.050866,FST,50.0,15.1,24.52,250.0,5.0,30.28,1023.3,10.0,,,CLR
2020-02-27 23:00:00,40556.783943,FST,46.9,16.0,28.64,230.0,11.0,30.29,1023.6,10.0,,44.09,CLR
2020-02-28 00:00:00,39036.231579,FST,44.1,17.1,33.4,220.0,11.0,30.29,1023.7,10.0,,37.76,CLR
2020-02-28 01:00:00,38203.555894,FST,43.0,18.0,36.22,230.0,13.0,30.3,1023.9,10.0,,36.0,CLR
2020-02-28 02:00:00,38047.599624,FST,44.1,17.1,33.4,230.0,12.0,30.3,1023.3,10.0,,37.4,CLR
2020-02-28 03:00:00,38330.723901,FST,43.0,16.0,33.22,220.0,13.0,30.29,1023.3,10.0,,36.0,CLR
2020-02-28 04:00:00,38899.26419,FST,43.0,15.1,31.94,220.0,13.0,30.3,1023.2,10.0,,36.0,CLR
2020-02-28 05:00:00,40435.933632,FST,43.0,15.1,31.94,220.0,12.0,30.29,1023.1,10.0,,36.0,CLR
2020-02-28 06:00:00,43510.253849,FST,43.0,15.1,31.94,220.0,13.0,30.3,1023.7,10.0,,36.0,CLR
2020-02-28 07:00:00,47762.376172,FST,44.1,14.0,29.19,220.0,13.0,30.31,1024.2,10.0,,37.4,CLR
2020-02-28 08:00:00,48518.305242,FST,46.0,15.1,28.49,220.0,12.0,30.32,1024.6,10.0,,39.82,CLR
2020-02-28 09:00:00,46095.787973,FST,52.0,15.1,22.77,220.0,11.0,30.35,1025.6,10.0,,,CLR
2020-02-28 10:00:00,43652.87546,FST,57.9,17.1,20.03,260.0,11.0,30.38,1026.4,10.0,,,CLR
2020-02-28 11:00:00,41498.276088,FST,62.1,19.0,18.72,310.0,5.0,30.39,1026.2,10.0,,,CLR
2020-02-28 12:00:00,39668.924284,FST,66.0,16.0,14.35,350.0,5.0,30.38,1025.9,10.0,,,CLR
2020-02-28 13:00:00,38272.599377,FST,69.1,18.0,14.06,350.0,5.0,30.37,1025.1,10.0,,,CLR
2020-02-28 14:00:00,37474.485319,FST,69.1,15.1,12.4,130.0,7.0,30.35,1023.7,10.0,,,CLR
2020-02-28 15:00:00,37011.705767,FST,70.0,16.0,12.5,340.0,5.0,30.31,1022.9,10.0,,,CLR
2020-02-28 16:00:00,36724.523941,FST,71.1,15.1,11.58,360.0,8.0,30.29,1022.5,10.0,,,CLR
2020-02-28 17:00:00,36784.718413,FST,68.0,17.1,14.04,70.0,10.0,30.27,1022.2,10.0,,,CLR
2020-02-28 18:00:00,36855.800311,FST,66.9,18.0,15.16,60.0,11.0,30.28,1022.7,10.0,,,CLR
2020-02-28 19:00:00,37711.81089,FST,60.1,19.9,20.88,70.0,7.0,30.28,1023.1,10.0,,,CLR
2020-02-28 20:00:00,38093.348973,FST,57.0,19.0,22.46,100.0,8.0,30.29,1023.0,10.0,,,CLR
2020-02-28 21:00:00,37721.103142,FST,60.1,12.9,15.42,130.0,10.0,30.29,1023.1,10.0,,,CLR
2020-02-28 22:00:00,37229.17144,FST,55.9,14.0,18.82,160.0,13.0,30.31,1023.7,10.0,18.0,,CLR
2020-02-28 23:00:00,36300.293606,FST,54.0,16.0,22.0,170.0,12.0,30.31,1023.1,10.0,17.0,,CLR
2020-02-29 00:00:00,35179.278334,FST,53.1,16.0,22.74,180.0,11.0,30.29,1022.5,10.0,,,CLR
2020-02-29 01:00:00,34273.701247,FST,52.0,17.1,24.83,170.0,11.0,30.28,1021.6,10.0,,,CLR
2020-02-29 02:00:00,33879.461395,FST,52.0,17.1,24.83,160.0,11.0,30.25,1020.3,10.0,,,CLR
2020-02-29 03:00:00,33821.180412,FST,50.0,17.1,26.74,160.0,11.0,30.22,1019.7,10.0,,,CLR
2020-02-29 04:00:00,34019.899795,FST,48.9,17.1,27.86,180.0,10.0,30.2,1019.0,10.0,,44.53,CLR
2020-02-29 05:00:00,34759.744873,FST,46.9,18.0,31.22,190.0,8.0,30.19,1018.9,10.0,,42.94,CLR
2020-02-29 06:00:00,36133.504626,FST,46.0,19.0,33.72,170.0,9.0,30.17,1018.5,10.0,,41.36,CLR
2020-02-29 07:00:00,38170.947423,FST,46.9,19.0,32.59,170.0,10.0,30.16,1018.8,10.0,,42.04,CLR
2020-02-29 08:00:00,39608.104694,FST,48.0,18.0,29.96,170.0,10.0,30.16,1018.7,10.0,,43.03,CLR
2020-02-29 09:00:00,39906.568186,FST,55.0,19.0,24.14,170.0,10.0,30.16,1018.1,10.0,,,CLR
2020-02-29 10:00:00,39110.856932,FST,61.0,18.0,18.64,150.0,8.0,30.15,1017.9,10.0,,,CLR
2020-02-29 11:00:00,38024.045728,FST,66.9,16.0,13.91,180.0,14.0,30.14,1017.0,10.0,,,FEW
2020-02-29 12:00:00,37255.833641,FST,72.0,15.1,11.23,180.0,16.0,30.13,1015.7,10.0,22.0,,FEW
2020-02-29 13:00:00,36527.001178,FST,73.9,16.0,10.96,210.0,16.0,30.1,1014.5,10.0,19.0,,CLR
2020-02-29 14:00:00,36004.203481,FST,77.0,15.1,9.5,220.0,16.0,30.05,1012.4,10.0,21.0,,CLR
2020-02-29 15:00:00,35816.678679,FST,77.0,16.0,9.88,240.0,15.0,30.0,1011.0,10.0,21.0,,CLR
2020-02-29 16:00:00,35749.314572,FST,79.0,16.0,9.25,240.0,15.0,29.96,1010.0,10.0,14.0,,CLR
2020-02-29 17:00:00,35735.214905,FST,75.0,16.0,10.56,210.0,16.0,29.93,1010.0,10.0,18.0,,CLR
2020-02-29 18:00:00,35703.071152,FST,73.9,16.0,10.96,190.0,18.0,29.93,1010.4,10.0,19.0,,CLR
2020-02-29 19:00:00,36515.775821,FST,70.0,18.0,13.63,180.0,16.0,29.94,1010.6,10.0,23.0,,CLR
2020-02-29 20:00:00,37261.070413,FST,64.0,18.0,16.77,160.0,16.0,29.96,1011.5,10.0,17.0,,CLR
2020-02-29 21:00:00,36745.423493,FST,61.0,23.0,23.06,160.0,14.0,29.96,1011.5,10.0,,,CLR
2020-02-29 22:00:00,35926.419646,FST,61.0,28.9,29.45,160.0,14.0,29.96,1011.0,10.0,,,CLR
2020-02-29 23:00:00,34684.850067,FST,57.9,30.9,35.69,160.0,13.0,29.96,1010.9,10.0,16.0,,CLR
2020-03-01 00:00:00,33216.779253,FST,55.0,33.1,43.31,170.0,9.0,29.96,1010.6,10.0,,,CLR
2020-03-01 01:00:00,31880.527544,FST,54.0,30.0,39.63,190.0,8.0,29.95,1010.3,10.0,,,CLR
2020-03-01 02:00:00,31045.605576,FST,55.0,21.9,27.31,220.0,11.0,29.94,1009.8,10.0,,,CLR
2020-03-01 03:00:00,30463.688084,FST,55.0,21.0,26.29,220.0,11.0,29.93,1009.4,10.0,,,CLR
2020-03-01 04:00:00,30241.871276,FST,55.0,21.9,27.31,220.0,11.0,29.92,1009.1,10.0,,,CLR
2020-03-01 05:00:00,30201.621846,FST,57.0,23.0,26.61,220.0,11.0,29.91,1008.9,10.0,,,CLR
2020-03-01 06:00:00,30651.999522,FST,55.9,25.0,30.1,230.0,11.0,29.92,1009.3,10.0,,,CLR
2020-03-01 07:00:00,31576.903457,FST,55.0,26.1,32.56,230.0,10.0,29.93,1010.1,10.0,,,CLR
2020-03-01 08:00:00,32401.060022,FST,54.0,27.0,35.05,230.0,8.0,29.95,1011.1,10.0,,,CLR
2020-03-01 09:00:00,33865.058472,FST,59.0,28.0,30.48,230.0,9.0,29.97,1011.4,10.0,,,CLR
2020-03-01 10:00:00,35085.093245,FST,64.0,30.0,27.71,240.0,8.0,29.97,1011.5,10.0,,,CLR
2020-03-01 11:00:00,35545.088491,FST,68.0,32.0,26.15,260.0,7.0,29.98,1011.2,10.0,,,CLR
2020-03-01 12:00:00,35608.077512,FST,71.1,28.9,20.74,280.0,11.0,29.96,1010.9,10.0,17.0,,CLR
2020-03-01 13:00:00,35644.184708,FST,73.0,28.0,18.74,300.0,18.0,29.96,1010.1,10.0,22.0,,CLR
2020-03-01 14:00:00,35763.556663,FST,72.0,27.0,18.61,300.0,16.0,29.94,1009.2,10.0,20.0,,CLR
2020-03-01 15:00:00,35830.078475,FST,73.0,28.0,18.74,310.0,16.0,29.9,1008.5,10.0,23.0,,CLR
2020-03-01 16:00:00,36108.30417,FST,73.0,28.0,18.74,320.0,16.0,29.89,1008.2,10.0,17.0,,CLR
2020-03-01 17:00:00,36512.287347,FST,73.0,27.0,17.99,320.0,15.0,29.88,1007.8,10.0,22.0,,CLR
2020-03-01 18:00:00,37023.615079,FST,72.0,27.0,18.61,330.0,10.0,29.88,1007.9,10.0,,,CLR
2020-03-01 19:00:00,38136.95981,FST,66.0,28.9,24.71,360.0,5.0,29.88,1008.6,10.0,,,CLR
2020-03-01 20:00:00,39029.317434,FST,66.0,28.0,23.82,140.0,7.0,29.89,1008.7,10.0,,,CLR
2020-03-01 21:00:00,38568.135187,FST,61.0,32.0,33.4,100.0,4.0,29.9,1009.1,10.0,,,CLR
2020-03-01 22:00:00,37341.847316,FST,62.1,30.0,29.63,170.0,5.0,29.9,1008.7,10.0,,,CLR
2020-03-01 23:00:00,35150.674647,FST,57.9,30.0,34.41,190.0,9.0,29.92,1009.6,10.0,,,CLR
2020-03-02 00:00:00,32780.049649,FST,60.1,30.0,31.8,180.0,9.0,29.92,1009.3,10.0,,,CLR
2020-03-02 01:00:00,31122.158116,FST,59.0,30.0,33.08,180.0,8.0,29.92,1008.9,10.0,,,CLR
2020-03-02 02:00:00,30142.135247,FST,60.1,28.9,30.41,190.0,8.0,29.92,1009.3,10.0,,,CLR
2020-03-02 03:00:00,29675.076363,FST,57.0,30.9,36.86,170.0,5.0,29.91,1008.7,10.0,,,CLR
2020-03-02 04:00:00,29635.152355,FST,57.9,30.0,34.41,170.0,9.0,29.88,1007.4,10.0,,,CLR
2020-03-02 05:00:00,30304.202255,FST,55.0,33.1,43.31,180.0,4.0,29.87,1007.8,10.0,,,CLR
2020-03-02 06:00:00,32384.123776,FST,55.0,36.0,48.62,250.0,5.0,29.87,1007.6,10.0,,,CLR
2020-03-02 07:00:00,35850.175942,FST,53.1,36.0,52.11,310.0,8.0,29.88,1008.5,10.0,,,CLR
2020-03-02 08:00:00,37199.788368,FST,55.9,36.0,47.05,250.0,8.0,29.89,1008.8,10.0,,,CLR
2020-03-02 09:00:00,37566.842746,FST,57.9,34.0,40.43,270.0,5.0,29.91,1009.5,10.0,,,CLR
2020-03-02 10:00:00,38133.069004,FST,59.0,32.0,35.87,240.0,9.0,29.91,1009.6,10.0,,,CLR
2020-03-02 11:00:00,38719.14106,FST,61.0,34.0,36.19,270.0,8.0,29.92,1009.8,10.0,,,CLR
2020-03-02 12:00:00,38995.105874,FST,64.9,33.1,30.44,280.0,5.0,29.92,1009.1,10.0,,,CLR
2020-03-02 13:00:00,39238.549756,FST,66.0,32.0,28.03,290.0,5.0,29.9,1008.6,10.0,,,CLR
2020-03-02 14:00:00,39628.010446,FST,66.0,33.1,29.29,350.0,4.0,29.89,1007.3,10.0,,,BKN
2020-03-02 15:00:00,39940.318682,FST,66.9,35.1,30.75,340.0,5.0,29.85,1006.7,10.0,,,OVC
2020-03-02 16:00:00,39871.829816,FST,66.9,35.1,30.75,300.0,15.0,29.83,1006.5,10.0,15.0,,OVC
2020-03-02 17:00:00,39811.74124,FST,64.9,36.0,34.17,320.0,9.0,29.84,1006.8,10.0,,,BKN
2020-03-02 18:00:00,39986.087387,FST,63.0,37.0,37.99,300.0,7.0,29.83,1006.9,10.0,,,OVC
2020-03-02 19:00:00,41112.52166,FST,61.0,37.9,42.24,330.0,10.0,29.84,1007.2,10.0,,,OVC
2020-03-02 20:00:00,41488.020157,FST,59.0,43.0,55.28,300.0,5.0,29.85,1007.6,10.0,,,OVC
2020-03-02 21:00:00,40663.18734,FST,59.0,42.1,53.4,330.0,8.0,29.86,1008.1,10.0,,,OVC
2020-03-02 22:00:00,39131.57876,FST,57.9,42.1,55.55,290.0,10.0,29.9,1008.9,10.0,,,OVC
2020-03-02 23:00:00,36673.411701,FST,57.0,45.0,64.12,310.0,8.0,29.9,1009.5,10.0,,,SCT
2020-03-03 00:00:00,34107.93752,FST,55.9,46.0,69.3,300.0,11.0,29.91,1009.1,10.0,,,OVC
2020-03-03 01:00:00,32406.737506,FST,55.0,48.0,77.21,310.0,18.0,29.9,1007.1,10.0,,,OVC
2020-03-03 02:00:00,31508.529642,FST,55.0,46.9,74.08,300.0,14.0,29.89,1008.4,10.0,,,BKN
2020-03-03 03:00:00,31040.653385,FST,55.0,46.9,74.08,280.0,11.0,29.89,1008.6,10.0,,,FEW
2020-03-03 04:00:00,30672.929711,FST,53.1,48.0,82.76,290.0,11.0,29.89,1008.2,10.0,,,BKN
2020-03-03 05:00:00,31128.957018,FST,53.1,48.0,82.76,300.0,11.0,29.87,1008.1,10.0,,,OVC
2020-03-03 06:00:00,33177.199196,FST,52.0,48.9,89.13,300.0,11.0,29.91,1009.7,10.0,,,OVC
2020-03-03 07:00:00,36628.192003,FST,51.1,48.9,92.14,320.0,9.0,29.91,1009.7,10.0,,,FEW
2020-03-03 08:00:00,37779.477208,FST,51.1,48.9,92.14,360.0,7.0,29.9,1009.6,10.0,,,FEW
2020-03-03 09:00:00,38032.350673,FST,51.1,50.0,96.0,210.0,5.0,29.9,1009.7,10.0,,,FEW
2020-03-03 10:00:00,38626.723667,FST,52.0,50.0,92.86,230.0,7.0,29.91,1009.7,10.0,,,OVC
2020-03-03 11:00:00,39316.30262,FST,54.0,48.9,82.82,240.0,8.0,29.9,1009.2,10.0,,,BKN
2020-03-03 12:00:00,39927.81628,FST,54.0,48.0,80.07,180.0,10.0,29.89,1009.0,10.0,,,BKN
2020-03-03 13:00:00,40333.268284,FST,52.0,48.9,89.13,360.0,11.0,29.88,1008.9,10.0,,,FEW
2020-03-03 14:00:00,40546.775861,FST,52.0,50.0,92.86,340.0,12.0,29.89,1007.9,8.0,,,BKN
2020-03-03 15:00:00,40448.310218,FST,52.0,51.1,96.73,50.0,8.0,29.84,1007.1,10.0,,,FEW
2020-03-03 16:00:00,40106.808989,FST,53.1,50.0,92.86,360.0,6.0,29.83,1007.2,10.0,,,SCT
2020-03-03 17:00:00,40040.308926,FST,54.0,51.1,89.88,80.0,8.0,29.82,1006.3,10.0,,,SCT
2020-03-03 18:00:00,40173.52874,FST,54.0,52.0,92.92,90.0,10.0,29.8,1006.1,10.0,,,FEW
2020-03-03 19:00:00,41194.522442,FST,53.1,51.1,96.73,90.0,11.0,29.79,1006.1,10.0,,,BKN
2020-03-03 20:00:00,41650.255783,FST,52.0,51.1,96.73,80.0,9.0,29.8,1006.4,10.0,,,BKN
2020-03-03 21:00:00,41103.299345,FST,52.0,51.1,96.73,360.0,6.0,29.82,1007.0,10.0,,,FEW
2020-03-03 22:00:00,39588.151343,FST,53.1,51.1,92.89,360.0,8.0,29.85,1008.1,10.0,,,OVC
2020-03-03 23:00:00,37118.639075,FST,53.1,51.1,96.73,340.0,19.0,29.89,1009.6,10.0,26.0,42.0,OVC
2020-03-04 00:00:00,34721.807309,FST,48.9,46.9,95.95,290.0,20.0,29.88,1009.3,10.0,25.0,42.0,FEW
2020-03-04 01:00:00,32931.920115,FST,46.9,46.0,96.66,320.0,17.0,29.91,1009.7,10.0,22.0,41.65,BKN
2020-03-04 02:00:00,31808.815369,FST,46.9,46.4,100.0,350.0,10.0,29.9,1009.5,10.0,,44.09,FEW
2020-03-04 03:00:00,31235.828533,FST,46.9,46.0,96.66,310.0,11.0,29.89,1009.7,10.0,,42.47,BKN
2020-03-04 04:00:00,31233.382879,FST,48.2,46.4,96.66,310.0,12.0,29.88,1009.4,10.0,,45.04,OVC
2020-03-04 05:00:00,31892.184476,FST,46.9,46.0,96.66,290.0,10.0,29.89,1009.9,10.0,,42.47,OVC
2020-03-04 06:00:00,34079.913096,FST,46.9,45.0,93.06,330.0,11.0,29.92,1010.8,10.0,,42.39,OVC
2020-03-04 07:00:00,37667.671862,FST,46.0,44.1,93.03,290.0,7.0,29.94,1011.6,10.0,,43.77,OVC
2020-03-04 08:00:00,39034.393297,FST,46.9,42.1,83.28,280.0,7.0,29.96,1012.3,10.0,,43.48,SCT
2020-03-04 09:00:00,39523.153234,FST,48.9,41.0,74.05,290.0,11.0,29.99,1013.2,10.0,,43.82,BKN
2020-03-04 10:00:00,40092.548994,FST,50.0,39.9,68.1,290.0,19.0,30.0,1013.5,10.0,23.0,,CLR
2020-03-04 11:00:00,40400.379591,FST,51.1,41.0,68.23,300.0,19.0,30.02,1014.1,10.0,22.0,,M
2020-03-04 12:00:00,40612.479805,FST,50.0,41.0,71.07,300.0,16.0,30.04,,10.0,20.0,,SCT
2020-03-04 13:00:00,40651.331596,FST,54.0,44.1,71.19,310.0,14.0,30.05,1015.0,10.0,15.0,,M
2020-03-04 14:00:00,40452.103057,FST,53.6,45.0,73.89,280.0,15.0,30.04,1014.9,10.0,20.0,,FEW
2020-03-04 15:00:00,39816.717469,FST,51.1,44.1,76.86,330.0,14.0,30.06,1015.6,10.0,,,SCT
2020-03-04 16:00:00,39523.231583,FST,50.0,46.0,86.33,360.0,17.0,30.1,1017.0,10.0,,43.22,BKN
2020-03-04 17:00:00,39657.281741,FST,48.9,44.1,86.28,360.0,21.0,30.13,1018.2,10.0,24.0,42.0,FEW
2020-03-04 18:00:00,40160.659834,FST,48.0,43.0,82.72,40.0,19.0,30.16,1019.4,10.0,25.0,41.04,FEW
2020-03-04 19:00:00,41287.435352,FST,48.0,41.0,76.58,360.0,17.0,30.2,1020.8,10.0,,42.69,OVC
2020-03-04 20:00:00,41659.353951,FST,46.9,41.0,79.82,360.0,13.0,30.23,1021.9,10.0,,40.66,FEW
2020-03-04 21:00:00,40989.963966,FST,46.0,41.0,82.58,360.0,11.0,30.25,1022.6,10.0,,40.52,BKN
2020-03-04 22:00:00,39534.806124,FST,45.0,39.9,82.19,350.0,8.0,30.27,1022.9,10.0,,42.6,OVC
2020-03-04 23:00:00,37219.923239,FST,45.0,39.9,85.06,330.0,5.0,30.28,1023.4,10.0,,42.6,OVC
2020-03-05 00:00:00,34926.36545,FST,42.1,39.0,88.67,290.0,7.0,30.28,1023.1,10.0,,37.09,BKN
2020-03-05 01:00:00,33394.434871,FST,42.1,39.0,88.67,250.0,9.0,30.26,1022.7,10.0,,36.07,CLR
2020-03-05 02:00:00,32639.338083,FST,42.1,39.9,91.84,250.0,10.0,30.26,1022.8,10.0,,36.07,CLR
2020-03-05 03:00:00,32392.596299,FST,42.1,39.0,88.67,240.0,10.0,30.26,1022.6,10.0,,36.55,CLR
2020-03-05 04:00:00,32658.8865,FST,41.0,37.9,88.62,240.0,11.0,30.25,1022.2,10.0,,33.84,CLR
2020-03-05 05:00:00,33734.8606,FST,41.0,37.9,88.62,240.0,11.0,30.23,1022.1,10.0,,33.84,CLR
2020-03-05 06:00:00,36274.046135,FST,41.0,37.0,85.54,230.0,14.0,30.25,1022.7,10.0,,33.46,CLR
2020-03-05 07:00:00,40259.693076,FST,41.0,37.0,85.54,230.0,14.0,30.26,1023.2,10.0,,33.1,CLR
2020-03-05 08:00:00,41139.710916,FST,43.0,37.0,79.19,230.0,15.0,30.29,1024.1,10.0,,35.66,CLR
2020-03-05 09:00:00,40119.190392,FST,48.0,37.9,67.87,230.0,14.0,30.33,1025.4,10.0,,42.37,CLR
2020-03-05 10:00:00,39275.674503,FST,54.0,39.9,58.76,240.0,13.0,30.36,1026.0,10.0,,,CLR
2020-03-05 11:00:00,38687.200265,FST,59.0,37.9,45.36,270.0,9.0,30.36,1025.9,10.0,,,CLR
2020-03-05 12:00:00,38164.795479,FST,62.1,37.0,39.21,260.0,6.0,30.36,1025.8,10.0,,,CLR
2020-03-05 13:00:00,37804.557151,FST,64.0,37.0,36.68,360.0,5.0,30.36,1025.4,10.0,,,CLR
2020-03-05 14:00:00,37728.610179,FST,66.0,34.0,30.37,350.0,7.0,30.35,1024.8,10.0,,,CLR
2020-03-05 15:00:00,37764.51712,FST,68.0,32.0,26.15,320.0,4.0,30.33,1024.0,10.0,,,CLR
2020-03-05 16:00:00,37901.110047,FST,70.0,32.0,24.42,360.0,5.0,30.32,1023.9,10.0,,,CLR
2020-03-05 17:00:00,38236.394866,FST,69.1,30.0,23.22,350.0,7.0,30.31,1023.9,10.0,,,CLR
2020-03-05 18:00:00,38173.05767,FST,68.0,33.1,27.34,40.0,8.0,30.31,1024.0,10.0,,,CLR
2020-03-05 19:00:00,38625.029704,FST,62.1,37.9,40.62,60.0,8.0,30.34,1025.1,10.0,,,CLR
2020-03-05 20:00:00,39652.001204,FST,59.0,37.9,45.36,100.0,7.0,30.36,1026.0,10.0,,,CLR
2020-03-05 21:00:00,39127.160181,FST,57.9,37.9,47.18,130.0,5.0,30.38,1026.3,10.0,,,CLR
2020-03-05 22:00:00,37873.372395,FST,54.0,39.0,56.74,170.0,9.0,30.41,1027.3,10.0,,,CLR
2020-03-05 23:00:00,35806.974344,FST,50.0,42.1,74.15,80.0,8.0,30.43,1028.0,10.0,,,CLR
2020-03-06 00:00:00,33703.591103,FST,50.0,43.0,76.76,100.0,7.0,30.44,1027.9,10.0,,,CLR
2020-03-06 01:00:00,32278.856106,FST,50.0,43.0,76.76,110.0,5.0,30.44,1028.0,10.0,,,CLR
2020-03-06 02:00:00,31610.753767,FST,48.9,42.1,77.26,130.0,5.0,30.44,1028.0,10.0,,46.47,CLR
2020-03-06 03:00:00,31419.278117,FST,46.0,41.0,82.58,110.0,5.0,30.44,1027.9,10.0,,44.69,CLR
2020-03-06 04:00:00,31880.048616,FST,46.9,42.1,83.28,140.0,6.0,30.44,1027.5,10.0,,43.48,CLR
2020-03-06 05:00:00,33086.869881,FST,46.0,41.0,82.58,160.0,8.0,30.44,1027.9,10.0,,41.36,CLR
2020-03-06 06:00:00,35702.429912,FST,45.0,41.0,85.77,170.0,9.0,30.45,1028.3,10.0,,43.55,CLR
2020-03-06 07:00:00,39846.687472,FST,44.1,39.9,85.06,160.0,5.0,30.47,1029.7,10.0,,42.52,CLR
2020-03-06 08:00:00,40934.957901,FST,45.0,41.0,85.77,170.0,5.0,30.47,1029.7,10.0,,41.83,CLR
2020-03-06 09:00:00,40153.878226,FST,48.9,41.0,74.05,160.0,8.0,30.49,1030.3,10.0,,45.38,CLR
2020-03-06 10:00:00,39494.101838,FST,55.0,42.1,61.69,140.0,14.0,30.5,1030.2,10.0,,,CLR
2020-03-06 11:00:00,38840.901709,FST,57.9,41.0,53.24,140.0,15.0,30.49,1030.1,10.0,,,CLR
2020-03-06 12:00:00,38279.92295,FST,62.1,39.9,43.93,150.0,16.0,30.49,1029.3,10.0,21.0,,CLR
2020-03-06 13:00:00,37699.066044,FST,64.9,36.0,34.17,150.0,18.0,30.47,1027.6,10.0,26.0,,CLR
2020-03-06 14:00:00,37514.876144,FST,66.0,33.1,29.29,150.0,21.0,30.42,1025.9,10.0,28.0,,CLR
2020-03-06 15:00:00,37329.408424,FST,66.9,30.9,25.98,150.0,22.0,30.37,1024.4,10.0,30.0,,CLR
2020-03-06 16:00:00,37297.489405,FST,66.9,28.9,23.95,150.0,22.0,30.33,1024.3,10.0,27.0,,CLR
2020-03-06 17:00:00,37330.211543,FST,66.0,28.9,24.71,140.0,21.0,30.32,1023.4,10.0,28.0,,CLR
2020-03-06 18:00:00,37181.333779,FST,64.0,28.9,26.5,140.0,19.0,30.3,1023.4,10.0,22.0,,CLR
2020-03-06 19:00:00,37619.321272,FST,61.0,28.9,29.45,140.0,17.0,30.31,1024.0,10.0,23.0,,CLR
2020-03-06 20:00:00,38278.883908,FST,59.0,32.0,35.87,130.0,14.0,30.32,1024.3,10.0,18.0,,CLR
2020-03-06 21:00:00,37974.533219,FST,57.9,33.1,39.0,130.0,14.0,30.33,1024.6,10.0,,,CLR
2020-03-06 22:00:00,37339.101201,FST,57.0,34.0,41.76,140.0,12.0,30.34,1024.6,10.0,,,FEW
2020-03-06 23:00:00,36224.972332,FST,55.9,34.0,43.46,140.0,14.0,30.33,1023.9,10.0,18.0,,CLR
2020-03-07 00:00:00,34787.074261,FST,55.0,33.1,43.31,150.0,15.0,30.32,1022.9,10.0,22.0,,CLR
2020-03-07 01:00:00,33732.422659,FST,55.0,30.9,39.63,150.0,16.0,30.29,1022.1,10.0,22.0,,CLR
2020-03-07 02:00:00,33123.677916,FST,54.0,30.0,39.63,150.0,18.0,30.26,1021.5,10.0,24.0,,CLR
2020-03-07 03:00:00,32955.101688,FST,53.1,30.0,40.96,160.0,18.0,30.25,1020.7,10.0,22.0,,CLR
2020-03-07 04:00:00,33044.469181,FST,53.1,28.9,39.16,150.0,16.0,30.24,1019.8,10.0,22.0,,CLR
2020-03-07 05:00:00,33487.629379,FST,52.0,28.9,40.78,160.0,17.0,30.2,1019.4,10.0,22.0,,CLR
2020-03-07 06:00:00,34670.688535,FST,50.0,30.0,45.93,160.0,16.0,30.21,1020.1,10.0,19.0,,CLR
2020-03-07 07:00:00,36208.813648,FST,48.0,30.9,51.34,190.0,11.0,30.24,1021.3,10.0,,43.82,CLR
2020-03-07 08:00:00,37668.300087,FST,48.9,32.0,51.89,160.0,10.0,30.24,1021.7,10.0,,44.53,CLR
2020-03-07 09:00:00,38747.435488,FST,53.1,32.0,44.42,160.0,17.0,30.26,1021.9,10.0,23.0,,CLR
2020-03-07 10:00:00,39168.536352,FST,57.0,35.1,43.63,150.0,17.0,30.26,1021.8,10.0,21.0,,CLR
2020-03-07 11:00:00,39120.618273,FST,62.1,37.0,39.21,160.0,17.0,30.25,1021.1,10.0,19.0,,CLR
2020-03-07 12:00:00,38543.269618,FST,68.0,39.0,34.53,160.0,16.0,30.24,1019.9,10.0,19.0,,SCT
2020-03-07 13:00:00,37707.10585,FST,71.1,41.0,33.57,170.0,16.0,30.21,1018.9,10.0,22.0,,CLR
2020-03-07 14:00:00,36931.56174,FST,73.9,39.9,29.26,190.0,17.0,30.18,1017.2,10.0,21.0,,CLR
2020-03-07 15:00:00,36201.020342,FST,75.0,42.1,30.71,180.0,18.0,30.14,1015.8,10.0,26.0,,CLR
2020-03-07 16:00:00,35672.414083,FST,73.9,43.0,32.98,150.0,21.0,30.1,1014.9,10.0,26.0,,CLR
2020-03-07 17:00:00,35529.242022,FST,72.0,42.1,33.97,150.0,23.0,30.08,1014.8,10.0,26.0,,CLR
2020-03-07 18:00:00,35899.591695,FST,69.1,42.1,37.5,140.0,21.0,30.07,1015.0,10.0,27.0,,CLR
2020-03-07 19:00:00,37099.002797,FST,64.9,41.0,41.55,140.0,20.0,30.08,1015.7,10.0,29.0,,CLR
2020-03-07 20:00:00,38369.692405,FST,63.0,39.0,41.09,150.0,22.0,30.08,1015.5,10.0,31.0,,CLR
2020-03-07 21:00:00,38210.409341,FST,61.0,39.0,44.1,150.0,26.0,30.1,1016.4,10.0,33.0,,CLR
2020-03-07 22:00:00,37629.662767,FST,60.1,39.0,45.53,150.0,24.0,30.12,1016.8,10.0,29.0,,CLR
2020-03-07 23:00:00,36535.243057,FST,59.0,39.9,49.04,150.0,24.0,30.12,1016.0,10.0,31.0,,CLR
2020-03-08 00:00:00,35271.98057,FST,57.9,39.9,51.02,160.0,24.0,30.12,1016.4,10.0,30.0,,CLR
2020-03-08 01:00:00,34199.693032,FST,57.9,39.9,51.02,170.0,21.0,30.12,1015.9,10.0,27.0,,CLR
2020-03-08 02:00:00,33510.390419,,,,,,,,,,,,
2020-03-08 03:00:00,33510.390419,FST,55.9,41.0,57.23,160.0,17.0,30.11,1015.6,10.0,22.0,,CLR
2020-03-08 04:00:00,33265.497286,FST,55.0,41.0,59.13,160.0,17.0,30.1,1014.9,10.0,16.0,,CLR
2020-03-08 05:00:00,33311.256013,FST,54.0,41.0,61.32,160.0,17.0,30.07,1014.1,10.0,22.0,,CLR
2020-03-08 06:00:00,33697.260995,FST,54.0,42.1,63.98,160.0,17.0,30.06,1014.5,10.0,22.0,,CLR
2020-03-08 07:00:00,34463.702955,FST,53.1,43.0,68.46,160.0,18.0,30.07,1014.8,10.0,23.0,,FEW
2020-03-08 08:00:00,35472.521113,FST,52.0,43.0,71.28,160.0,20.0,30.07,1015.0,10.0,25.0,,OVC
2020-03-08 09:00:00,36164.444615,FST,52.0,44.1,74.35,160.0,20.0,30.08,1015.5,10.0,25.0,,OVC
2020-03-08 10:00:00,36795.684894,FST,53.1,45.0,73.89,160.0,20.0,30.1,1016.4,10.0,24.0,,FEW
2020-03-08 11:00:00,36984.979748,FST,53.1,46.0,76.75,160.0,20.0,30.11,1016.6,10.0,25.0,,BKN
2020-03-08 12:00:00,36917.711697,FST,55.9,46.0,69.3,160.0,19.0,30.12,1017.1,10.0,22.0,,OVC
2020-03-08 13:00:00,36612.570182,FST,57.0,48.9,74.27,160.0,18.0,30.13,1017.1,10.0,21.0,,FEW
2020-03-08 14:00:00,36172.32451,FST,61.0,50.0,67.06,160.0,20.0,30.11,1014.9,10.0,22.0,,FEW
2020-03-08 15:00:00,35956.509893,FST,63.0,51.1,65.09,150.0,18.0,30.06,1014.1,10.0,23.0,,OVC
2020-03-08 16:00:00,35821.319954,FST,66.9,52.0,58.74,160.0,18.0,30.04,1012.6,10.0,,,FEW
2020-03-08 17:00:00,35815.177715,FST,64.9,50.0,58.47,150.0,21.0,29.99,1012.0,10.0,26.0,,FEW
2020-03-08 18:00:00,35986.835826,FST,63.0,51.1,65.09,140.0,18.0,29.99,1012.3,10.0,24.0,,FEW
2020-03-08 19:00:00,36187.646108,FST,63.0,50.0,62.49,150.0,23.0,29.98,1011.9,10.0,31.0,,CLR
2020-03-08 20:00:00,37220.454203,FST,60.1,50.0,69.24,160.0,23.0,29.99,1012.8,10.0,29.0,,CLR
2020-03-08 21:00:00,38145.729771,FST,57.0,51.1,80.6,150.0,22.0,30.0,1012.9,10.0,27.0,,CLR
2020-03-08 22:00:00,37487.439101,FST,57.9,50.0,74.91,160.0,20.0,30.02,1013.5,10.0,26.0,,CLR
2020-03-08 23:00:00,35920.398512,FST,57.9,50.0,74.91,160.0,21.0,30.02,1013.6,10.0,27.0,,CLR
2020-03-09 00:00:00,33689.717627,FST,57.9,50.0,74.91,170.0,18.0,30.03,1014.0,10.0,22.0,,CLR
2020-03-09 01:00:00,31833.045316,FST,57.9,50.0,74.91,320.0,14.0,30.07,1015.4,10.0,,,FEW
2020-03-09 02:00:00,30659.540883,FST,59.0,48.9,69.12,320.0,19.0,30.12,1016.8,10.0,26.0,,BKN
2020-03-09 03:00:00,30110.465003,FST,57.9,45.0,62.07,320.0,15.0,30.12,1016.4,10.0,,,OVC
2020-03-09 04:00:00,30031.999774,FST,55.9,46.0,69.3,270.0,7.0,30.11,1015.7,10.0,,,SCT
2020-03-09 05:00:00,30538.140941,FST,55.0,45.0,68.93,240.0,8.0,30.09,1015.8,10.0,,,SCT
2020-03-09 06:00:00,32179.898045,FST,55.9,45.0,66.72,250.0,10.0,30.1,1016.1,10.0,,,SCT
2020-03-09 07:00:00,34948.375748,FST,55.0,46.0,71.6,230.0,8.0,30.12,1017.0,10.0,,,BKN
2020-03-09 08:00:00,36780.024839,FST,55.9,46.0,69.3,220.0,8.0,30.14,1017.6,10.0,,,BKN
2020-03-09 09:00:00,37224.35495,FST,55.9,46.9,71.69,210.0,5.0,30.17,1018.6,10.0,,,SCT
2020-03-09 10:00:00,37936.559939,FST,57.9,48.9,71.9,220.0,5.0,30.2,1019.8,10.0,,,FEW
2020-03-09 11:00:00,38772.308505,FST,,,,240.0,5.0,30.21,,10.0,,,FEW
2020-03-09 12:00:00,39208.62896,FST,64.9,46.0,50.32,,,30.23,1020.3,10.0,,,CLR
2020-03-09 13:00:00,39283.772175,FST,68.0,43.0,40.31,300.0,13.0,30.23,1020.3,10.0,,,CLR
2020-03-09 14:00:00,39265.287919,FST,69.1,43.0,38.82,320.0,11.0,30.23,1019.6,10.0,14.0,,CLR
2020-03-09 15:00:00,38961.397852,FST,72.0,44.1,36.68,330.0,10.0,30.21,1018.6,10.0,,,CLR
2020-03-09 16:00:00,38678.46463,FST,72.0,45.0,37.96,340.0,9.0,30.18,1017.9,10.0,,,CLR
2020-03-09 17:00:00,38642.1395,FST,72.0,44.1,36.68,300.0,7.0,30.16,1017.6,10.0,,,FEW
2020-03-09 18:00:00,38771.575217,FST,73.0,44.1,35.46,310.0,5.0,30.15,1017.5,10.0,,,CLR
2020-03-09 19:00:00,38876.297348,FST,72.0,44.1,36.68,220.0,5.0,30.16,1017.9,10.0,,,FEW
2020-03-09 20:00:00,39486.620346,FST,69.1,48.9,48.53,160.0,11.0,30.17,1018.4,10.0,,,CLR
2020-03-09 21:00:00,39932.38179,FST,64.9,50.0,58.47,170.0,12.0,30.19,1019.0,10.0,,,CLR
2020-03-09 22:00:00,38928.854093,FST,63.0,50.0,62.49,170.0,11.0,30.21,1020.0,10.0,,,CLR
2020-03-09 23:00:00,36788.727042,FST,61.0,50.0,67.06,170.0,11.0,30.24,,10.0,,,CLR
2020-03-10 00:00:00,34412.909002,FST,59.0,48.9,69.12,170.0,11.0,30.24,1020.9,10.0,,,CLR
2020-03-10 01:00:00,32523.818173,FST,57.0,48.9,74.27,170.0,10.0,30.25,1020.8,10.0,,,CLR
2020-03-10 02:00:00,31288.899649,FST,55.9,48.0,74.72,170.0,9.0,30.24,1020.1,10.0,,,FEW
2020-03-10 03:00:00,30633.40851,FST,55.0,48.0,77.21,170.0,10.0,30.23,1019.9,10.0,,,CLR
2020-03-10 04:00:00,30391.169012,FST,54.0,48.0,80.07,190.0,11.0,30.22,1019.7,10.0,,,CLR
2020-03-10 05:00:00,30894.83943,FST,52.0,46.9,82.68,190.0,9.0,30.21,1019.7,10.0,,,CLR
2020-03-10 06:00:00,32535.455757,FST,52.0,48.0,86.17,180.0,9.0,30.21,1019.4,10.0,,,CLR
2020-03-10 07:00:00,35182.171903,FST,51.1,48.0,89.09,200.0,10.0,30.23,1020.3,10.0,,,CLR
2020-03-10 08:00:00,36973.065528,FST,50.0,48.0,92.8,190.0,8.0,30.23,1020.7,10.0,,,CLR
2020-03-10 09:00:00,37275.042703,FST,51.1,46.9,85.48,260.0,5.0,30.25,1021.1,10.0,,,CLR
2020-03-10 10:00:00,37658.800966,FST,57.9,48.9,71.9,160.0,5.0,30.25,1021.3,10.0,,,CLR
2020-03-10 11:00:00,38291.149196,FST,66.0,48.9,54.01,90.0,4.0,30.26,1021.4,10.0,,,CLR
2020-03-10 12:00:00,38788.258486,FST,69.1,51.1,52.67,80.0,5.0,30.27,1021.4,10.0,,,CLR
2020-03-10 13:00:00,39364.528284,FST,73.9,54.0,49.79,110.0,5.0,30.26,1020.8,10.0,,,CLR
2020-03-10 14:00:00,40210.575612,FST,80.1,50.0,34.98,350.0,5.0,30.25,1019.5,10.0,,79.6,SCT
2020-03-10 15:00:00,40998.151682,FST,79.0,46.0,31.21,140.0,11.0,30.21,1018.1,10.0,,,CLR
2020-03-10 16:00:00,41650.339118,FST,78.1,53.1,41.89,190.0,15.0,30.17,1017.3,10.0,21.0,,BKN
2020-03-10 17:00:00,42224.730498,FST,77.0,54.0,44.9,110.0,16.0,30.15,1017.0,10.0,,,OVC
2020-03-10 18:00:00,42399.639584,FST,78.1,54.0,43.3,110.0,16.0,30.13,1016.3,10.0,,,BKN
2020-03-10 19:00:00,41944.888728,FST,77.0,53.1,43.44,120.0,16.0,30.12,1016.1,10.0,,,SCT
2020-03-10 20:00:00,41942.076671,FST,72.0,55.9,56.89,120.0,17.0,30.13,1017.2,10.0,,,FEW
2020-03-10 21:00:00,42426.333906,FST,68.0,57.0,67.86,140.0,14.0,30.15,1017.8,10.0,20.0,,CLR
2020-03-10 22:00:00,41290.699729,FST,66.0,57.9,75.12,150.0,13.0,30.17,1018.3,10.0,,,CLR
2020-03-10 23:00:00,39143.969463,FST,64.0,57.9,80.54,160.0,13.0,30.17,1018.2,9.0,17.0,,CLR
2020-03-11 00:00:00,36371.739722,FST,63.0,57.9,83.42,170.0,11.0,30.18,1018.2,9.0,,,CLR
2020-03-11 01:00:00,34085.741861,FST,61.0,57.0,86.67,210.0,10.0,30.18,1018.1,9.0,,,CLR
2020-03-11 02:00:00,32516.030182,FST,59.0,55.9,89.44,210.0,5.0,30.18,1017.4,9.0,,,CLR
2020-03-11 03:00:00,31668.10225,FST,59.0,55.0,86.56,190.0,10.0,30.16,1017.2,9.0,,,CLR
2020-03-11 04:00:00,31254.225613,FST,57.9,51.1,78.03,230.0,8.0,30.16,1017.0,10.0,,,CLR
2020-03-11 05:00:00,31486.347676,FST,55.9,50.0,80.52,240.0,8.0,30.15,1016.7,10.0,,,CLR
2020-03-11 06:00:00,32707.707296,FST,55.9,48.0,74.72,220.0,8.0,30.14,1016.7,10.0,,,M
2020-03-11 07:00:00,35043.399284,FST,57.0,48.0,71.81,210.0,9.0,30.13,1016.5,10.0,,,CLR
2020-03-11 08:00:00,36546.125602,FST,57.0,48.0,71.81,210.0,8.0,30.14,1016.8,10.0,,,CLR
2020-03-11 09:00:00,36729.267593,FST,61.0,48.9,64.37,220.0,8.0,30.14,1017.0,10.0,,,CLR
2020-03-11 10:00:00,37512.663762,FST,64.0,48.9,57.91,220.0,7.0,30.15,1017.4,10.0,,,M
2020-03-11 11:00:00,38668.74842,FST,,,,90.0,2.0,30.16,,10.0,,,CLR
2020-03-11 12:00:00,39789.538697,FST,72.0,46.9,40.79,350.0,2.0,30.17,1017.4,10.0,,,CLR
2020-03-11 13:00:00,41101.028406,FST,75.0,48.0,38.43,330.0,2.0,30.16,1016.5,10.0,,,CLR
2020-03-11 14:00:00,42561.721065,FST,77.0,48.0,35.95,340.0,4.0,30.13,1015.6,10.0,,,CLR
2020-03-11 15:00:00,43958.817428,FST,78.1,46.9,33.26,350.0,4.0,30.1,1013.7,10.0,,,CLR
2020-03-11 16:00:00,45254.242106,FST,80.1,46.9,31.15,360.0,9.0,30.05,1012.0,10.0,,,CLR
2020-03-11 17:00:00,46114.220792,FST,80.1,48.0,32.46,130.0,7.0,30.0,1011.3,10.0,,79.42,CLR
2020-03-11 18:00:00,46233.4544,FST,80.1,46.9,31.15,90.0,8.0,29.98,1011.1,10.0,,79.33,CLR
2020-03-11 19:00:00,45688.404061,FST,77.0,46.9,34.5,360.0,7.0,29.98,1011.3,10.0,,,BKN
2020-03-11 20:00:00,45036.98068,FST,73.9,48.0,39.87,360.0,7.0,29.99,1011.6,10.0,,,FEW
2020-03-11 21:00:00,44977.151896,FST,73.0,46.9,39.43,360.0,4.0,29.99,1011.6,10.0,,,SCT
2020-03-11 22:00:00,43361.855857,FST,69.1,48.0,46.92,150.0,4.0,29.99,1011.6,10.0,,,BKN
2020-03-11 23:00:00,40954.645141,FST,64.9,50.0,58.47,180.0,5.0,30.0,1011.8,10.0,,,CLR
2020-03-12 00:00:00,38074.680871,FST,66.0,51.1,58.62,230.0,4.0,30.01,1012.2,10.0,,,CLR
2020-03-12 01:00:00,35538.616578,FST,62.1,51.1,67.19,240.0,7.0,30.0,1011.3,10.0,,,CLR
2020-03-12 02:00:00,33823.778505,FST,62.1,52.0,69.46,220.0,5.0,29.98,1010.4,10.0,,,CLR
2020-03-12 03:00:00,32757.584814,FST,62.1,52.0,69.46,220.0,10.0,29.96,1010.3,10.0,,,CLR
2020-03-12 04:00:00,32174.959563,FST,60.1,48.9,66.46,230.0,12.0,29.96,1009.9,10.0,,,CLR
2020-03-12 05:00:00,32385.048106,FST,61.0,46.9,59.71,240.0,13.0,29.94,1009.1,10.0,,,FEW
2020-03-12 06:00:00,33731.686212,FST,61.0,48.0,62.23,240.0,11.0,29.93,1009.1,10.0,,,CLR
2020-03-12 07:00:00,35990.774561,FST,61.0,46.9,59.71,230.0,11.0,29.94,1009.7,10.0,,,SCT
2020-03-12 08:00:00,37302.877915,FST,61.0,48.9,64.37,230.0,11.0,29.94,1009.7,10.0,,,CLR
2020-03-12 09:00:00,37501.367381,FST,62.1,48.9,61.91,220.0,11.0,29.95,1010.3,10.0,,,CLR
2020-03-12 10:00:00,38436.632628,FST,69.1,50.0,50.56,240.0,10.0,29.96,1010.5,10.0,,,CLR
2020-03-12 11:00:00,39806.123072,FST,75.9,50.0,40.19,230.0,8.0,29.98,1010.9,10.0,,,CLR
2020-03-12 12:00:00,41227.155392,FST,78.1,46.9,33.26,270.0,7.0,29.98,1010.3,10.0,,,CLR
2020-03-12 13:00:00,42712.69765,FST,78.1,46.9,33.26,290.0,7.0,29.95,1009.8,10.0,,,CLR
2020-03-12 14:00:00,44354.896712,FST,80.1,48.0,32.46,340.0,7.0,29.94,1009.0,10.0,,79.42,CLR
2020-03-12 15:00:00,45761.517997,FST,81.0,46.9,30.24,310.0,7.0,29.92,1007.9,10.0,,79.83,CLR
2020-03-12 16:00:00,46436.225981,FST,82.9,48.0,29.64,330.0,5.0,29.89,1006.6,10.0,,81.11,SCT
2020-03-12 17:00:00,46499.215195,FST,82.9,46.0,27.48,300.0,7.0,29.85,1005.9,10.0,,80.94,SCT
2020-03-12 18:00:00,46119.491293,FST,80.1,48.9,33.58,360.0,11.0,29.84,1006.2,10.0,,79.5,BKN
2020-03-12 19:00:00,45102.594173,FST,77.0,51.1,40.36,360.0,11.0,29.86,1007.0,10.0,,,BKN
2020-03-12 20:00:00,44704.097195,FST,73.9,53.1,48.18,360.0,9.0,29.88,1007.7,10.0,,,FEW
2020-03-12 21:00:00,44701.183998,FST,71.1,51.1,49.2,360.0,9.0,29.89,1008.2,10.0,,,FEW
2020-03-12 22:00:00,43327.759079,FST,68.0,52.0,56.55,80.0,7.0,29.9,1008.3,10.0,,,CLR
2020-03-12 23:00:00,40942.215628,FST,66.9,52.0,58.74,100.0,9.0,29.9,1007.8,10.0,,,CLR
2020-03-13 00:00:00,38106.563878,FST,64.9,53.1,65.56,330.0,13.0,29.96,1010.3,10.0,,,CLR
2020-03-13 01:00:00,35611.009996,FST,61.0,55.0,80.61,340.0,19.0,29.98,1011.1,10.0,24.0,,FEW
2020-03-13 02:00:00,33869.146403,FST,60.1,55.0,83.23,350.0,15.0,29.99,1011.0,10.0,,,BKN
2020-03-13 03:00:00,32887.607145,FST,60.1,55.0,83.23,350.0,11.0,29.98,1010.8,10.0,,,SCT
2020-03-13 04:00:00,32348.569815,FST,60.1,55.9,85.99,360.0,4.0,29.98,1010.9,10.0,,,BKN
2020-03-13 05:00:00,32430.928079,FST,60.1,55.9,85.99,270.0,4.0,29.98,1010.9,10.0,,,OVC
2020-03-13 06:00:00,33563.585851,FST,60.1,55.9,85.99,250.0,2.0,29.98,1010.8,10.0,,,OVC
2020-03-13 07:00:00,35605.744113,FST,60.1,55.9,85.99,200.0,5.0,29.98,1010.9,10.0,,,OVC
2020-03-13 08:00:00,37305.986598,FST,60.1,55.9,85.99,210.0,7.0,29.99,1011.8,10.0,,,OVC
2020-03-13 09:00:00,37986.350914,FST,60.1,55.9,85.99,180.0,5.0,30.0,1011.9,10.0,,,BKN
2020-03-13 10:00:00,38977.600939,FST,63.0,55.0,75.11,160.0,10.0,30.01,1012.7,10.0,,,BKN
2020-03-13 11:00:00,40166.982789,FST,64.0,55.0,72.52,130.0,8.0,30.02,1012.8,10.0,,,FEW
2020-03-13 12:00:00,41201.217848,FST,66.0,55.9,69.88,120.0,7.0,30.02,1012.8,10.0,,,FEW
2020-03-13 13:00:00,41884.716311,FST,69.1,57.0,65.35,110.0,9.0,30.03,1012.3,10.0,,,BKN
2020-03-13 14:00:00,42555.563965,FST,72.0,57.0,59.2,130.0,11.0,30.0,1011.4,10.0,,,CLR
2020-03-13 15:00:00,43074.97404,FST,75.0,57.9,55.28,110.0,11.0,29.98,1009.9,10.0,15.0,,FEW
2020-03-13 16:00:00,43494.314779,FST,75.0,57.9,55.28,120.0,11.0,29.93,1009.0,10.0,,,FEW
2020-03-13 17:00:00,43673.454413,FST,73.9,57.9,57.36,120.0,14.0,29.91,1008.9,10.0,17.0,,CLR
2020-03-13 18:00:00,43454.076124,FST,73.0,59.0,61.5,120.0,18.0,29.91,1008.2,10.0,,,CLR
2020-03-13 19:00:00,42573.743844,FST,73.0,59.0,61.5,130.0,18.0,29.88,1007.7,10.0,24.0,,CLR
2020-03-13 20:00:00,42266.433286,FST,70.0,59.0,68.09,140.0,17.0,29.89,1008.4,10.0,20.0,,CLR
2020-03-13 21:00:00,41775.813666,FST,68.0,59.0,72.92,150.0,16.0,29.9,1008.7,10.0,22.0,,CLR
2020-03-13 22:00:00,40600.965383,FST,66.9,59.0,75.74,160.0,19.0,29.92,1009.4,10.0,23.0,,CLR
2020-03-13 23:00:00,38870.854531,FST,66.9,59.0,75.74,180.0,17.0,29.95,1010.4,10.0,,,CLR
2020-03-14 00:00:00,36837.034503,FST,66.9,59.0,75.74,160.0,14.0,29.97,1010.7,10.0,19.0,,CLR
2020-03-14 01:00:00,34999.295712,FST,66.0,59.0,78.14,190.0,13.0,29.98,1011.1,10.0,,,CLR
2020-03-14 02:00:00,33560.646885,FST,64.9,57.9,78.05,290.0,10.0,29.98,1011.1,10.0,,,CLR
2020-03-14 03:00:00,32625.048016,FST,62.1,57.0,83.36,310.0,7.0,29.98,1010.8,10.0,,,CLR
2020-03-14 04:00:00,32026.432008,FST,61.0,57.9,92.43,290.0,12.0,30.02,1012.5,10.0,,,CLR
2020-03-14 05:00:00,31898.308487,FST,60.1,57.9,92.43,280.0,11.0,30.03,,9.0,16.0,,BKN
2020-03-14 06:00:00,32277.270806,,,,,,,,,,,,
2020-03-14 07:00:00,33056.240465,,,,,,,,,,,,
2020-03-14 08:00:00,34155.636707,,,,,,,,,,,,
2020-03-14 09:00:00,35258.882849,FST,59.0,55.9,89.44,320.0,9.0,30.13,1016.9,9.0,,,BKN
2020-03-14 10:00:00,37100.424439,FST,60.1,55.0,83.23,340.0,11.0,30.15,1017.3,10.0,,,SCT
2020-03-14 11:00:00,38809.523456,FST,63.0,52.0,67.29,340.0,8.0,30.18,1018.3,10.0,,,FEW
2020-03-14 12:00:00,40179.937318,FST,66.9,46.9,48.56,340.0,9.0,30.18,1017.9,10.0,,,CLR
2020-03-14 13:00:00,41092.855309,FST,70.0,46.0,42.2,360.0,10.0,30.17,1017.3,10.0,,,CLR
2020-03-14 14:00:00,41551.875106,FST,73.0,46.0,38.11,360.0,11.0,30.16,1016.9,10.0,,,CLR
2020-03-14 15:00:00,41833.892742,FST,73.9,45.0,35.6,360.0,8.0,30.14,1016.2,10.0,,,CLR
2020-03-14 16:00:00,41909.19853,FST,75.9,46.0,34.58,350.0,9.0,30.12,1015.5,10.0,,,CLR
2020-03-14 17:00:00,41936.776147,FST,75.9,46.0,34.58,120.0,10.0,30.1,1015.1,10.0,15.0,,CLR
2020-03-14 18:00:00,41803.501422,FST,75.0,45.0,34.31,100.0,15.0,30.09,1015.1,10.0,,,CLR
2020-03-14 19:00:00,41403.539849,FST,73.9,43.0,32.98,100.0,14.0,30.1,1015.6,10.0,17.0,,CLR
2020-03-14 20:00:00,41361.49245,FST,71.1,46.0,40.65,90.0,13.0,30.12,1016.5,10.0,,,CLR
2020-03-14 21:00:00,41265.523124,FST,66.9,46.9,48.56,80.0,10.0,30.14,1017.2,10.0,,,CLR
2020-03-14 22:00:00,40120.339617,FST,64.9,52.0,62.96,80.0,11.0,30.15,1017.5,10.0,,,CLR
2020-03-14 23:00:00,38396.446024,FST,64.0,54.0,69.92,80.0,14.0,30.16,1017.8,10.0,,,CLR
2020-03-15 00:00:00,36463.027012,FST,63.0,55.0,77.53,80.0,11.0,30.17,1018.0,10.0,,,SCT
2020-03-15 01:00:00,34541.964862,FST,62.1,55.9,80.11,70.0,9.0,30.17,1017.8,10.0,,,BKN
2020-03-15 02:00:00,33137.327046,FST,63.0,59.0,86.77,70.0,11.0,30.16,1017.4,10.0,,,SCT
2020-03-15 03:00:00,32160.507198,FST,64.0,60.1,87.14,90.0,11.0,30.17,1017.6,10.0,,,SCT
2020-03-15 04:00:00,31588.151172,FST,63.0,60.1,90.25,90.0,10.0,30.18,1018.0,10.0,,,OVC
2020-03-15 05:00:00,31327.989925,FST,62.1,61.0,96.18,100.0,11.0,30.18,1017.7,7.0,,,OVC
2020-03-15 06:00:00,31535.470276,FST,61.0,60.1,100.0,100.0,12.0,30.17,1017.6,2.5,,,OVC
2020-03-15 07:00:00,32165.451052,FST,60.1,59.0,100.0,100.0,11.0,30.18,1018.3,3.0,,,OVC
2020-03-15 08:00:00,33028.585574,FST,59.0,59.0,100.0,100.0,11.0,30.19,1018.4,5.0,,,OVC
2020-03-15 09:00:00,34120.432785,FST,60.1,59.0,96.15,110.0,11.0,30.18,1018.6,5.0,,,OVC
2020-03-15 10:00:00,35850.917538,FST,60.1,60.1,100.0,100.0,11.0,30.2,1019.4,2.5,,,OVC
2020-03-15 11:00:00,37463.449017,FST,62.1,61.0,96.18,100.0,8.0,30.21,1019.6,4.0,,,OVC
2020-03-15 12:00:00,38794.210656,FST,62.1,62.1,100.0,100.0,9.0,30.2,1019.4,8.0,,,OVC
2020-03-15 13:00:00,39608.183969,FST,64.0,63.0,96.88,110.0,12.0,30.2,1019.3,10.0,,,OVC
2020-03-15 14:00:00,39965.780168,FST,64.9,63.0,96.55,120.0,15.0,30.19,1018.3,8.0,,,OVC
2020-03-15 15:00:00,40137.566938,FST,66.0,62.1,87.24,100.0,15.0,30.13,1016.8,10.0,21.0,,BKN
2020-03-15 16:00:00,40191.503083,FST,64.9,62.1,96.88,350.0,19.0,30.18,1018.7,10.0,23.0,,BKN
2020-03-15 17:00:00,40276.963133,FST,62.6,61.0,100.0,120.0,17.0,30.19,1016.8,10.0,25.0,,BKN
2020-03-15 18:00:00,40518.928196,FST,62.1,61.0,96.18,130.0,13.0,30.15,1017.3,10.0,,,FEW
2020-03-15 19:00:00,40476.78423,FST,62.1,60.1,93.16,130.0,19.0,30.1,1015.6,10.0,24.0,,FEW
2020-03-15 20:00:00,40556.582901,FST,63.0,57.0,80.76,130.0,16.0,30.09,1015.6,10.0,24.0,,CLR
2020-03-15 21:00:00,40621.890249,FST,63.0,59.0,86.77,150.0,18.0,30.09,1015.5,10.0,27.0,,CLR
2020-03-15 22:00:00,39474.217796,FST,61.0,59.0,93.12,160.0,18.0,30.11,1016.6,10.0,25.0,,FEW
2020-03-15 23:00:00,37614.659781,FST,61.0,57.9,89.52,150.0,9.0,30.12,1016.8,10.0,,,OVC
2020-03-16 00:00:00,35270.449114,FST,61.0,57.9,89.52,120.0,9.0,30.14,1016.5,10.0,,,BKN
2020-03-16 01:00:00,33410.961054,FST,61.0,59.0,93.12,110.0,9.0,30.1,1016.1,10.0,,,OVC
2020-03-16 02:00:00,32174.246319,FST,59.0,57.9,96.13,90.0,9.0,30.1,1015.9,10.0,,,FEW
2020-03-16 03:00:00,31601.262993,FST,59.0,57.0,93.07,110.0,8.0,30.13,1016.8,10.0,,,BKN
2020-03-16 04:00:00,31372.756535,FST,59.0,57.0,96.1,300.0,8.0,30.13,1016.8,10.0,,,SCT
2020-03-16 05:00:00,31797.256923,FST,57.0,55.9,100.0,270.0,5.0,30.12,1016.5,2.0,,,OVC
2020-03-16 06:00:00,33270.358198,FST,55.9,55.9,100.0,240.0,3.0,30.11,1016.7,2.0,,,OVC
2020-03-16 07:00:00,34735.019654,FST,55.9,55.9,100.0,290.0,7.0,30.12,1016.7,1.0,,,OVC
2020-03-16 08:00:00,36387.076646,FST,55.0,55.0,100.0,270.0,7.0,30.13,1017.4,1.5,,,OVC
2020-03-16 09:00:00,37188.528214,FST,54.0,54.0,100.0,290.0,6.0,30.15,1018.0,0.75,,,OVC
2020-03-16 10:00:00,38164.788136,FST,54.0,54.0,100.0,310.0,4.0,30.16,1018.5,1.25,,,OVC
2020-03-16 11:00:00,39408.728956,,,,,,,,,,,,
2020-03-16 12:00:00,40168.677688,,,,,,,,,,,,
2020-03-16 13:00:00,40440.622757,,,,,,,,,,,,
2020-03-16 14:00:00,40710.428147,,,,,,,,,,,,
2020-03-16 15:00:00,40521.740781,FST,66.9,60.1,78.77,360.0,6.0,30.08,1014.9,10.0,,,BKN
2020-03-16 16:00:00,40317.704761,FST,69.1,61.0,78.77,60.0,8.0,30.07,1013.7,10.0,,,SCT
2020-03-16 17:00:00,40370.081606,FST,71.1,62.1,75.4,90.0,10.0,30.03,1012.9,10.0,,,BKN
2020-03-16 18:00:00,40400.500265,FST,73.0,63.0,70.87,70.0,11.0,30.01,1012.1,10.0,,,BKN
2020-03-16 19:00:00,40376.277613,FST,73.9,61.0,64.07,100.0,14.0,29.99,1011.7,10.0,,,CLR
2020-03-16 20:00:00,40653.517939,FST,72.0,59.0,63.61,110.0,14.0,30.0,1012.5,10.0,,,CLR
2020-03-16 21:00:00,40984.77255,FST,69.1,60.1,73.03,130.0,15.0,30.03,1013.5,10.0,20.0,,CLR
2020-03-16 22:00:00,39887.205396,FST,66.0,60.1,81.27,140.0,11.0,30.03,1013.9,10.0,,,FEW
2020-03-16 23:00:00,38019.06092,FST,66.0,60.1,81.27,130.0,13.0,30.04,1014.1,10.0,,,CLR
2020-03-17 00:00:00,35690.482923,FST,66.0,60.1,81.27,140.0,14.0,30.05,1014.2,10.0,,,CLR
2020-03-17 01:00:00,33689.767706,FST,66.0,60.1,84.44,150.0,15.0,30.05,1013.8,10.0,17.0,,OVC
2020-03-17 02:00:00,32343.382122,FST,64.9,60.1,84.44,160.0,18.0,30.03,1012.4,10.0,24.0,,CLR
2020-03-17 03:00:00,31586.713209,FST,64.9,60.1,84.44,160.0,20.0,30.01,1012.5,10.0,27.0,,CLR
2020-03-17 04:00:00,31238.462068,FST,63.0,60.1,90.25,160.0,16.0,30.01,1012.1,10.0,,,FEW
2020-03-17 05:00:00,31454.110206,FST,62.1,59.0,89.57,160.0,9.0,30.0,1011.7,10.0,,,CLR
2020-03-17 06:00:00,32742.342859,FST,62.1,57.9,86.11,150.0,8.0,29.99,1011.4,10.0,,,CLR
2020-03-17 07:00:00,34759.048867,FST,62.1,59.0,89.57,140.0,9.0,29.98,1011.3,10.0,,,CLR
2020-03-17 08:00:00,36474.390262,FST,60.1,57.9,92.43,150.0,9.0,30.01,1012.4,10.0,,,CLR
2020-03-17 09:00:00,37133.055774,FST,61.0,59.0,93.12,160.0,8.0,30.02,1013.0,10.0,,,CLR
2020-03-17 10:00:00,38424.845157,FST,64.9,60.1,84.44,170.0,11.0,30.04,1013.6,10.0,16.0,,CLR
2020-03-17 11:00:00,39938.022191,FST,66.9,59.0,75.74,280.0,9.0,30.05,1014.0,10.0,,,CLR
2020-03-17 12:00:00,41336.914348,FST,71.1,57.0,61.04,290.0,5.0,30.06,1013.8,10.0,,,CLR
2020-03-17 13:00:00,42696.961756,FST,73.9,55.9,53.36,150.0,7.0,30.05,1013.2,10.0,,,CLR
2020-03-17 14:00:00,43839.976947,FST,75.9,50.0,40.19,150.0,4.0,30.04,1012.5,10.0,,,CLR
2020-03-17 15:00:00,44380.941098,FST,77.0,52.0,41.72,190.0,2.0,30.02,1011.6,10.0,,,CLR
2020-03-17 16:00:00,44776.979755,FST,73.9,51.1,44.76,300.0,7.0,30.01,1011.7,10.0,,,SCT
2020-03-17 17:00:00,44995.837348,FST,73.9,48.0,41.1,280.0,16.0,30.0,1010.9,10.0,20.0,,FEW
2020-03-17 18:00:00,44726.254139,FST,73.9,48.9,41.24,310.0,2.0,29.95,1010.3,10.0,,,FEW
2020-03-17 19:00:00,43844.142086,FST,70.0,54.0,56.82,300.0,14.0,29.98,1011.5,10.0,,,FEW
2020-03-17 20:00:00,43027.949906,FST,64.9,55.0,70.28,360.0,18.0,30.02,1012.6,10.0,,,FEW
2020-03-17 21:00:00,42946.81353,FST,63.0,54.0,72.42,340.0,7.0,30.0,1012.2,10.0,,,SCT
2020-03-17 22:00:00,41476.334083,FST,61.0,55.0,80.61,310.0,5.0,30.03,1013.5,10.0,,,CLR
2020-03-17 23:00:00,39151.376504,FST,61.0,55.9,83.29,170.0,8.0,30.04,1013.7,10.0,,,SCT
2020-03-18 00:00:00,36742.080112,FST,57.9,54.0,86.82,180.0,5.0,30.04,1012.6,10.0,,,CLR
2020-03-18 01:00:00,34601.426145,FST,57.0,53.1,86.77,200.0,5.0,30.02,1012.7,10.0,,,CLR
2020-03-18 02:00:00,33309.975556,FST,55.9,53.1,90.29,220.0,8.0,30.01,1012.3,10.0,,,CLR
2020-03-18 03:00:00,32306.23383,FST,55.9,52.0,86.71,210.0,7.0,30.01,1012.2,10.0,,,CLR
2020-03-18 04:00:00,31936.67196,FST,55.9,52.0,86.71,230.0,9.0,30.0,1011.8,10.0,,,CLR
2020-03-18 05:00:00,32154.40871,FST,55.0,51.1,86.66,240.0,9.0,29.98,1011.4,10.0,,,CLR
2020-03-18 06:00:00,33309.000691,FST,55.0,51.1,86.66,220.0,7.0,29.97,1010.7,10.0,,,CLR
2020-03-18 07:00:00,35336.696377,FST,54.0,51.1,89.88,230.0,9.0,29.96,1011.2,10.0,,,CLR
2020-03-18 08:00:00,36982.735912,FST,53.1,52.0,96.03,190.0,9.0,29.97,1011.4,10.0,,,CLR
2020-03-18 09:00:00,37822.664806,FST,57.0,53.1,86.77,210.0,10.0,29.98,1012.0,10.0,,,CLR
2020-03-18 10:00:00,38956.158463,FST,61.0,53.1,75.2,230.0,11.0,29.99,1012.2,10.0,,,CLR
2020-03-18 11:00:00,40295.512097,FST,66.9,57.0,70.49,220.0,11.0,29.99,1011.9,10.0,,,CLR
2020-03-18 12:00:00,41716.514517,FST,73.9,52.0,46.27,210.0,13.0,29.99,1011.5,10.0,,,CLR
2020-03-18 13:00:00,43135.384029,FST,75.9,48.9,38.57,230.0,9.0,29.98,1010.6,10.0,,,CLR
2020-03-18 14:00:00,44296.333441,FST,80.1,46.0,30.11,250.0,11.0,29.96,1009.4,10.0,14.0,79.26,CLR
2020-03-18 15:00:00,45075.552691,FST,79.0,43.0,27.84,230.0,17.0,29.92,1008.2,10.0,21.0,,CLR
2020-03-18 16:00:00,45780.97011,FST,75.9,43.0,30.85,230.0,22.0,29.9,1008.2,10.0,27.0,,SCT
2020-03-18 17:00:00,46145.114471,FST,75.9,46.0,34.58,280.0,16.0,29.88,1007.3,10.0,,,FEW
2020-03-18 18:00:00,46041.181376,FST,75.0,46.0,35.64,270.0,8.0,29.86,1006.7,10.0,,,OVC
2020-03-18 19:00:00,45386.713886,FST,75.9,46.0,34.58,200.0,10.0,29.83,1006.1,10.0,,,OVC
2020-03-18 20:00:00,44851.056965,FST,73.9,55.9,53.36,160.0,13.0,29.83,1006.4,10.0,19.0,,FEW
2020-03-18 21:00:00,44692.118438,FST,71.1,62.1,78.77,180.0,21.0,29.87,1008.0,10.0,26.0,,FEW
2020-03-18 22:00:00,42994.175946,FST,66.9,61.0,81.33,320.0,16.0,29.9,1008.9,10.0,20.0,,BKN
2020-03-18 23:00:00,40484.579218,FST,64.0,54.0,69.92,200.0,9.0,29.9,1008.1,10.0,,,FEW
2020-03-19 00:00:00,37868.650562,FST,64.0,53.1,67.66,230.0,9.0,29.9,1008.3,10.0,,,FEW
2020-03-19 01:00:00,35651.282204,FST,63.0,50.0,62.49,240.0,11.0,29.9,1007.5,10.0,,,SCT
2020-03-19 02:00:00,34310.378083,FST,60.1,50.0,69.24,240.0,10.0,29.88,1007.8,10.0,,,CLR
2020-03-19 03:00:00,33480.500517,FST,59.0,50.0,72.01,230.0,10.0,29.88,1007.7,10.0,,,CLR
2020-03-19 04:00:00,32909.740265,FST,61.0,46.9,59.71,240.0,11.0,29.88,1007.2,10.0,,,CLR
2020-03-19 05:00:00,33065.514963,FST,62.1,45.0,53.45,230.0,11.0,29.87,1007.5,10.0,,,CLR
2020-03-19 06:00:00,34324.369577,FST,62.1,44.1,51.64,230.0,10.0,29.89,1008.1,10.0,,,CLR
2020-03-19 07:00:00,36369.297726,FST,57.0,45.0,64.12,250.0,10.0,29.91,1008.9,10.0,,,CLR
2020-03-19 08:00:00,37898.646978,FST,55.0,45.0,68.93,250.0,10.0,29.93,1009.7,10.0,,,CLR
2020-03-19 09:00:00,38519.961594,FST,57.0,45.0,64.12,240.0,9.0,29.96,1011.0,10.0,,,CLR
2020-03-19 10:00:00,39868.969055,FST,64.0,46.0,51.93,260.0,11.0,29.98,1011.8,10.0,,,CLR
2020-03-19 11:00:00,41588.905036,FST,64.0,48.9,57.91,290.0,11.0,30.02,1013.1,10.0,,,CLR
2020-03-19 12:00:00,43242.069645,FST,64.9,48.0,54.26,360.0,11.0,30.03,1013.0,10.0,,,CLR
2020-03-19 13:00:00,44736.012297,FST,68.0,48.0,48.73,360.0,9.0,30.02,1012.7,10.0,,,CLR
2020-03-19 14:00:00,45980.857515,FST,70.0,48.0,45.5,360.0,10.0,30.01,1012.2,10.0,,,CLR
2020-03-19 15:00:00,47087.132931,FST,73.0,46.9,39.43,360.0,13.0,30.0,1011.5,10.0,14.0,,CLR
2020-03-19 16:00:00,47768.605364,FST,75.9,43.0,30.85,360.0,11.0,29.98,1010.2,10.0,17.0,,CLR
2020-03-19 17:00:00,48243.238109,FST,75.0,35.1,23.35,340.0,18.0,29.96,1010.3,10.0,22.0,,CLR
2020-03-19 18:00:00,47834.121167,FST,72.0,33.1,23.85,340.0,17.0,29.98,1011.3,10.0,22.0,,CLR
2020-03-19 19:00:00,46703.971899,FST,69.1,32.0,25.18,350.0,14.0,30.0,1012.6,10.0,,,CLR
2020-03-19 20:00:00,45609.870248,FST,66.0,32.0,28.03,360.0,13.0,30.03,1013.5,10.0,17.0,,CLR
2020-03-19 21:00:00,45379.180138,FST,63.0,34.0,33.72,360.0,9.0,30.05,1014.4,10.0,,,CLR
2020-03-19 22:00:00,43751.545495,FST,61.0,35.1,37.81,350.0,8.0,30.08,1015.3,10.0,,,CLR
2020-03-19 23:00:00,41424.313426,FST,59.0,36.0,42.08,140.0,7.0,30.12,1016.5,10.0,,,CLR
2020-03-20 00:00:00,38773.571085,FST,57.0,39.0,50.88,140.0,7.0,30.13,1017.2,10.0,,,CLR
2020-03-20 01:00:00,36464.994048,FST,57.9,37.0,45.54,350.0,4.0,30.15,1017.4,10.0,,,CLR
2020-03-20 02:00:00,34852.728579,FST,55.0,39.0,54.7,300.0,9.0,30.16,1016.8,10.0,,,CLR
2020-03-20 03:00:00,33916.695181,FST,54.0,39.9,58.76,260.0,7.0,30.16,1017.8,10.0,,,FEW
2020-03-20 04:00:00,33515.276311,FST,55.9,39.0,52.94,230.0,7.0,30.17,1017.8,10.0,,,CLR
2020-03-20 05:00:00,33832.940321,FST,57.9,35.1,42.24,260.0,6.0,30.16,1017.6,10.0,,,OVC
2020-03-20 06:00:00,34658.702374,FST,57.0,37.0,47.04,260.0,6.0,30.18,1018.3,10.0,,,OVC
2020-03-20 07:00:00,36247.121038,FST,55.0,39.9,56.66,360.0,8.0,30.23,1020.4,10.0,,,OVC
2020-03-20 08:00:00,37571.905332,FST,50.0,37.0,60.79,360.0,11.0,30.26,1021.9,10.0,,,OVC
2020-03-20 09:00:00,38502.877292,FST,48.9,37.0,63.34,40.0,17.0,30.31,1023.8,10.0,22.0,42.45,CLR
2020-03-20 10:00:00,39502.106947,FST,51.1,37.9,60.46,60.0,16.0,30.35,1025.2,10.0,18.0,,CLR
2020-03-20 11:00:00,40438.393516,FST,52.0,36.0,54.26,60.0,13.0,30.37,1025.8,10.0,16.0,,CLR
2020-03-20 12:00:00,41269.084358,FST,53.1,36.0,52.11,360.0,11.0,30.38,1026.3,10.0,15.0,,CLR
2020-03-20 13:00:00,41683.4787,FST,55.0,36.0,48.62,350.0,11.0,30.38,1025.7,10.0,,,CLR
2020-03-20 14:00:00,41569.693586,FST,55.9,36.0,47.05,360.0,9.0,30.37,1025.1,10.0,,,CLR
2020-03-20 15:00:00,41018.43121,FST,59.0,37.0,43.78,360.0,11.0,30.35,1024.5,10.0,,,CLR
2020-03-20 16:00:00,40338.583,FST,60.1,36.0,40.46,50.0,11.0,30.33,1023.3,10.0,,,CLR
2020-03-20 17:00:00,39865.508174,FST,60.1,36.0,40.46,70.0,11.0,30.3,1022.4,10.0,15.0,,CLR
2020-03-20 18:00:00,39615.337339,FST,60.1,37.0,42.09,90.0,11.0,30.28,1022.2,10.0,16.0,,CLR
2020-03-20 19:00:00,39398.112089,FST,60.1,37.0,42.09,90.0,11.0,30.28,1022.2,10.0,,,CLR
2020-03-20 20:00:00,39788.198818,FST,57.0,37.9,48.73,80.0,14.0,30.27,1022.6,10.0,,,CLR
2020-03-20 21:00:00,40235.463678,FST,54.0,39.0,56.74,80.0,10.0,30.3,1023.7,10.0,,,CLR
2020-03-20 22:00:00,39314.062232,FST,53.1,41.0,63.38,80.0,10.0,30.31,1024.0,10.0,,,CLR
2020-03-20 23:00:00,37761.064993,FST,51.1,41.0,68.23,80.0,11.0,30.33,1024.7,10.0,,,CLR
2020-03-21 00:00:00,35990.171803,FST,50.0,41.0,71.07,80.0,11.0,30.33,1024.8,10.0,,,CLR
2020-03-21 01:00:00,34449.726802,FST,48.0,39.0,70.85,80.0,11.0,30.33,1024.4,10.0,,42.69,CLR
2020-03-21 02:00:00,33451.482379,FST,46.0,39.0,76.4,70.0,13.0,30.33,1024.6,10.0,,41.36,CLR
2020-03-21 03:00:00,32818.912175,FST,45.0,39.0,79.36,70.0,13.0,30.32,1024.0,10.0,,38.89,BKN
2020-03-21 04:00:00,32557.595235,FST,44.1,37.9,78.66,70.0,13.0,30.31,1023.7,10.0,,37.4,OVC
2020-03-21 05:00:00,32721.682197,FST,43.0,37.0,79.19,70.0,11.0,30.3,1023.1,10.0,,36.76,OVC
2020-03-21 06:00:00,33332.551808,FST,42.1,36.0,78.8,70.0,11.0,30.28,1023.0,10.0,,35.63,OVC
2020-03-21 07:00:00,34454.220391,FST,42.1,37.0,81.98,80.0,11.0,30.28,1023.0,10.0,,37.09,OVC
2020-03-21 08:00:00,35686.385535,FST,42.1,37.0,81.98,80.0,9.0,30.29,1023.4,10.0,,36.55,OVC
2020-03-21 09:00:00,36893.451268,FST,43.0,39.0,85.66,100.0,8.0,30.31,1024.3,10.0,,38.19,OVC
2020-03-21 10:00:00,38211.518417,FST,43.0,39.9,88.71,110.0,9.0,30.33,1025.0,10.0,,37.66,OVC
2020-03-21 11:00:00,39045.944014,FST,44.1,39.9,88.71,100.0,9.0,30.33,1025.1,10.0,,39.02,OVC
2020-03-21 12:00:00,39210.458598,FST,43.0,41.0,92.58,70.0,9.0,30.32,1024.7,10.0,,38.19,OVC
2020-03-21 13:00:00,38819.714917,FST,46.0,41.0,85.77,80.0,8.0,30.31,1024.1,10.0,,42.39,OVC
2020-03-21 14:00:00,38323.767111,FST,46.9,42.1,83.28,110.0,7.0,30.29,1023.0,10.0,,43.48,OVC
2020-03-21 15:00:00,37729.092555,FST,46.9,42.1,83.28,70.0,8.0,30.27,1022.3,10.0,,44.09,OVC
2020-03-21 16:00:00,37237.169255,FST,48.2,42.8,81.47,70.0,8.0,30.24,1020.6,10.0,,45.63,OVC
2020-03-21 17:00:00,37139.341777,FST,48.0,43.0,82.72,80.0,11.0,30.2,1019.8,10.0,,45.4,OVC
2020-03-21 18:00:00,37436.630325,FST,46.9,43.0,86.21,80.0,9.0,30.17,1019.4,10.0,,43.48,OVC
2020-03-21 19:00:00,37794.087332,FST,46.9,44.1,93.03,80.0,8.0,30.15,1018.8,10.0,,42.94,OVC
2020-03-21 20:00:00,38394.486907,FST,46.0,45.0,96.28,80.0,9.0,30.14,1018.7,6.0,,41.36,OVC
2020-03-21 21:00:00,38480.84669,FST,46.9,46.9,100.0,80.0,8.0,30.13,1018.3,3.5,,42.94,OVC
2020-03-21 22:00:00,37530.109279,FST,48.0,48.0,100.0,100.0,9.0,30.13,1018.4,6.0,,43.82,OVC
2020-03-21 23:00:00,36168.382684,FST,50.0,48.0,96.69,130.0,9.0,30.14,1018.6,10.0,,44.93,OVC
2020-03-22 00:00:00,34562.517645,FST,50.0,46.9,89.04,150.0,11.0,30.14,1018.3,10.0,,,OVC
2020-03-22 01:00:00,33186.238002,FST,51.1,46.9,85.48,150.0,10.0,30.13,1018.2,10.0,,,OVC
2020-03-22 02:00:00,32112.908531,FST,48.0,46.0,92.74,220.0,10.0,30.14,1018.5,10.0,,43.41,OVC
2020-03-22 03:00:00,31468.6721,FST,48.0,46.9,95.95,240.0,8.0,30.14,1018.8,10.0,,45.4,OVC
2020-03-22 04:00:00,31081.557425,FST,48.0,46.9,100.0,240.0,9.0,30.14,1018.2,10.0,,44.28,OVC
2020-03-22 05:00:00,30898.408761,FST,46.9,46.9,100.0,280.0,9.0,30.12,1017.8,6.0,,43.48,BKN
2020-03-22 06:00:00,31203.65723,FST,46.9,46.0,96.66,280.0,9.0,30.12,1018.0,10.0,,42.94,OVC
2020-03-22 07:00:00,31714.507981,FST,46.0,46.0,100.0,270.0,9.0,30.13,1018.6,10.0,,41.84,BKN
2020-03-22 08:00:00,32474.734024,FST,46.0,45.0,96.28,300.0,8.0,30.14,1019.0,10.0,,43.77,OVC
2020-03-22 09:00:00,33355.045927,FST,45.0,44.1,96.63,320.0,8.0,30.16,1019.4,10.0,,41.83,OVC
2020-03-22 10:00:00,34709.319367,FST,45.0,45.0,100.0,300.0,8.0,30.17,1020.0,10.0,,42.6,OVC
2020-03-22 11:00:00,35941.524787,FST,46.9,45.0,93.06,310.0,7.0,30.19,1020.1,10.0,,45.72,OVC
2020-03-22 12:00:00,36694.646035,FST,50.0,46.9,89.67,340.0,5.0,30.19,1019.7,10.0,,48.01,OVC
2020-03-22 13:00:00,37116.408004,FST,55.0,46.9,79.4,330.0,4.0,30.17,1018.6,10.0,,,OVC
2020-03-22 14:00:00,37152.590839,FST,62.1,46.9,57.43,360.0,7.0,30.15,1017.4,10.0,,,CLR
2020-03-22 15:00:00,37175.210467,FST,66.9,46.9,48.56,100.0,7.0,30.12,1016.1,10.0,,,CLR
2020-03-22 16:00:00,37328.891094,FST,71.1,44.1,37.81,90.0,8.0,30.09,1014.5,10.0,,,CLR
2020-03-22 17:00:00,37566.218228,FST,73.0,36.0,25.88,80.0,8.0,30.04,1013.7,10.0,,,CLR
2020-03-22 18:00:00,37814.402803,FST,73.0,35.1,24.97,110.0,7.0,30.03,1013.5,10.0,,,CLR
2020-03-22 19:00:00,37951.85539,FST,73.0,41.0,31.47,110.0,10.0,30.02,1013.2,10.0,,,CLR
2020-03-22 20:00:00,38421.93927,FST,69.1,39.9,34.43,100.0,9.0,30.03,1014.0,10.0,,,CLR
2020-03-22 21:00:00,38791.976296,FST,68.0,36.0,30.69,120.0,10.0,30.04,1014.3,10.0,,,CLR
2020-03-22 22:00:00,37869.735486,FST,64.0,43.0,46.32,140.0,12.0,30.06,1015.1,10.0,,,CLR
2020-03-22 23:00:00,36245.373034,FST,61.0,46.0,57.72,150.0,14.0,30.07,1015.5,10.0,,,CLR
2020-03-23 00:00:00,34292.875644,FST,59.0,46.9,64.12,160.0,13.0,30.07,1015.4,10.0,,,CLR
2020-03-23 01:00:00,32672.078249,FST,57.0,43.0,59.4,170.0,13.0,30.07,1015.6,10.0,,,CLR
2020-03-23 02:00:00,31560.331404,FST,57.0,42.1,57.38,180.0,13.0,30.07,1014.9,10.0,,,CLR
2020-03-23 03:00:00,30889.523509,FST,53.1,45.0,73.89,170.0,11.0,30.06,1014.4,10.0,,,CLR
2020-03-23 04:00:00,30630.250448,FST,55.0,44.1,66.61,180.0,10.0,30.05,1013.6,10.0,,,CLR
2020-03-23 05:00:00,30927.61317,FST,52.0,41.0,66.0,190.0,9.0,30.03,1013.3,10.0,,,M
2020-03-23 06:00:00,32185.857669,FST,50.0,37.9,62.98,260.0,5.0,30.04,1013.8,10.0,,,CLR
2020-03-23 07:00:00,34199.980438,FST,51.1,37.9,60.46,240.0,10.0,30.05,1014.2,10.0,,,M
2020-03-23 08:00:00,35841.236768,FST,52.0,37.9,58.48,210.0,10.0,30.06,1014.5,10.0,,,M
2020-03-23 09:00:00,36840.454036,FST,63.0,39.9,42.56,230.0,11.0,30.05,1013.8,10.0,,,CLR
2020-03-23 10:00:00,38012.138878,FST,66.9,43.0,41.87,220.0,11.0,30.06,1014.2,10.0,,,CLR
2020-03-23 11:00:00,39233.348446,FST,73.9,42.1,31.86,240.0,8.0,30.06,1014.0,10.0,,,CLR
2020-03-23 12:00:00,40463.192205,FST,78.1,39.0,24.56,330.0,4.0,30.06,1013.4,10.0,,,CLR
2020-03-23 13:00:00,41607.812035,FST,81.0,37.0,20.65,360.0,5.0,30.04,1012.7,10.0,,79.24,M
2020-03-23 14:00:00,42452.510036,FST,82.9,35.1,18.01,320.0,5.0,30.02,1011.4,10.0,,80.41,CLR
2020-03-23 15:00:00,42897.676696,FST,84.9,35.1,16.88,310.0,8.0,29.98,1009.8,10.0,,81.84,CLR
2020-03-23 16:00:00,43345.431351,FST,86.0,35.1,16.3,360.0,7.0,29.93,1008.3,10.0,,82.68,CLR
2020-03-23 17:00:00,43790.156933,FST,84.9,45.0,24.81,350.0,11.0,29.9,1007.9,10.0,,82.27,CLR
2020-03-23 18:00:00,43922.46934,FST,84.0,46.0,26.52,70.0,11.0,29.89,1008.1,10.0,,81.69,CLR
2020-03-23 19:00:00,43456.730858,FST,82.0,51.1,34.25,80.0,10.0,29.89,1008.2,10.0,,80.85,CLR
2020-03-23 20:00:00,42868.481486,FST,77.0,52.0,41.72,120.0,11.0,29.9,1008.6,10.0,,,CLR
2020-03-23 21:00:00,42905.348645,FST,72.0,54.0,53.09,140.0,11.0,29.9,1008.6,10.0,15.0,,CLR
2020-03-23 22:00:00,41372.226759,FST,68.0,55.9,65.22,140.0,13.0,29.91,1009.0,10.0,,,CLR
2020-03-23 23:00:00,39102.880152,FST,66.0,55.9,69.88,160.0,13.0,29.93,1009.2,10.0,,,CLR
2020-03-24 00:00:00,36599.01249,FST,64.0,57.0,77.97,160.0,12.0,29.95,1009.8,10.0,,,CLR
2020-03-24 01:00:00,34530.567374,FST,60.1,55.0,83.23,340.0,8.0,29.99,1011.2,10.0,,,CLR
2020-03-24 02:00:00,33177.027044,FST,60.1,57.0,89.48,190.0,7.0,29.98,1011.0,10.0,,,CLR
2020-03-24 03:00:00,32226.510733,FST,57.0,55.0,93.01,190.0,5.0,29.99,1011.3,10.0,,,CLR
2020-03-24 04:00:00,31810.84908,FST,61.0,45.0,55.57,310.0,9.0,29.99,1011.0,10.0,,,M
2020-03-24 05:00:00,31954.165173,FST,62.1,33.1,33.58,310.0,11.0,30.0,1011.4,10.0,,,CLR
2020-03-24 06:00:00,33023.679298,FST,61.0,28.9,29.45,300.0,10.0,30.01,1011.8,10.0,,,CLR
2020-03-24 07:00:00,34687.548782,FST,57.9,28.9,32.9,310.0,11.0,30.02,1012.6,10.0,,,CLR
2020-03-24 08:00:00,35940.417686,FST,57.9,28.0,31.71,300.0,13.0,30.04,1013.4,10.0,,,CLR
2020-03-24 09:00:00,36793.200484,FST,63.0,28.9,27.44,300.0,13.0,30.06,1014.2,10.0,,,CLR
2020-03-24 10:00:00,38613.885262,FST,66.0,30.0,25.85,300.0,13.0,30.08,1014.9,10.0,,,CLR
2020-03-24 11:00:00,40458.318542,FST,70.0,27.0,19.92,300.0,19.0,30.09,1014.9,10.0,26.0,,CLR
2020-03-24 12:00:00,42375.82895,FST,73.9,27.0,17.45,310.0,20.0,30.09,1015.0,10.0,24.0,,CLR
2020-03-24 13:00:00,44341.976323,FST,75.9,27.0,16.32,310.0,21.0,30.09,1014.6,10.0,28.0,,CLR
2020-03-24 14:00:00,46317.151874,FST,78.1,28.9,16.41,310.0,17.0,30.08,1013.9,10.0,18.0,,CLR
2020-03-24 15:00:00,47574.801346,FST,79.0,28.0,15.35,300.0,16.0,30.05,1013.2,10.0,20.0,,CLR
2020-03-24 16:00:00,48179.110824,FST,82.0,24.1,11.84,310.0,16.0,30.03,1011.7,10.0,22.0,79.47,CLR
2020-03-24 17:00:00,48822.928555,FST,82.9,23.0,10.98,320.0,17.0,30.0,1010.9,10.0,,80.0,CLR
2020-03-24 18:00:00,49108.733437,FST,82.9,23.0,10.98,320.0,16.0,29.98,1010.6,10.0,18.0,80.0,CLR
2020-03-24 19:00:00,48166.204001,FST,81.0,21.0,10.73,310.0,13.0,29.97,1010.8,10.0,15.0,78.63,CLR
2020-03-24 20:00:00,46080.596599,FST,75.9,23.0,13.82,310.0,11.0,29.98,1011.3,10.0,,,CLR
2020-03-24 21:00:00,45188.750311,FST,69.1,25.0,18.91,270.0,7.0,29.98,1011.4,10.0,,,CLR
2020-03-24 22:00:00,43148.505471,FST,64.9,25.0,21.86,260.0,7.0,30.0,1012.1,10.0,,,CLR
2020-03-24 23:00:00,40231.095926,FST,63.0,25.0,23.36,250.0,8.0,30.01,1012.6,10.0,,,CLR
2020-03-25 00:00:00,37033.48576,FST,60.1,25.0,25.89,270.0,9.0,30.01,1012.5,10.0,,,CLR
2020-03-25 01:00:00,34459.307105,FST,60.1,24.1,24.93,220.0,11.0,30.02,1012.3,10.0,,,CLR
2020-03-25 02:00:00,32822.825584,FST,61.0,24.1,24.15,220.0,11.0,30.01,1012.0,10.0,,,CLR
2020-03-25 03:00:00,31874.978477,FST,61.0,24.1,24.15,200.0,11.0,30.0,1011.8,10.0,,,CLR
2020-03-25 04:00:00,31362.71941,FST,57.9,30.9,35.69,230.0,11.0,30.0,1011.3,10.0,,,CLR
2020-03-25 05:00:00,31474.359968,FST,57.0,33.1,40.28,220.0,11.0,29.98,1010.7,10.0,,,CLR
2020-03-25 06:00:00,32473.647372,FST,57.0,35.1,43.63,220.0,13.0,29.97,1010.3,10.0,,,CLR
2020-03-25 07:00:00,34124.769743,FST,57.0,34.0,41.76,230.0,11.0,29.96,1010.5,10.0,,,CLR
2020-03-25 08:00:00,35459.106418,FST,57.0,33.1,40.28,220.0,11.0,29.96,1010.8,10.0,,,CLR
2020-03-25 09:00:00,36333.929209,FST,63.0,35.1,35.24,210.0,11.0,29.97,1011.1,10.0,,,CLR
2020-03-25 10:00:00,37641.445536,FST,72.0,34.0,24.72,220.0,13.0,29.98,1011.3,10.0,,,CLR
2020-03-25 11:00:00,39107.043743,FST,79.0,30.0,16.66,230.0,13.0,29.99,1011.5,10.0,,,CLR
2020-03-25 12:00:00,41242.333085,FST,82.9,26.1,12.5,270.0,11.0,30.0,1011.5,10.0,,80.21,CLR
2020-03-25 13:00:00,43844.039857,FST,84.9,24.1,10.78,300.0,11.0,30.0,1011.1,10.0,,81.44,CLR
2020-03-25 14:00:00,46451.430075,FST,88.0,24.1,9.77,300.0,10.0,29.99,1010.3,10.0,,83.65,CLR
2020-03-25 15:00:00,48734.018149,FST,90.0,23.0,8.76,310.0,11.0,29.97,1009.3,10.0,15.0,85.05,CLR
2020-03-25 16:00:00,50704.197736,FST,91.9,26.1,9.39,310.0,11.0,29.94,1008.2,10.0,,86.69,CLR
2020-03-25 17:00:00,52180.678101,FST,90.0,23.0,8.76,330.0,8.0,29.91,1007.6,10.0,,85.05,CLR
2020-03-25 18:00:00,52677.11227,FST,91.9,23.0,8.25,330.0,8.0,29.89,1007.0,10.0,,86.45,CLR
2020-03-25 19:00:00,51610.521292,FST,91.0,21.9,8.1,290.0,4.0,29.87,1006.9,10.0,,85.71,CLR
2020-03-25 20:00:00,49094.822285,FST,84.9,28.9,13.15,340.0,5.0,29.87,1007.2,10.0,,81.78,CLR
2020-03-25 21:00:00,48076.584305,FST,77.0,28.9,17.01,340.0,5.0,29.88,1007.8,10.0,,,CLR
2020-03-25 22:00:00,45837.260227,FST,77.0,37.0,23.55,220.0,10.0,29.91,1008.1,10.0,,,CLR
2020-03-25 23:00:00,42822.809811,FST,73.0,39.9,30.16,160.0,11.0,29.92,1008.5,10.0,,,CLR
2020-03-26 00:00:00,39610.992305,FST,70.0,44.1,39.26,170.0,11.0,29.92,1008.3,10.0,,,CLR
2020-03-26 01:00:00,36949.024431,FST,66.0,45.0,46.62,170.0,9.0,29.92,1007.9,10.0,,,CLR
2020-03-26 02:00:00,35155.921248,,,,,,,,,,,,
2020-03-26 03:00:00,33901.788015,,,,,,,,,,,,
2020-03-26 04:00:00,33157.594056,FST,63.0,55.0,75.11,230.0,10.0,29.86,1006.0,10.0,,,CLR
2020-03-26 05:00:00,33003.521612,FST,60.1,54.0,80.25,280.0,10.0,29.87,1006.8,10.0,,,CLR
2020-03-26 06:00:00,33811.242059,FST,60.1,53.1,77.65,250.0,9.0,29.87,1006.3,10.0,,,CLR
2020-03-26 07:00:00,35280.573532,FST,62.1,35.1,36.37,230.0,10.0,29.87,1006.7,10.0,,,CLR
2020-03-26 08:00:00,36247.811043,FST,62.1,39.0,42.41,220.0,11.0,29.87,1007.0,10.0,,,CLR
2020-03-26 09:00:00,37225.401755,FST,66.9,42.1,40.45,230.0,11.0,29.88,1007.4,10.0,,,CLR
2020-03-26 10:00:00,38909.667141,FST,75.0,44.1,33.16,230.0,9.0,29.89,1007.6,10.0,,,CLR
2020-03-26 11:00:00,41037.957938,FST,81.0,34.0,18.33,300.0,5.0,29.9,1007.5,10.0,,79.13,CLR
2020-03-26 12:00:00,43461.377219,FST,84.0,35.1,17.38,310.0,5.0,29.9,1007.3,10.0,,81.18,CLR
2020-03-26 13:00:00,46090.235747,FST,88.0,35.1,15.29,310.0,4.0,29.89,1006.6,10.0,,84.28,CLR
2020-03-26 14:00:00,48699.906021,FST,89.1,35.1,14.77,200.0,4.0,29.86,1005.4,10.0,,85.19,CLR
2020-03-26 15:00:00,50845.556231,FST,91.0,36.0,14.42,350.0,5.0,29.83,1004.4,10.0,,86.83,CLR
2020-03-26 16:00:00,52314.016416,FST,93.0,35.1,13.07,340.0,9.0,29.8,1002.8,10.0,,88.56,CLR
2020-03-26 17:00:00,52818.509162,FST,93.0,35.1,13.07,360.0,5.0,29.76,1002.2,10.0,,88.56,CLR
2020-03-26 18:00:00,52607.177504,FST,93.0,37.0,14.09,100.0,7.0,29.74,1001.6,10.0,,88.63,CLR
2020-03-26 19:00:00,51191.458397,FST,88.0,41.0,19.28,110.0,8.0,29.73,1002.0,10.0,,84.46,CLR
2020-03-26 20:00:00,49190.810769,FST,86.0,45.0,23.95,140.0,11.0,29.73,1002.2,10.0,,83.1,CLR
2020-03-26 21:00:00,48533.608244,FST,80.1,55.0,42.05,220.0,8.0,29.76,1003.0,10.0,,80.17,CLR
2020-03-26 22:00:00,46429.8513,FST,77.0,63.0,62.0,150.0,11.0,29.77,1003.3,10.0,,,CLR
2020-03-26 23:00:00,43384.03324,FST,73.9,64.0,71.21,150.0,10.0,29.78,1003.3,10.0,,,CLR
2020-03-27 00:00:00,40177.38905,FST,72.0,64.0,75.92,330.0,10.0,29.81,1004.3,10.0,,,CLR
2020-03-27 01:00:00,37525.201459,FST,70.0,64.0,81.27,340.0,5.0,29.81,1004.2,10.0,,,CLR
2020-03-27 02:00:00,35562.95852,FST,66.0,62.1,87.24,320.0,5.0,29.81,1004.1,10.0,,,CLR
2020-03-27 03:00:00,34393.277535,FST,64.0,62.1,93.54,250.0,9.0,29.8,1003.7,8.0,,,CLR
2020-03-27 04:00:00,33765.777966,FST,66.0,55.0,67.64,270.0,9.0,29.78,1003.1,10.0,,,CLR
2020-03-27 05:00:00,33707.115078,FST,66.9,48.9,52.35,290.0,8.0,29.79,1003.3,10.0,,,CLR
2020-03-27 06:00:00,34483.174489,FST,63.0,46.9,55.64,250.0,9.0,29.79,1003.6,10.0,,,CLR
2020-03-27 07:00:00,35942.442894,FST,63.0,42.1,46.34,240.0,8.0,29.78,1003.6,10.0,,,CLR
2020-03-27 08:00:00,37074.458726,FST,62.1,43.0,49.52,230.0,8.0,29.8,1004.4,10.0,,,CLR
2020-03-27 09:00:00,38146.766218,FST,64.0,41.0,42.88,280.0,9.0,29.83,1005.9,10.0,,,CLR
2020-03-27 10:00:00,39936.782461,FST,68.0,39.9,35.76,310.0,7.0,29.84,1005.7,10.0,,,CLR
2020-03-27 11:00:00,42152.937783,FST,71.1,39.9,32.16,310.0,9.0,29.86,1006.5,10.0,,,CLR
2020-03-27 12:00:00,44530.531761,FST,73.9,41.0,30.54,350.0,7.0,29.86,1006.6,10.0,,,CLR
2020-03-27 13:00:00,46828.561072,FST,75.0,41.0,29.43,350.0,13.0,29.86,1006.4,10.0,,,CLR
2020-03-27 14:00:00,48711.271508,FST,75.9,42.1,29.8,340.0,13.0,29.85,1005.7,10.0,18.0,,CLR
2020-03-27 15:00:00,49939.2197,FST,75.9,41.0,28.56,360.0,11.0,29.82,1004.6,10.0,,,CLR
2020-03-27 16:00:00,50805.937644,FST,77.0,41.0,27.53,360.0,5.0,29.79,1003.7,10.0,,,CLR
2020-03-27 17:00:00,51218.839159,FST,78.1,42.1,27.7,200.0,3.0,29.77,1003.0,10.0,,,CLR
2020-03-27 18:00:00,50812.87197,FST,77.0,42.1,28.73,120.0,2.0,29.76,1003.1,10.0,,,CLR
2020-03-27 19:00:00,49417.860297,FST,75.9,45.0,33.3,190.0,5.0,29.75,1002.7,10.0,,,CLR
2020-03-27 20:00:00,48053.897448,FST,78.1,36.0,21.83,230.0,14.0,29.74,1002.6,10.0,18.0,,CLR
2020-03-27 21:00:00,47715.156541,FST,73.0,37.9,27.89,210.0,10.0,29.73,1002.6,10.0,,,CLR
2020-03-27 22:00:00,46039.382081,FST,69.1,39.0,33.25,260.0,9.0,29.75,1003.3,10.0,,,CLR
2020-03-27 23:00:00,43818.514815,FST,72.0,39.0,30.12,240.0,8.0,29.79,1004.2,10.0,,,CLR
2020-03-28 00:00:00,41345.10803,FST,73.9,36.0,25.11,230.0,11.0,29.81,1004.9,10.0,,,CLR
2020-03-28 01:00:00,39040.607235,FST,73.9,35.1,24.23,230.0,13.0,29.82,1005.2,10.0,,,CLR
2020-03-28 02:00:00,37388.778532,FST,63.0,27.0,27.24,320.0,22.0,29.88,1007.7,10.0,29.0,,CLR
2020-03-28 03:00:00,36101.882602,FST,57.0,25.0,28.93,320.0,22.0,29.92,1009.1,10.0,27.0,,CLR
2020-03-28 04:00:00,35330.957599,FST,54.0,21.9,28.33,310.0,22.0,29.92,1009.6,10.0,32.0,,CLR
2020-03-28 05:00:00,34809.737018,FST,53.1,21.0,28.18,310.0,24.0,29.93,1009.5,10.0,35.0,,CLR
2020-03-28 06:00:00,34786.900278,FST,53.1,21.0,28.18,300.0,25.0,29.96,1010.7,10.0,34.0,,FEW
2020-03-28 07:00:00,35227.612703,FST,50.0,18.0,27.8,300.0,20.0,29.99,1011.9,10.0,26.0,,CLR
2020-03-28 08:00:00,35595.744514,FST,50.0,17.1,26.74,300.0,20.0,30.01,1012.7,10.0,27.0,,CLR
2020-03-28 09:00:00,36236.406965,FST,51.1,18.0,26.69,300.0,16.0,30.05,1014.2,10.0,,,CLR
2020-03-28 10:00:00,37500.196102,FST,54.0,14.0,20.16,300.0,19.0,30.08,1015.1,10.0,25.0,,CLR
2020-03-28 11:00:00,38927.487132,FST,57.0,14.0,18.08,310.0,20.0,30.08,1015.0,10.0,25.0,,CLR
2020-03-28 12:00:00,40359.81363,FST,59.0,12.9,16.03,310.0,20.0,30.08,1014.6,10.0,26.0,,CLR
2020-03-28 13:00:00,41042.266692,FST,63.0,10.9,12.73,310.0,22.0,30.07,1013.8,10.0,29.0,,CLR
2020-03-28 14:00:00,41242.658954,FST,66.0,10.0,11.02,310.0,18.0,30.06,1014.0,10.0,26.0,,CLR
2020-03-28 15:00:00,41519.738736,FST,66.9,10.9,11.11,310.0,22.0,30.04,1013.2,10.0,26.0,,CLR
2020-03-28 16:00:00,41624.958525,FST,69.1,9.0,9.47,330.0,20.0,30.01,1012.5,10.0,27.0,,CLR
2020-03-28 17:00:00,41223.465412,FST,70.0,12.0,10.49,310.0,21.0,30.0,1012.2,10.0,25.0,,CLR
2020-03-28 18:00:00,40677.710669,FST,70.0,8.1,8.81,320.0,19.0,29.99,1012.1,10.0,22.0,,CLR
2020-03-28 19:00:00,39881.690689,FST,69.1,6.1,8.3,310.0,17.0,30.0,1012.6,10.0,22.0,,CLR
2020-03-28 20:00:00,38946.801124,FST,66.0,5.0,8.79,310.0,17.0,30.01,1013.4,10.0,,,CLR
2020-03-28 21:00:00,38891.896037,FST,57.9,8.1,13.47,300.0,10.0,30.03,1014.3,10.0,,,CLR
2020-03-28 22:00:00,37488.378166,FST,55.9,9.0,15.07,310.0,8.0,30.05,1014.7,10.0,,,CLR
2020-03-28 23:00:00,35642.69135,FST,54.0,9.0,16.15,300.0,10.0,30.06,1015.1,10.0,,,CLR
2020-03-29 00:00:00,33609.564534,FST,48.0,12.9,23.99,360.0,5.0,30.09,1016.1,10.0,,46.1,CLR
2020-03-29 01:00:00,31803.103025,FST,51.1,10.9,19.56,260.0,10.0,30.1,1016.4,10.0,,,CLR
2020-03-29 02:00:00,30408.676427,FST,48.0,14.0,25.18,260.0,10.0,30.12,1017.2,10.0,,44.8,CLR
2020-03-29 03:00:00,29491.353753,FST,51.1,14.0,22.43,210.0,11.0,30.12,1016.6,10.0,,,CLR
2020-03-29 04:00:00,29014.320042,FST,50.0,15.1,24.52,220.0,10.0,30.11,1015.9,10.0,,,CLR
2020-03-29 05:00:00,28756.122278,FST,48.9,17.1,27.86,200.0,5.0,30.09,1015.7,10.0,,47.16,CLR
2020-03-29 06:00:00,28907.800001,FST,45.0,19.0,35.02,200.0,9.0,30.1,1016.4,10.0,,39.68,CLR
2020-03-29 07:00:00,29477.11441,FST,46.9,17.1,30.04,180.0,8.0,30.12,1016.8,10.0,,43.48,CLR
2020-03-29 08:00:00,30122.404058,FST,46.9,17.1,30.04,180.0,8.0,30.14,1017.8,10.0,,42.94,CLR
2020-03-29 09:00:00,31203.44392,FST,48.9,19.9,31.42,170.0,7.0,30.15,1018.3,10.0,,45.88,CLR
2020-03-29 10:00:00,32764.796122,FST,57.0,21.0,24.45,170.0,7.0,30.16,1018.6,10.0,,,CLR
2020-03-29 11:00:00,33937.366492,FST,64.0,15.1,14.79,150.0,9.0,30.16,1018.2,10.0,,,CLR
2020-03-29 12:00:00,34847.819082,FST,66.9,15.1,13.37,140.0,13.0,30.16,1018.0,10.0,,,CLR
2020-03-29 13:00:00,35843.89434,FST,69.1,15.1,12.4,150.0,14.0,30.15,1016.9,10.0,19.0,,CLR
2020-03-29 14:00:00,36441.482452,FST,71.1,21.9,15.51,150.0,17.0,30.11,1015.3,10.0,24.0,,CLR
2020-03-29 15:00:00,36969.008133,FST,72.0,30.9,21.82,160.0,19.0,30.07,1014.3,10.0,26.0,,CLR
2020-03-29 16:00:00,37396.516795,FST,73.9,32.0,21.4,150.0,16.0,30.05,1013.0,10.0,21.0,,CLR
2020-03-29 17:00:00,37739.01296,FST,75.0,35.1,23.35,150.0,19.0,30.01,1011.6,10.0,26.0,,CLR
2020-03-29 18:00:00,38054.170109,FST,75.0,35.1,23.35,150.0,20.0,29.97,1011.8,10.0,24.0,,CLR
2020-03-29 19:00:00,38129.559096,FST,73.0,35.1,24.97,140.0,21.0,29.98,1011.9,10.0,26.0,,CLR
2020-03-29 20:00:00,38371.122927,FST,68.0,32.0,26.15,140.0,22.0,29.98,1012.3,10.0,27.0,,CLR
2020-03-29 21:00:00,38979.325649,FST,66.0,27.0,22.86,130.0,20.0,30.0,1012.7,10.0,28.0,,CLR
2020-03-29 22:00:00,37986.384501,FST,64.0,30.0,27.71,140.0,21.0,30.0,1012.4,10.0,29.0,,CLR
2020-03-29 23:00:00,36329.877663,FST,63.0,30.0,28.7,140.0,22.0,30.0,1012.3,10.0,32.0,,CLR
2020-03-30 00:00:00,34327.851514,FST,62.1,30.0,29.63,150.0,20.0,30.0,1012.2,10.0,29.0,,CLR
2020-03-30 01:00:00,32536.596432,FST,62.1,30.0,29.63,150.0,21.0,30.0,1011.2,10.0,29.0,,CLR
2020-03-30 02:00:00,31259.494014,FST,61.0,30.9,31.95,150.0,24.0,29.97,1010.5,10.0,32.0,,CLR
2020-03-30 03:00:00,30494.222048,FST,59.0,32.0,35.87,160.0,22.0,29.96,1010.4,10.0,27.0,,CLR
2020-03-30 04:00:00,30046.74102,FST,57.9,32.0,37.31,170.0,15.0,29.95,1010.2,10.0,,,CLR
2020-03-30 05:00:00,30298.809738,FST,57.0,32.0,38.54,160.0,13.0,29.95,1009.9,10.0,,,CLR
2020-03-30 06:00:00,31321.77954,FST,55.0,33.1,43.31,150.0,11.0,29.95,1010.4,10.0,,,CLR
2020-03-30 07:00:00,33088.830684,FST,52.0,34.0,50.12,160.0,10.0,29.95,1010.9,10.0,,,CLR
2020-03-30 08:00:00,34689.811963,FST,50.0,35.1,56.39,180.0,8.0,29.98,1011.9,10.0,,,CLR
2020-03-30 09:00:00,35743.534924,FST,52.0,36.0,54.26,270.0,9.0,29.99,1012.3,10.0,,,CLR
2020-03-30 10:00:00,36965.979101,FST,61.0,37.9,42.24,220.0,8.0,29.99,1011.9,10.0,,,CLR
2020-03-30 11:00:00,38285.182021,FST,66.0,41.0,39.99,270.0,7.0,29.99,1012.0,10.0,,,CLR
2020-03-30 12:00:00,39335.810735,FST,72.0,39.9,31.2,300.0,9.0,30.0,1011.9,10.0,,,CLR
2020-03-30 13:00:00,40276.935323,FST,73.0,32.0,22.06,330.0,16.0,29.99,1011.8,10.0,19.0,,CLR
2020-03-30 14:00:00,41149.091066,FST,77.0,28.0,16.4,320.0,20.0,30.0,1011.1,10.0,26.0,,CLR
2020-03-30 15:00:00,41657.305716,FST,78.1,25.0,13.97,320.0,22.0,29.98,1010.6,10.0,24.0,,CLR
2020-03-30 16:00:00,41970.133541,FST,80.1,19.0,10.15,310.0,24.0,29.96,1009.8,10.0,33.0,78.04,CLR
2020-03-30 17:00:00,42136.039913,FST,78.1,16.0,9.53,300.0,27.0,29.94,1009.7,10.0,32.0,,CLR
2020-03-30 18:00:00,42442.373164,FST,77.0,17.1,10.36,300.0,23.0,29.94,1009.8,10.0,31.0,,CLR
2020-03-30 19:00:00,42219.833446,FST,75.0,14.0,9.68,300.0,23.0,29.95,1010.8,10.0,27.0,,CLR
2020-03-30 20:00:00,41763.391254,FST,72.0,12.9,10.2,300.0,20.0,29.98,1012.0,10.0,24.0,,CLR
2020-03-30 21:00:00,41847.467972,FST,69.1,14.0,11.82,310.0,18.0,30.02,1013.4,10.0,22.0,,CLR
2020-03-30 22:00:00,40439.766895,FST,63.0,17.1,16.71,280.0,11.0,30.06,1014.5,10.0,,,CLR
2020-03-30 23:00:00,38298.502002,FST,62.1,18.0,17.93,260.0,11.0,30.08,1015.1,10.0,,,CLR
2020-03-31 00:00:00,35985.836816,FST,61.0,18.0,18.64,260.0,11.0,30.09,1015.3,10.0,,,CLR
2020-03-31 01:00:00,34093.352693,FST,55.0,19.9,25.09,290.0,11.0,30.11,1015.9,10.0,,,CLR
2020-03-31 02:00:00,32863.658064,FST,53.1,19.9,26.89,290.0,10.0,30.11,1016.1,10.0,,,CLR
2020-03-31 03:00:00,32059.965806,FST,54.0,19.0,25.04,240.0,11.0,30.12,1016.2,10.0,,,CLR
2020-03-31 04:00:00,31661.597671,FST,55.9,18.0,22.39,250.0,11.0,30.12,1015.8,10.0,,,CLR
2020-03-31 05:00:00,31847.023717,FST,52.0,19.0,26.95,280.0,9.0,30.11,1015.9,10.0,,,CLR
2020-03-31 06:00:00,32970.108136,FST,54.0,19.0,25.04,280.0,10.0,30.11,1015.9,10.0,,,CLR
2020-03-31 07:00:00,34669.206025,FST,51.1,19.9,28.95,280.0,10.0,30.13,1016.7,10.0,,,CLR
2020-03-31 08:00:00,35830.789473,FST,51.1,19.9,28.95,300.0,10.0,30.13,1017.2,10.0,,,CLR
2020-03-31 09:00:00,36673.03539,FST,55.9,21.9,26.43,290.0,9.0,30.16,1017.9,10.0,,,CLR
2020-03-31 10:00:00,37582.432654,FST,61.0,21.9,22.02,330.0,7.0,30.17,1018.4,10.0,,,CLR
2020-03-31 11:00:00,38138.170708,FST,64.0,23.0,22.18,340.0,7.0,30.18,1018.6,10.0,,,CLR
2020-03-31 12:00:00,38715.143497,FST,66.9,25.0,20.39,330.0,5.0,30.18,1018.3,10.0,,,CLR
2020-03-31 13:00:00,39207.012293,FST,72.0,25.0,17.13,360.0,5.0,30.17,1017.6,10.0,,,CLR
2020-03-31 14:00:00,39649.407458,FST,73.0,23.0,15.23,360.0,8.0,30.15,1016.9,10.0,,,CLR
2020-03-31 15:00:00,40027.975403,FST,73.9,23.0,14.77,320.0,4.0,30.13,1015.5,10.0,,,CLR
2020-03-31 16:00:00,40534.924447,FST,77.0,24.1,13.95,350.0,6.0,30.09,1014.1,10.0,,,CLR
2020-03-31 17:00:00,40997.587567,FST,77.0,21.0,12.24,360.0,5.0,30.05,1013.3,10.0,,,CLR
2020-03-31 18:00:00,41077.465447,FST,75.9,18.0,11.17,350.0,5.0,30.03,1012.5,10.0,,,CLR
2020-03-31 19:00:00,40610.150459,FST,75.9,21.0,12.7,130.0,8.0,30.0,1012.1,10.0,,,CLR
2020-03-31 20:00:00,39759.921628,FST,71.1,25.0,17.66,110.0,6.0,29.99,1012.4,10.0,,,CLR
2020-03-31 21:00:00,39954.849699,FST,68.0,26.1,20.55,120.0,7.0,30.0,1012.3,10.0,,,CLR
2020-03-31 22:00:00,38534.68749,FST,69.1,24.1,18.21,130.0,8.0,30.0,1012.3,10.0,,,CLR
2020-03-31 23:00:00,36297.288101,FST,64.9,27.0,23.75,150.0,8.0,30.0,1012.3,10.0,,,CLR
2020-04-01 00:00:00,33917.150641,FST,62.1,25.0,24.12,160.0,10.0,30.0,1012.0,10.0,,,CLR
2020-04-01 01:00:00,32073.547331,FST,64.0,26.1,23.61,160.0,14.0,29.99,1010.9,10.0,,,CLR
2020-04-01 02:00:00,30789.140614,FST,66.0,27.0,22.86,170.0,18.0,29.96,1009.7,10.0,22.0,,CLR
2020-04-01 03:00:00,30106.776306,FST,64.9,26.1,22.88,170.0,16.0,29.94,1008.8,10.0,21.0,,CLR
2020-04-01 04:00:00,29824.136723,FST,63.0,26.1,24.46,170.0,17.0,29.91,1007.9,10.0,21.0,,CLR
2020-04-01 05:00:00,30114.323151,FST,61.0,30.9,31.95,170.0,18.0,29.88,1007.2,10.0,24.0,,CLR
2020-04-01 06:00:00,31141.678675,FST,57.9,32.0,37.31,170.0,16.0,29.87,1007.6,10.0,,,CLR
2020-04-01 07:00:00,32922.217729,FST,57.9,32.0,37.31,160.0,11.0,29.89,1008.0,10.0,,,CLR
2020-04-01 08:00:00,34157.438235,FST,57.0,32.0,38.54,150.0,8.0,29.89,1008.5,10.0,,,CLR
2020-04-01 09:00:00,34974.227098,FST,59.0,37.9,45.36,150.0,9.0,29.92,1009.4,10.0,,,CLR
2020-04-01 10:00:00,35744.508121,FST,62.1,39.9,43.93,150.0,13.0,29.92,1009.1,10.0,,,CLR
2020-04-01 11:00:00,36447.545489,FST,66.0,39.0,37.0,150.0,11.0,29.93,1009.7,10.0,,,CLR
2020-04-01 12:00:00,37150.494771,FST,70.0,39.9,33.39,150.0,9.0,29.93,1009.3,10.0,,,CLR
2020-04-01 13:00:00,37885.880738,FST,73.9,41.0,30.54,150.0,10.0,29.92,1007.9,10.0,,,CLR
2020-04-01 14:00:00,38460.141442,FST,78.1,36.0,21.83,150.0,7.0,29.9,1006.9,10.0,,,CLR
2020-04-01 15:00:00,39014.256473,FST,80.1,28.9,15.36,180.0,5.0,29.87,1006.0,10.0,,78.53,CLR
2020-04-01 16:00:00,39500.697187,FST,82.0,32.0,16.38,200.0,14.0,29.84,1004.8,10.0,,79.73,CLR
2020-04-01 17:00:00,40149.044268,FST,82.9,33.1,17.12,230.0,16.0,29.8,1004.1,10.0,20.0,80.33,CLR
2020-04-01 18:00:00,40555.033795,FST,78.1,41.0,26.55,210.0,16.0,29.78,1004.4,10.0,,,SCT
2020-04-01 19:00:00,40327.009228,FST,75.9,43.0,30.85,160.0,16.0,29.79,1004.7,10.0,22.0,,BKN
2020-04-01 20:00:00,39629.735621,FST,73.0,46.0,38.11,160.0,16.0,29.8,1005.2,10.0,21.0,,CLR
2020-04-01 21:00:00,39978.280251,FST,71.1,48.0,43.83,180.0,17.0,29.81,1005.8,10.0,22.0,,CLR
2020-04-01 22:00:00,38646.417402,FST,70.0,48.9,47.06,160.0,16.0,29.83,1006.3,10.0,19.0,,CLR
2020-04-01 23:00:00,36483.983824,FST,68.0,48.9,50.4,160.0,11.0,29.84,1006.4,10.0,,,CLR
2020-04-02 00:00:00,34050.96886,FST,69.1,48.9,48.53,160.0,14.0,29.84,1006.1,10.0,,,CLR
2020-04-02 01:00:00,32184.217982,FST,69.1,50.0,50.56,160.0,16.0,29.84,1006.0,10.0,19.0,,CLR
2020-04-02 02:00:00,30964.85132,FST,66.9,50.0,54.54,160.0,14.0,29.84,1005.7,10.0,,,CLR
2020-04-02 03:00:00,30238.305823,FST,64.9,50.0,58.47,170.0,13.0,29.83,1005.2,10.0,,,CLR
2020-04-02 04:00:00,29829.621312,FST,64.0,48.9,57.91,170.0,13.0,29.82,1005.1,10.0,,,CLR
2020-04-02 05:00:00,30045.874907,FST,61.0,48.9,64.37,170.0,10.0,29.81,1005.1,10.0,,,CLR
2020-04-02 06:00:00,31082.658547,FST,59.0,48.9,69.12,170.0,9.0,29.84,1006.4,10.0,,,CLR
2020-04-02 07:00:00,32786.147527,FST,57.0,46.9,68.9,200.0,8.0,29.86,1007.3,10.0,,,CLR
2020-04-02 08:00:00,34348.579505,FST,57.9,44.1,59.98,210.0,7.0,29.88,1008.0,10.0,,,CLR
2020-04-02 09:00:00,35436.0368,FST,64.9,39.0,38.44,220.0,8.0,29.9,1008.7,10.0,,,CLR
2020-04-02 10:00:00,36538.666869,FST,73.9,30.0,19.73,270.0,7.0,29.91,1008.6,10.0,,,CLR
2020-04-02 11:00:00,37677.911617,FST,78.1,27.0,15.17,300.0,13.0,29.91,1008.4,10.0,,,CLR
2020-04-02 12:00:00,38701.111506,FST,79.0,27.0,14.73,310.0,19.0,29.91,1008.2,10.0,22.0,,CLR
2020-04-02 13:00:00,39244.83794,FST,79.0,25.0,13.56,340.0,16.0,29.9,1007.7,10.0,19.0,,CLR
2020-04-02 14:00:00,39660.245878,FST,82.0,25.0,12.29,320.0,15.0,29.89,1006.6,10.0,18.0,79.54,CLR
2020-04-02 15:00:00,39794.390643,FST,82.9,24.1,11.5,340.0,11.0,29.86,1005.7,10.0,17.0,80.07,CLR
2020-04-02 16:00:00,39858.014839,FST,84.0,21.9,10.12,330.0,15.0,29.83,1004.9,10.0,,80.68,CLR
2020-04-02 17:00:00,40034.061271,FST,84.0,24.1,11.1,350.0,14.0,29.81,1004.5,10.0,,80.82,CLR
2020-04-02 18:00:00,40146.651816,FST,84.9,25.0,11.19,320.0,9.0,29.79,1004.3,10.0,,81.5,CLR
2020-04-02 19:00:00,40107.284988,FST,,,,300.0,11.0,29.79,,10.0,,,CLR
2020-04-02 20:00:00,39957.525705,FST,,,,290.0,15.0,29.79,,10.0,,,CLR
2020-04-02 21:00:00,40142.526987,FST,72.0,21.9,15.04,290.0,8.0,29.82,1005.6,10.0,,,CLR
2020-04-02 22:00:00,39134.38727,FST,70.0,21.9,16.1,280.0,7.0,29.85,1006.3,10.0,,,CLR
2020-04-02 23:00:00,37278.644908,FST,63.0,26.1,24.46,260.0,8.0,29.87,1007.2,10.0,,,CLR
2020-04-03 00:00:00,35283.613915,FST,62.1,39.0,42.41,170.0,10.0,29.88,1007.5,10.0,,,CLR
2020-04-03 01:00:00,33541.239556,FST,60.1,44.1,55.44,200.0,9.0,29.88,1007.7,10.0,,,CLR
2020-04-03 02:00:00,32275.661897,FST,59.0,48.9,69.12,170.0,10.0,29.88,1007.7,10.0,,,CLR
2020-04-03 03:00:00,31506.801312,FST,60.1,52.0,74.57,160.0,11.0,29.88,1007.5,10.0,,,M
2020-04-03 04:00:00,31013.427047,FST,60.1,53.1,77.65,160.0,11.0,29.88,1007.6,10.0,,,CLR
2020-04-03 05:00:00,31094.437722,FST,57.9,53.1,84.0,180.0,11.0,29.88,1007.6,10.0,,,CLR
2020-04-03 06:00:00,31937.387955,FST,55.9,52.0,86.71,190.0,9.0,29.9,1008.1,10.0,,,CLR
2020-04-03 07:00:00,33624.75888,FST,54.0,52.0,92.92,170.0,8.0,29.91,1008.7,10.0,,,CLR
2020-04-03 08:00:00,34984.957971,FST,55.0,50.0,83.2,180.0,8.0,29.95,1010.2,10.0,,,CLR
2020-04-03 09:00:00,36163.892715,FST,55.9,32.0,40.1,360.0,11.0,30.0,1012.1,10.0,,,CLR
2020-04-03 10:00:00,37606.04856,FST,55.0,43.0,71.28,360.0,17.0,30.07,1014.9,10.0,,42.69,CLR
2020-04-03 11:00:00,38946.91124,FST,48.9,37.0,63.34,350.0,16.0,30.11,1017.0,10.0,21.0,42.95,OVC
2020-04-03 12:00:00,40030.142985,FST,48.9,37.0,63.34,330.0,15.0,30.15,1018.3,10.0,18.0,42.95,OVC
2020-04-03 13:00:00,40776.500517,FST,51.1,37.0,63.34,360.0,16.0,30.15,1017.5,10.0,,42.69,OVC
2020-04-03 14:00:00,41475.28254,FST,54.0,37.9,54.34,340.0,14.0,30.12,1016.0,10.0,19.0,,OVC
2020-04-03 15:00:00,41919.476001,FST,57.0,39.0,50.88,340.0,13.0,30.08,1014.6,10.0,,,OVC
2020-04-03 16:00:00,41957.943114,FST,61.0,39.0,44.1,360.0,13.0,30.05,1013.0,10.0,,,FEW
2020-04-03 17:00:00,41638.764158,FST,64.0,39.0,39.67,360.0,11.0,30.01,1012.1,10.0,14.0,,CLR
2020-04-03 18:00:00,41343.270543,FST,62.1,39.0,42.41,70.0,11.0,29.98,1011.9,10.0,,,CLR
2020-04-03 19:00:00,41019.392176,FST,59.0,39.9,49.04,100.0,10.0,29.98,1012.3,10.0,,,CLR
2020-04-03 20:00:00,40910.469462,FST,57.9,39.9,51.02,80.0,10.0,29.99,1012.5,10.0,,,CLR
2020-04-03 21:00:00,40875.856304,FST,54.0,39.9,58.76,100.0,14.0,30.01,1013.3,10.0,,,CLR
2020-04-03 22:00:00,39670.917626,FST,52.0,39.0,61.06,100.0,13.0,30.02,1014.3,10.0,,,CLR
2020-04-03 23:00:00,38071.146291,FST,52.0,39.0,61.06,90.0,10.0,30.03,1014.4,10.0,,,CLR
2020-04-04 00:00:00,36347.856864,FST,52.0,39.9,63.24,90.0,9.0,30.04,1014.4,10.0,,,CLR
2020-04-04 01:00:00,34872.368295,FST,52.0,39.0,61.06,100.0,11.0,30.02,1014.0,10.0,,,BKN
2020-04-04 02:00:00,33737.57697,FST,51.1,39.9,65.38,90.0,11.0,30.02,1014.2,10.0,,,OVC
2020-04-04 03:00:00,33011.202287,FST,48.9,42.1,77.26,90.0,14.0,30.03,1014.1,10.0,,43.82,BKN
2020-04-04 04:00:00,32540.828233,FST,48.9,41.0,74.05,90.0,13.0,30.05,1014.5,10.0,,44.53,OVC
2020-04-04 05:00:00,32509.716212,FST,48.9,39.9,70.95,80.0,10.0,30.03,1013.2,10.0,,44.53,OVC
2020-04-04 06:00:00,32861.030643,FST,46.9,41.0,79.82,60.0,11.0,30.03,1014.1,10.0,,41.65,OVC
2020-04-04 07:00:00,33801.666086,FST,46.9,42.1,89.49,70.0,11.0,30.04,1014.9,10.0,,41.65,OVC
2020-04-04 08:00:00,34668.152265,FST,45.0,43.0,96.6,70.0,9.0,30.05,1015.3,10.0,,41.19,OVC
2020-04-04 09:00:00,35763.376782,FST,42.1,39.9,91.84,40.0,10.0,30.08,1016.4,10.0,,37.69,OVC
2020-04-04 10:00:00,37464.563535,FST,42.1,41.0,95.84,50.0,8.0,30.09,1017.3,6.0,,37.69,OVC
2020-04-04 11:00:00,38861.811711,FST,43.0,41.0,95.84,80.0,7.0,30.1,1017.3,4.0,,40.27,OVC
2020-04-04 12:00:00,39833.409358,FST,45.0,42.1,89.49,80.0,5.0,30.11,1016.9,10.0,,41.83,OVC
2020-04-04 13:00:00,40240.422812,FST,45.0,41.0,85.77,360.0,7.0,30.08,1016.5,10.0,,41.19,OVC
2020-04-04 14:00:00,40091.672295,FST,46.9,41.0,79.82,60.0,10.0,30.08,1016.0,10.0,,43.48,OVC
2020-04-04 15:00:00,39478.908049,FST,48.0,42.1,79.91,100.0,8.0,30.06,1015.3,10.0,,45.4,OVC
2020-04-04 16:00:00,38872.112679,FST,52.0,42.1,68.86,100.0,7.0,30.04,1013.9,10.0,,,BKN
2020-04-04 17:00:00,38460.899091,FST,53.1,42.1,66.13,110.0,7.0,30.01,1012.7,10.0,,,OVC
2020-04-04 18:00:00,38573.457396,FST,54.0,43.0,66.24,130.0,8.0,29.97,1012.5,10.0,,,OVC
2020-04-04 19:00:00,38518.1506,FST,54.0,44.1,69.09,130.0,9.0,29.97,1012.3,10.0,,,CLR
2020-04-04 20:00:00,38679.092777,FST,54.0,44.1,69.09,130.0,9.0,29.97,1012.8,10.0,,,CLR
2020-04-04 21:00:00,38926.868773,FST,52.0,43.0,71.28,110.0,10.0,29.97,1013.0,10.0,,,CLR
2020-04-04 22:00:00,37860.581565,FST,52.0,43.0,71.28,110.0,11.0,29.97,1012.9,10.0,,,CLR
2020-04-04 23:00:00,36308.8022,FST,53.1,44.1,71.4,130.0,11.0,29.98,1013.0,10.0,,,CLR
2020-04-05 00:00:00,34696.43694,FST,53.1,45.0,73.89,140.0,11.0,29.98,1012.7,10.0,,,CLR
2020-04-05 01:00:00,33236.429519,FST,53.1,45.0,73.89,140.0,10.0,29.97,1012.7,10.0,15.0,,CLR
2020-04-05 02:00:00,32126.397022,FST,53.1,46.0,76.75,140.0,8.0,29.97,1012.2,10.0,,,CLR
2020-04-05 03:00:00,31360.551103,FST,53.1,46.0,76.75,150.0,7.0,29.96,1011.7,10.0,,,CLR
2020-04-05 04:00:00,30908.119576,FST,52.0,46.9,82.68,140.0,7.0,29.95,1010.9,10.0,,,CLR
2020-04-05 05:00:00,30825.673473,FST,52.0,46.9,82.68,160.0,10.0,29.92,1010.4,10.0,,,CLR
2020-04-05 06:00:00,31037.215268,FST,52.0,46.9,82.68,170.0,8.0,29.92,1010.6,10.0,,,CLR
2020-04-05 07:00:00,31561.063705,FST,48.9,43.0,79.98,280.0,10.0,29.95,1011.6,10.0,,44.16,SCT
2020-04-05 08:00:00,32095.364689,FST,48.9,43.0,79.98,290.0,8.0,29.96,1012.1,10.0,,48.01,SCT
2020-04-05 09:00:00,33109.653997,FST,50.0,43.0,76.76,300.0,7.0,29.98,1012.7,10.0,,,BKN
2020-04-05 10:00:00,34361.117295,FST,53.1,44.1,71.4,300.0,5.0,29.99,1012.8,10.0,,,SCT
2020-04-05 11:00:00,35307.126294,FST,57.9,46.0,64.47,270.0,2.0,29.99,1012.8,10.0,,,BKN
2020-04-05 12:00:00,35719.892185,FST,60.1,46.9,61.65,130.0,5.0,30.0,1013.0,10.0,,,SCT
2020-04-05 13:00:00,35850.371083,FST,66.9,48.9,52.35,120.0,5.0,30.0,1011.9,10.0,,,BKN
2020-04-05 14:00:00,35515.138332,FST,72.0,48.9,43.97,80.0,5.0,29.98,1010.9,10.0,,,FEW
2020-04-05 15:00:00,35252.289741,FST,75.0,50.0,41.41,80.0,11.0,29.95,1009.7,10.0,,,CLR
2020-04-05 16:00:00,35343.0499,FST,79.0,44.1,29.04,190.0,15.0,29.93,1008.6,10.0,22.0,,OVC
2020-04-05 17:00:00,35513.993387,FST,81.0,41.0,24.14,220.0,18.0,29.89,1007.7,10.0,29.0,79.43,FEW
2020-04-05 18:00:00,35970.275484,FST,79.0,43.0,27.84,210.0,18.0,29.87,1007.2,10.0,22.0,,FEW
2020-04-05 19:00:00,36256.614222,FST,75.0,48.0,38.43,190.0,16.0,29.87,1007.9,10.0,23.0,,BKN
2020-04-05 20:00:00,36599.177108,FST,70.0,52.0,52.8,150.0,16.0,29.88,1008.6,10.0,19.0,,CLR
2020-04-05 21:00:00,37238.22025,FST,64.0,53.1,67.66,150.0,15.0,29.89,1009.1,10.0,21.0,,FEW
2020-04-05 22:00:00,36407.33824,FST,59.0,54.0,83.46,150.0,19.0,29.92,1010.3,10.0,26.0,,CLR
2020-04-05 23:00:00,34918.007693,FST,57.9,54.0,86.82,150.0,20.0,29.94,1010.6,10.0,24.0,,CLR
2020-04-06 00:00:00,32993.371185,FST,57.9,54.0,86.82,150.0,21.0,29.95,1010.9,10.0,27.0,,CLR
2020-04-06 01:00:00,31306.83994,FST,59.0,54.0,83.46,160.0,21.0,29.95,1010.7,10.0,27.0,,CLR
2020-04-06 02:00:00,30187.477215,FST,57.9,55.0,90.04,160.0,18.0,29.95,1010.0,10.0,27.0,,CLR
2020-04-06 03:00:00,29543.776727,FST,57.9,55.0,90.04,160.0,17.0,29.94,1009.2,10.0,22.0,,FEW
2020-04-06 04:00:00,29361.477245,FST,59.0,55.0,86.56,160.0,17.0,29.93,1009.0,10.0,22.0,,CLR
2020-04-06 05:00:00,29728.151851,FST,59.0,55.0,86.56,160.0,17.0,29.91,1008.2,10.0,22.0,,FEW
2020-04-06 06:00:00,30753.248627,FST,59.0,55.0,86.56,160.0,16.0,29.92,1009.0,10.0,18.0,,SCT
2020-04-06 07:00:00,32524.417261,FST,59.0,55.0,86.56,150.0,13.0,29.92,1009.1,10.0,,,FEW
2020-04-06 08:00:00,33879.994004,FST,59.0,55.0,86.56,150.0,11.0,29.92,1009.7,10.0,,,CLR
2020-04-06 09:00:00,34853.765874,FST,61.0,55.0,80.61,170.0,7.0,29.96,1010.9,10.0,,,CLR
2020-04-06 10:00:00,35974.801231,FST,62.1,51.1,67.19,290.0,10.0,29.98,1011.8,10.0,,,CLR
2020-04-06 11:00:00,37078.021996,FST,64.9,53.1,65.56,280.0,9.0,30.0,1012.4,10.0,,,CLR
2020-04-06 12:00:00,38165.957316,FST,66.9,53.1,61.16,290.0,8.0,30.01,1012.6,10.0,,,FEW
2020-04-06 13:00:00,39045.210631,FST,69.1,53.1,56.7,290.0,9.0,30.01,1012.5,10.0,,,CLR
2020-04-06 14:00:00,39538.306563,FST,71.1,51.1,49.2,310.0,5.0,30.0,1012.0,10.0,,,CLR
2020-04-06 15:00:00,39755.958745,FST,75.0,46.9,36.87,310.0,7.0,30.0,1011.4,10.0,,,CLR
2020-04-06 16:00:00,39920.550806,FST,78.1,42.1,27.7,330.0,7.0,29.98,1010.7,10.0,,,CLR
2020-04-06 17:00:00,39985.062793,FST,78.1,42.1,27.7,350.0,5.0,29.96,1010.0,10.0,,,CLR
2020-04-06 18:00:00,40106.47507,FST,78.1,39.0,24.56,150.0,6.0,29.95,1010.3,10.0,,,CLR
2020-04-06 19:00:00,39972.881282,FST,73.9,46.9,38.26,210.0,18.0,29.96,1010.5,10.0,23.0,,CLR
2020-04-06 20:00:00,39829.965124,FST,72.0,48.0,42.51,200.0,17.0,29.97,1011.1,10.0,22.0,,FEW
2020-04-06 21:00:00,40261.438336,FST,70.0,51.1,51.07,200.0,16.0,29.99,1011.8,10.0,,,CLR
2020-04-06 22:00:00,39391.747499,FST,69.1,50.0,50.56,210.0,18.0,30.01,1012.6,10.0,,,CLR
2020-04-06 23:00:00,37590.475655,FST,68.0,50.0,52.51,220.0,14.0,30.04,1013.4,10.0,,,CLR
2020-04-07 00:00:00,35448.424766,FST,68.0,48.9,50.4,230.0,11.0,30.04,1013.2,10.0,,,CLR
2020-04-07 01:00:00,33617.988887,FST,69.1,48.0,46.92,240.0,16.0,30.05,1013.4,10.0,23.0,,CLR
2020-04-07 02:00:00,32307.174018,FST,66.9,50.0,54.54,250.0,15.0,30.05,1012.9,10.0,19.0,,SCT
2020-04-07 03:00:00,31610.47241,FST,66.9,50.0,54.54,280.0,15.0,30.02,1011.2,10.0,,,FEW
2020-04-07 04:00:00,31222.191058,FST,64.9,51.1,60.9,230.0,15.0,30.02,1012.2,10.0,,,SCT
2020-04-07 05:00:00,31424.373321,FST,64.9,50.0,58.47,200.0,11.0,30.03,1012.5,10.0,,,SCT
2020-04-07 06:00:00,32386.844279,FST,64.0,52.0,64.97,190.0,13.0,30.03,1012.5,10.0,17.0,,FEW
2020-04-07 07:00:00,34043.936716,FST,64.0,51.1,62.85,190.0,11.0,30.03,1012.0,10.0,,,CLR
2020-04-07 08:00:00,35191.885913,FST,63.0,51.1,65.09,200.0,12.0,30.03,1012.9,10.0,,,CLR
2020-04-07 09:00:00,36323.463217,FST,64.9,51.1,60.9,210.0,10.0,30.05,1013.7,10.0,,,CLR
2020-04-07 10:00:00,37706.35636,FST,66.9,52.0,58.74,220.0,11.0,30.07,1014.1,10.0,,,CLR
2020-04-07 11:00:00,39478.400857,FST,71.1,52.0,50.86,240.0,14.0,30.08,1014.6,10.0,,,CLR
2020-04-07 12:00:00,41617.440768,FST,75.0,50.0,41.41,290.0,10.0,30.08,1014.2,10.0,,,CLR
2020-04-07 13:00:00,43928.953124,FST,75.9,48.0,37.29,350.0,5.0,30.08,1013.8,10.0,,,CLR
2020-04-07 14:00:00,46057.832595,FST,78.1,48.0,34.67,350.0,6.0,30.06,1012.9,10.0,,,CLR
2020-04-07 15:00:00,47754.763845,FST,81.0,46.9,30.24,300.0,8.0,30.04,1011.7,10.0,,79.83,CLR
2020-04-07 16:00:00,49173.213537,FST,81.0,46.0,29.23,300.0,11.0,30.0,1010.5,10.0,16.0,79.76,CLR
2020-04-07 17:00:00,50089.51218,FST,82.9,46.0,27.48,340.0,5.0,29.97,1009.7,10.0,,80.94,CLR
2020-04-07 18:00:00,50546.977468,FST,82.0,46.0,28.3,330.0,8.0,29.95,1009.3,10.0,,80.36,FEW
2020-04-07 19:00:00,49969.886726,FST,82.9,45.0,26.46,340.0,8.0,29.94,1009.4,10.0,,80.86,BKN
2020-04-07 20:00:00,48387.453324,FST,79.0,45.0,30.05,350.0,7.0,29.95,1010.0,10.0,,,BKN
2020-04-07 21:00:00,47788.663883,FST,75.0,45.0,34.31,290.0,5.0,29.97,1010.6,10.0,,,FEW
2020-04-07 22:00:00,45784.274728,FST,73.0,39.9,30.16,280.0,8.0,30.0,1011.7,10.0,,,CLR
2020-04-07 23:00:00,42925.301939,FST,70.0,41.0,34.85,250.0,7.0,30.0,1011.8,10.0,,,CLR
2020-04-08 00:00:00,39872.4869,FST,69.1,41.0,35.94,240.0,8.0,30.01,1011.6,10.0,,,CLR
2020-04-08 01:00:00,37332.223008,FST,68.0,41.0,37.32,230.0,9.0,30.01,1011.4,10.0,,,CLR
2020-04-08 02:00:00,35514.899518,FST,69.1,42.1,37.5,230.0,9.0,30.0,1011.5,10.0,,,CLR
2020-04-08 03:00:00,34300.720005,FST,68.0,44.1,42.04,200.0,9.0,30.0,1011.1,10.0,,,CLR
2020-04-08 04:00:00,33492.014505,FST,68.0,44.1,42.04,210.0,10.0,29.99,1011.0,10.0,,,CLR
2020-04-08 05:00:00,33364.267144,FST,64.9,45.0,48.44,270.0,9.0,29.99,1010.4,10.0,,,CLR
2020-04-08 06:00:00,34042.635022,FST,62.1,43.0,49.52,260.0,9.0,29.98,1010.8,10.0,,,CLR
2020-04-08 07:00:00,35552.116723,FST,61.0,43.0,51.48,240.0,10.0,29.99,1011.3,10.0,,,CLR
2020-04-08 08:00:00,36627.864451,FST,61.0,44.1,53.69,230.0,9.0,30.02,1012.6,10.0,,,CLR
2020-04-08 09:00:00,37889.406085,FST,68.0,44.1,42.04,230.0,9.0,30.04,1013.0,10.0,,,BKN
2020-04-08 10:00:00,39389.769113,FST,73.9,44.1,34.4,280.0,8.0,30.06,1013.5,10.0,,,FEW
2020-04-08 11:00:00,41360.780977,FST,79.0,41.0,25.78,320.0,13.0,30.07,1013.7,10.0,,,CLR
2020-04-08 12:00:00,43786.159717,FST,81.0,39.9,23.13,350.0,13.0,30.07,1013.6,10.0,16.0,79.37,FEW
2020-04-08 13:00:00,46813.879933,FST,82.0,39.0,21.62,360.0,11.0,30.06,1013.1,10.0,,79.94,CLR
2020-04-08 14:00:00,49595.568946,FST,82.9,39.9,21.75,360.0,9.0,30.05,1012.3,10.0,,80.57,CLR
2020-04-08 15:00:00,52120.283429,FST,84.0,39.9,20.99,340.0,8.0,30.03,1011.7,10.0,,81.33,CLR
2020-04-08 16:00:00,54053.50317,FST,82.9,39.0,21.0,340.0,10.0,30.02,1010.8,10.0,,80.53,CLR
2020-04-08 17:00:00,55247.453303,FST,84.9,37.9,18.86,360.0,10.0,29.98,1009.9,10.0,15.0,81.91,CLR
2020-04-08 18:00:00,55203.324788,FST,86.0,39.0,19.01,350.0,10.0,29.96,1009.6,10.0,,82.78,CLR
2020-04-08 19:00:00,53835.750261,FST,82.9,37.9,20.11,350.0,11.0,29.94,1009.5,10.0,,80.49,CLR
2020-04-08 20:00:00,51547.204171,FST,80.1,39.0,23.0,360.0,6.0,29.96,1010.4,10.0,,78.89,CLR
2020-04-08 21:00:00,50230.779757,FST,75.9,39.0,26.42,360.0,5.0,29.98,1010.8,10.0,,,CLR
2020-04-08 22:00:00,47563.757171,FST,75.9,39.0,26.42,360.0,4.0,30.0,1011.4,10.0,,,FEW
2020-04-08 23:00:00,44177.730178,FST,71.1,39.9,32.16,0.0,0.0,30.02,1011.9,10.0,,,CLR
2020-04-09 00:00:00,40650.89852,FST,72.0,39.0,30.12,180.0,8.0,30.03,1012.1,10.0,,,CLR
2020-04-09 01:00:00,37756.541198,FST,69.1,41.0,35.94,320.0,7.0,30.02,1011.5,10.0,,,CLR
2020-04-09 02:00:00,35690.329954,FST,70.0,41.0,34.85,180.0,2.0,30.01,1011.3,10.0,,,CLR
2020-04-09 03:00:00,34160.670477,FST,69.1,39.9,34.43,200.0,5.0,30.0,1010.8,10.0,,,CLR
2020-04-09 04:00:00,33148.204794,FST,68.0,39.9,35.76,250.0,8.0,29.99,1010.7,10.0,,,CLR
2020-04-09 05:00:00,32876.266133,FST,69.1,39.9,34.43,230.0,10.0,29.98,1010.1,10.0,,,CLR
2020-04-09 06:00:00,33476.776276,FST,71.1,39.9,32.16,260.0,9.0,29.98,1009.8,10.0,,,CLR
2020-04-09 07:00:00,34801.306631,FST,71.1,39.0,31.05,260.0,11.0,29.98,1010.3,10.0,,,SCT
2020-04-09 08:00:00,35730.663496,FST,70.0,39.9,33.39,280.0,7.0,30.01,1011.6,10.0,,,FEW
2020-04-09 09:00:00,37041.263243,FST,68.0,44.1,42.04,270.0,5.0,30.02,1012.4,10.0,,,OVC
2020-04-09 10:00:00,38896.74941,FST,70.0,43.0,37.64,220.0,7.0,30.04,1012.9,10.0,,,OVC
2020-04-09 11:00:00,41060.460571,FST,73.0,44.1,35.46,200.0,10.0,30.05,1013.2,10.0,,,FEW
2020-04-09 12:00:00,43526.35724,FST,75.0,46.9,36.87,220.0,21.0,30.04,1012.2,10.0,26.0,,BKN
2020-04-09 13:00:00,46043.095867,FST,75.9,45.0,33.3,230.0,20.0,30.02,1011.0,10.0,18.0,,FEW
2020-04-09 14:00:00,48174.154325,FST,77.0,43.0,29.74,250.0,13.0,29.98,1010.4,10.0,,,CLR
2020-04-09 15:00:00,49286.789423,FST,73.0,46.9,39.43,310.0,16.0,29.99,1011.4,10.0,21.0,,SCT
2020-04-09 16:00:00,49211.569827,FST,73.0,48.0,41.1,340.0,11.0,29.99,1010.3,10.0,,,BKN
2020-04-09 17:00:00,48523.493436,FST,73.9,46.0,36.98,350.0,8.0,29.96,1009.8,10.0,,,BKN
2020-04-09 18:00:00,47399.25531,FST,78.1,45.0,30.95,360.0,11.0,29.95,1009.1,10.0,,,BKN
2020-04-09 19:00:00,44875.029757,FST,78.1,42.1,27.7,360.0,11.0,29.94,1009.1,10.0,,,BKN
2020-04-09 20:00:00,43026.925381,FST,75.9,42.1,29.8,360.0,9.0,29.95,1009.7,10.0,,,SCT
2020-04-09 21:00:00,42509.479504,FST,70.0,43.0,37.64,360.0,9.0,29.97,1010.7,10.0,,,CLR
2020-04-09 22:00:00,40906.605106,FST,66.9,48.9,52.35,80.0,10.0,29.99,1011.6,10.0,,,CLR
2020-04-09 23:00:00,38580.326816,FST,66.0,50.0,56.27,100.0,9.0,30.01,1012.3,10.0,,,CLR
2020-04-10 00:00:00,35885.369805,FST,64.0,50.0,60.34,140.0,10.0,30.02,1012.4,10.0,,,CLR
2020-04-10 01:00:00,33603.842847,FST,61.0,48.0,62.23,150.0,9.0,30.02,1012.4,10.0,,,CLR
2020-04-10 02:00:00,32020.998302,FST,61.0,48.0,62.23,150.0,11.0,30.02,1012.6,10.0,,,CLR
2020-04-10 03:00:00,31018.406282,FST,61.0,50.0,67.06,150.0,13.0,30.02,1012.4,10.0,,,CLR
2020-04-10 04:00:00,30427.726153,FST,61.0,51.1,69.86,150.0,12.0,30.01,1011.8,10.0,,,CLR
2020-04-10 05:00:00,30285.30264,FST,60.1,51.1,72.13,140.0,13.0,29.99,1011.8,10.0,,,CLR
2020-04-10 06:00:00,30808.875787,FST,60.1,52.0,74.57,140.0,10.0,29.99,1011.6,10.0,,,CLR
2020-04-10 07:00:00,31956.736075,FST,55.0,51.1,86.66,110.0,11.0,30.0,1012.2,10.0,,,CLR
2020-04-10 08:00:00,32687.935272,FST,53.1,52.0,96.03,90.0,11.0,30.02,1013.0,10.0,,,CLR
2020-04-10 09:00:00,33667.829729,FST,57.0,54.0,96.03,100.0,8.0,30.04,1013.8,10.0,,,FEW
2020-04-10 10:00:00,35014.765837,FST,61.0,55.0,86.56,120.0,11.0,30.06,1014.3,10.0,,,SCT
2020-04-10 11:00:00,36090.076938,FST,63.0,55.0,80.61,130.0,15.0,30.06,1014.2,10.0,,,OVC
2020-04-10 12:00:00,36816.626947,FST,68.0,55.0,63.12,130.0,19.0,30.05,1013.8,10.0,20.0,,OVC
2020-04-10 13:00:00,37438.36392,FST,73.0,55.9,55.0,130.0,17.0,30.04,1012.6,10.0,19.0,,FEW
2020-04-10 14:00:00,38035.650523,FST,77.0,55.0,46.57,160.0,15.0,30.01,1011.0,10.0,20.0,,BKN
2020-04-10 15:00:00,38630.967942,FST,77.0,54.0,44.9,160.0,14.0,29.97,1009.8,10.0,,,FEW
2020-04-10 16:00:00,39297.026861,FST,80.1,54.0,40.54,150.0,15.0,29.93,1008.0,10.0,22.0,80.04,FEW
2020-04-10 17:00:00,39895.470672,FST,79.0,52.0,40.23,150.0,17.0,29.89,1007.1,10.0,22.0,,SCT
2020-04-10 18:00:00,40053.636652,FST,82.0,48.9,34.81,170.0,16.0,29.86,1005.9,10.0,22.0,80.53,FEW
2020-04-10 19:00:00,39532.756824,FST,78.1,55.9,46.4,140.0,18.0,29.83,1005.6,10.0,22.0,,FEW
2020-04-10 20:00:00,38648.759267,FST,73.9,57.9,57.36,140.0,17.0,29.83,1006.2,10.0,21.0,,CLR
2020-04-10 21:00:00,38833.007585,FST,69.1,59.0,70.21,140.0,19.0,29.85,1007.3,10.0,23.0,,CLR
2020-04-10 22:00:00,37721.951177,FST,66.0,57.9,75.12,160.0,21.0,29.86,1007.6,10.0,25.0,,CLR
2020-04-10 23:00:00,36081.084344,FST,64.9,59.0,81.19,150.0,19.0,29.87,1007.8,10.0,22.0,,CLR
2020-04-11 00:00:00,34019.634953,FST,64.9,59.0,81.19,160.0,18.0,29.87,1007.4,10.0,22.0,,CLR
2020-04-11 01:00:00,32160.243716,FST,64.0,59.0,83.78,150.0,20.0,29.86,1007.0,10.0,24.0,,CLR
2020-04-11 02:00:00,30765.610762,FST,64.0,60.1,87.14,150.0,17.0,29.87,1006.9,10.0,22.0,,CLR
2020-04-11 03:00:00,29783.879124,FST,64.0,60.1,87.14,150.0,15.0,29.86,1006.5,10.0,23.0,,CLR
2020-04-11 04:00:00,29138.334948,FST,64.0,60.1,87.14,150.0,14.0,29.85,1006.2,10.0,18.0,,CLR
2020-04-11 05:00:00,28917.609276,FST,64.9,60.1,87.14,130.0,10.0,29.84,1005.6,10.0,,,BKN
2020-04-11 06:00:00,29049.252012,FST,64.9,60.1,84.44,140.0,10.0,29.83,1005.4,10.0,,,BKN
2020-04-11 07:00:00,29589.121877,FST,64.0,59.0,83.78,160.0,10.0,29.82,1005.4,10.0,,,FEW
2020-04-11 08:00:00,29950.708876,FST,62.1,57.9,86.11,230.0,9.0,29.83,1006.2,10.0,,,CLR
2020-04-11 09:00:00,31128.101648,FST,61.0,55.9,83.29,260.0,10.0,29.85,1007.2,10.0,,,CLR
2020-04-11 10:00:00,32878.845211,FST,66.9,57.9,80.76,280.0,10.0,29.85,1006.8,10.0,,,BKN
2020-04-11 11:00:00,34638.729237,FST,71.1,57.0,61.04,270.0,13.0,29.86,1006.7,10.0,,,FEW
2020-04-11 12:00:00,36156.435802,FST,75.0,54.0,47.99,290.0,14.0,29.85,1006.1,10.0,18.0,,FEW
2020-04-11 13:00:00,37204.297515,FST,78.1,45.0,30.95,320.0,14.0,29.83,1005.1,10.0,19.0,,CLR
2020-04-11 14:00:00,37896.544312,FST,80.1,42.1,25.94,330.0,13.0,29.81,1003.8,10.0,,78.99,CLR
2020-04-11 15:00:00,38308.800946,FST,81.0,39.0,22.33,350.0,10.0,29.77,1001.8,10.0,16.0,79.33,CLR
2020-04-11 16:00:00,38484.085577,FST,82.9,39.9,21.75,350.0,9.0,29.71,1000.6,10.0,,,CLR
2020-04-11 17:00:00,38795.066801,FST,84.0,37.9,19.41,360.0,7.0,29.69,999.5,10.0,,81.25,CLR
2020-04-11 18:00:00,39301.790553,FST,84.9,30.0,13.75,360.0,16.0,29.65,999.3,10.0,22.0,81.79,FEW
2020-04-11 19:00:00,39392.89995,FST,82.9,16.0,8.14,260.0,21.0,29.65,998.9,10.0,27.0,79.62,CLR
2020-04-11 20:00:00,39382.890573,FST,80.1,19.0,10.15,260.0,11.0,29.64,998.6,10.0,16.0,78.04,CLR
2020-04-11 21:00:00,39782.307086,FST,70.0,19.0,14.23,260.0,8.0,29.62,998.2,10.0,,,CLR
2020-04-11 22:00:00,39017.549546,FST,66.9,21.9,17.91,270.0,7.0,29.61,998.5,10.0,,,CLR
2020-04-11 23:00:00,37679.381427,FST,69.1,37.0,30.74,170.0,11.0,29.62,998.5,10.0,,,CLR
2020-04-12 00:00:00,36167.58858,FST,68.0,30.0,24.12,280.0,14.0,29.65,999.5,10.0,,,CLR
2020-04-12 01:00:00,34549.583962,FST,69.1,23.0,18.48,320.0,15.0,29.64,998.6,10.0,19.0,,SCT
2020-04-12 02:00:00,33112.059251,FST,64.0,21.9,19.81,290.0,13.0,29.66,1000.0,10.0,,,CLR
2020-04-12 03:00:00,32000.846907,FST,64.0,23.0,20.75,300.0,19.0,29.68,1000.4,10.0,27.0,,CLR
2020-04-12 04:00:00,31342.617963,FST,61.0,26.1,26.25,300.0,20.0,29.69,1000.9,10.0,23.0,,CLR
2020-04-12 05:00:00,31139.029284,FST,57.9,27.0,30.43,310.0,14.0,29.7,1001.2,10.0,17.0,,CLR
2020-04-12 06:00:00,31256.418721,FST,55.9,27.0,32.71,270.0,13.0,29.71,1001.8,10.0,,,CLR
2020-04-12 07:00:00,31566.907012,FST,54.0,27.0,35.05,250.0,11.0,29.72,1002.2,10.0,,,CLR
2020-04-12 08:00:00,31771.721042,FST,55.9,28.0,34.08,270.0,15.0,29.74,1003.1,10.0,,,CLR
2020-04-12 09:00:00,33025.777581,FST,60.1,30.9,32.99,270.0,24.0,29.75,1003.6,10.0,34.0,,CLR
2020-04-12 10:00:00,35515.752695,FST,62.1,30.9,30.73,270.0,29.0,29.76,1004.0,10.0,36.0,,CLR
2020-04-12 11:00:00,38170.784205,FST,64.9,30.0,26.85,280.0,26.0,29.77,1003.6,10.0,31.0,,CLR
2020-04-12 12:00:00,40748.723875,FST,68.0,30.0,24.12,290.0,25.0,29.76,1003.8,10.0,34.0,,CLR
2020-04-12 13:00:00,43083.401287,FST,71.1,30.0,21.69,280.0,23.0,29.76,1003.5,10.0,35.0,,CLR
2020-04-12 14:00:00,44750.303828,FST,75.0,28.9,18.19,280.0,26.0,29.75,1003.2,10.0,35.0,,CLR
2020-04-12 15:00:00,45708.380302,FST,77.0,27.0,15.74,300.0,26.0,29.76,1003.5,10.0,33.0,,CLR
2020-04-12 16:00:00,45914.979559,FST,78.1,28.0,15.81,300.0,26.0,29.77,1003.8,10.0,38.0,,CLR
2020-04-12 17:00:00,45594.181708,FST,78.1,27.0,15.17,300.0,24.0,29.77,1004.1,10.0,29.0,,CLR
2020-04-12 18:00:00,44811.66084,FST,78.1,27.0,15.17,300.0,20.0,29.78,1004.4,10.0,26.0,,CLR
2020-04-12 19:00:00,43468.152824,FST,75.9,30.0,18.46,300.0,20.0,29.79,1005.0,10.0,26.0,,CLR
2020-04-12 20:00:00,41291.552354,FST,73.9,28.9,18.87,290.0,17.0,29.82,1006.0,10.0,22.0,,CLR
2020-04-12 21:00:00,40536.985127,FST,71.1,27.0,19.18,300.0,13.0,29.85,1007.1,10.0,17.0,,CLR
2020-04-12 22:00:00,38758.563252,FST,69.1,28.0,21.4,300.0,13.0,29.9,1008.6,10.0,17.0,,CLR
2020-04-12 23:00:00,36161.418549,FST,60.1,35.1,39.04,340.0,11.0,29.95,1010.5,10.0,,,CLR
2020-04-13 00:00:00,33523.863173,FST,55.9,35.1,45.4,70.0,9.0,29.97,1011.5,10.0,,,CLR
2020-04-13 01:00:00,31427.225779,FST,53.1,35.1,50.28,70.0,13.0,29.99,1012.3,10.0,,,CLR
2020-04-13 02:00:00,30137.816318,FST,50.0,36.0,58.44,70.0,13.0,30.04,1013.7,10.0,18.0,,CLR
2020-04-13 03:00:00,29434.554313,FST,45.0,32.0,60.11,70.0,15.0,30.06,1014.7,10.0,19.0,40.13,CLR
2020-04-13 04:00:00,28999.88884,FST,43.0,30.9,62.06,70.0,13.0,30.1,1015.9,10.0,,36.37,CLR
2020-04-13 05:00:00,29235.068408,FST,39.9,30.0,67.45,50.0,11.0,30.12,1017.1,10.0,,35.78,CLR
2020-04-13 06:00:00,30489.127819,FST,37.9,28.0,67.2,50.0,7.0,30.14,1017.6,10.0,,33.4,CLR
2020-04-13 07:00:00,32675.970064,FST,37.0,27.0,66.82,60.0,9.0,30.17,1018.8,10.0,,31.55,CLR
2020-04-13 08:00:00,34448.919597,FST,35.1,27.0,72.04,70.0,5.0,30.19,1019.7,10.0,,31.04,CLR
2020-04-13 09:00:00,35977.469915,FST,39.0,26.1,59.52,70.0,11.0,30.2,1020.0,10.0,,31.75,CLR
2020-04-13 10:00:00,36967.019691,FST,42.1,28.0,57.08,100.0,11.0,30.21,1020.1,10.0,,37.69,CLR
2020-04-13 11:00:00,37361.73303,FST,43.0,27.0,52.91,110.0,10.0,30.2,1020.0,10.0,,37.19,CLR
2020-04-13 12:00:00,37346.951856,FST,46.9,27.0,45.62,120.0,8.0,30.19,1019.3,10.0,,43.48,CLR
2020-04-13 13:00:00,37222.268211,FST,48.0,28.0,45.61,130.0,7.0,30.17,1018.3,10.0,,44.8,CLR
2020-04-13 14:00:00,37010.50792,FST,52.0,30.0,42.65,170.0,9.0,30.13,1016.8,10.0,,,CLR
2020-04-13 15:00:00,36741.291732,FST,55.9,30.0,36.98,120.0,11.0,30.09,1015.3,10.0,18.0,,CLR
2020-04-13 16:00:00,36654.446422,FST,59.0,30.9,34.31,120.0,13.0,30.04,1013.7,10.0,15.0,,CLR
2020-04-13 17:00:00,36771.18957,FST,62.1,32.0,32.13,80.0,13.0,30.0,1012.5,10.0,18.0,,CLR
2020-04-13 18:00:00,37011.676808,FST,61.0,32.0,33.4,70.0,14.0,29.97,1012.2,10.0,21.0,,CLR
2020-04-13 19:00:00,36986.34478,FST,61.0,33.1,34.91,90.0,16.0,29.95,1011.3,10.0,,,CLR
2020-04-13 20:00:00,36632.810523,FST,61.0,33.1,34.91,80.0,16.0,29.93,1011.4,10.0,,,CLR
2020-04-13 21:00:00,37586.598674,FST,61.0,30.9,31.95,120.0,12.0,29.95,1011.8,10.0,,,CLR
2020-04-13 22:00:00,36872.783299,FST,57.9,33.1,39.0,120.0,11.0,29.98,1013.0,10.0,,,CLR
2020-04-13 23:00:00,35155.906281,FST,55.9,34.0,43.46,120.0,15.0,30.02,1014.3,10.0,,,CLR
2020-04-14 00:00:00,33247.770729,FST,50.0,35.1,56.39,100.0,10.0,30.04,1015.1,10.0,,,CLR
2020-04-14 01:00:00,31905.238981,FST,48.0,35.1,60.76,90.0,13.0,30.06,1015.7,10.0,,42.69,CLR
2020-04-14 02:00:00,31092.506428,FST,46.9,35.1,63.33,90.0,14.0,30.08,1016.4,10.0,,41.3,CLR
2020-04-14 03:00:00,30659.063949,FST,44.1,34.0,67.41,90.0,13.0,30.11,1017.4,10.0,,39.53,CLR
2020-04-14 04:00:00,30557.148107,FST,42.1,34.0,72.78,80.0,10.0,30.12,1017.3,10.0,,35.63,CLR
2020-04-14 05:00:00,31075.184877,FST,39.0,30.9,72.45,80.0,10.0,30.13,1018.1,10.0,,31.75,CLR
2020-04-14 06:00:00,32406.087125,FST,37.9,30.0,72.93,80.0,10.0,30.17,1019.5,10.0,,31.97,CLR
2020-04-14 07:00:00,34640.417397,FST,37.0,30.0,75.56,30.0,8.0,30.2,1020.6,10.0,,31.55,CLR
2020-04-14 08:00:00,36194.809941,FST,37.0,28.9,72.24,50.0,11.0,30.24,1021.9,10.0,,30.27,OVC
2020-04-14 09:00:00,37167.35698,FST,37.9,27.0,64.49,60.0,11.0,30.26,1022.4,10.0,,29.92,OVC
2020-04-14 10:00:00,37629.05245,FST,39.0,27.0,61.78,80.0,11.0,30.26,1022.7,10.0,,31.75,OVC
2020-04-14 11:00:00,37778.333758,FST,41.0,28.9,61.79,100.0,11.0,30.27,1023.0,10.0,,35.2,OVC
2020-04-14 12:00:00,37614.545032,FST,43.0,28.9,57.21,100.0,9.0,30.28,1023.4,10.0,,38.78,OVC
2020-04-14 13:00:00,37247.162365,FST,46.0,30.0,53.37,100.0,8.0,30.27,1022.5,10.0,,44.69,OVC
2020-04-14 14:00:00,36880.788144,FST,48.0,30.9,53.5,160.0,8.0,30.25,1021.7,10.0,,44.09,OVC
2020-04-14 15:00:00,36417.672281,FST,51.1,33.1,49.98,360.0,8.0,30.22,1020.6,10.0,,,OVC
2020-04-14 16:00:00,36257.686322,FST,54.0,33.1,44.92,100.0,10.0,30.19,1019.6,10.0,,,FEW
2020-04-14 17:00:00,36297.665961,FST,55.0,33.1,43.31,110.0,11.0,30.16,1018.5,10.0,17.0,,CLR
2020-04-14 18:00:00,36537.531059,FST,55.0,33.1,43.31,80.0,11.0,30.13,1018.6,10.0,17.0,,CLR
2020-04-14 19:00:00,36565.922773,FST,55.0,33.1,43.31,70.0,11.0,30.14,1018.8,10.0,15.0,,CLR
2020-04-14 20:00:00,36527.311237,FST,53.1,33.1,46.42,90.0,11.0,30.14,1019.1,10.0,19.0,,CLR
2020-04-14 21:00:00,37434.70499,FST,50.0,32.0,49.81,70.0,11.0,30.15,1019.2,10.0,,,CLR
2020-04-14 22:00:00,36657.470313,FST,46.9,32.0,55.94,80.0,8.0,30.16,1020.0,10.0,,43.48,CLR
2020-04-14 23:00:00,34923.886373,FST,46.9,33.1,58.47,80.0,8.0,30.2,1021.0,10.0,,42.94,CLR
2020-04-15 00:00:00,33265.677674,FST,45.0,33.1,62.83,90.0,10.0,30.21,1021.5,10.0,,41.83,CLR
2020-04-15 01:00:00,31991.703181,FST,44.1,34.0,67.41,100.0,7.0,30.21,1021.4,10.0,,40.1,CLR
2020-04-15 02:00:00,31320.665048,FST,42.1,33.1,70.2,110.0,7.0,30.21,1020.8,10.0,,37.09,CLR
2020-04-15 03:00:00,31095.71247,FST,41.0,32.0,70.08,110.0,7.0,30.2,1020.5,10.0,,35.75,CLR
2020-04-15 04:00:00,31247.025982,FST,43.0,32.0,64.88,130.0,10.0,30.18,1019.4,10.0,,37.66,CLR
2020-04-15 05:00:00,31927.401379,FST,42.1,32.0,67.17,140.0,9.0,30.16,1019.1,10.0,,37.09,CLR
2020-04-15 06:00:00,33586.291529,FST,41.0,32.0,70.08,140.0,10.0,30.16,1019.3,10.0,,35.75,CLR
2020-04-15 07:00:00,35870.428864,FST,39.9,32.0,73.14,140.0,9.0,30.17,1019.5,10.0,,33.34,CLR
2020-04-15 08:00:00,37365.06301,FST,41.0,32.0,70.08,150.0,10.0,30.18,1020.0,10.0,,34.7,SCT
2020-04-15 09:00:00,37786.579635,FST,43.0,34.0,70.3,150.0,9.0,30.2,1020.5,10.0,,37.19,OVC
2020-04-15 10:00:00,37453.233198,FST,50.0,37.0,60.79,160.0,15.0,30.19,1020.1,10.0,15.0,,BKN
2020-04-15 11:00:00,37132.985004,FST,54.0,39.0,56.74,180.0,11.0,30.19,1019.2,10.0,14.0,,CLR
2020-04-15 12:00:00,36592.923127,FST,61.0,39.0,44.1,180.0,13.0,30.16,1017.9,10.0,17.0,,SCT
2020-04-15 13:00:00,36190.547941,FST,64.0,37.9,38.0,170.0,16.0,30.13,1016.7,10.0,21.0,,CLR
2020-04-15 14:00:00,35996.262693,FST,68.0,37.9,33.07,160.0,17.0,30.09,1015.0,10.0,22.0,,CLR
2020-04-15 15:00:00,35681.764327,FST,70.0,37.9,30.88,170.0,15.0,30.05,1013.7,10.0,19.0,,CLR
2020-04-15 16:00:00,35680.913395,FST,73.0,37.9,27.89,160.0,14.0,30.02,1012.2,10.0,19.0,,CLR
2020-04-15 17:00:00,35983.388897,FST,75.0,37.9,26.08,160.0,15.0,29.98,1011.1,10.0,18.0,,CLR
2020-04-15 18:00:00,36397.924418,FST,73.0,37.9,27.89,150.0,15.0,29.95,1010.5,10.0,21.0,,CLR
2020-04-15 19:00:00,36418.755982,FST,72.0,37.9,28.85,150.0,16.0,29.93,1010.8,10.0,18.0,,CLR
2020-04-15 20:00:00,35993.965357,FST,69.1,37.9,31.85,150.0,15.0,29.94,1011.0,10.0,18.0,,CLR
2020-04-15 21:00:00,36779.816079,FST,64.9,39.0,38.44,140.0,15.0,29.95,1011.5,10.0,19.0,,CLR
2020-04-15 22:00:00,36106.5581,FST,62.1,39.9,43.93,150.0,16.0,29.98,1012.3,10.0,22.0,,CLR
2020-04-15 23:00:00,34478.072368,FST,59.0,41.0,51.18,150.0,18.0,30.0,1012.9,10.0,25.0,,CLR
2020-04-16 00:00:00,32582.579451,FST,57.0,41.0,54.99,160.0,18.0,30.0,1012.5,10.0,24.0,,CLR
2020-04-16 01:00:00,31120.994978,FST,55.9,41.0,57.23,160.0,19.0,29.99,1012.4,10.0,24.0,,CLR
2020-04-16 02:00:00,30194.656089,FST,54.0,41.0,61.32,160.0,18.0,29.99,1012.1,10.0,24.0,,CLR
2020-04-16 03:00:00,29753.626818,FST,53.1,39.9,60.73,170.0,17.0,29.99,1012.0,10.0,,,CLR
2020-04-16 04:00:00,29714.467567,FST,52.0,39.9,63.24,170.0,13.0,29.99,1011.6,10.0,,,CLR
2020-04-16 05:00:00,30286.228342,FST,51.1,39.9,65.38,160.0,15.0,29.98,1011.6,10.0,,,CLR
2020-04-16 06:00:00,31642.923284,FST,51.1,39.9,65.38,160.0,16.0,29.98,1011.8,10.0,,,CLR
2020-04-16 07:00:00,33750.640699,FST,50.0,39.9,68.1,160.0,13.0,29.99,1012.1,10.0,,,CLR
2020-04-16 08:00:00,35077.201961,FST,50.0,39.9,68.1,150.0,13.0,30.0,1012.8,10.0,,,CLR
2020-04-16 09:00:00,35824.93785,FST,55.0,41.0,59.13,160.0,15.0,30.01,1013.1,10.0,,,CLR
2020-04-16 10:00:00,36068.17078,FST,64.0,43.0,46.32,160.0,11.0,30.02,1012.9,10.0,,,CLR
2020-04-16 11:00:00,36341.558536,FST,73.0,44.1,35.46,170.0,13.0,30.01,1012.4,10.0,,,CLR
2020-04-16 12:00:00,36558.871921,FST,78.1,41.0,26.55,150.0,13.0,30.01,1011.8,10.0,17.0,,CLR
2020-04-16 13:00:00,36824.280865,FST,82.0,34.0,17.74,250.0,15.0,29.99,1011.0,10.0,17.0,79.77,CLR
2020-04-16 14:00:00,37195.985622,FST,82.9,33.1,16.62,260.0,15.0,29.97,1010.0,10.0,18.0,80.36,CLR
2020-04-16 15:00:00,37483.620776,FST,84.0,35.1,17.38,240.0,16.0,29.94,1009.1,10.0,23.0,81.18,CLR
2020-04-16 16:00:00,37948.830619,FST,84.0,36.0,18.01,210.0,16.0,29.92,1008.4,10.0,22.0,81.2,CLR
2020-04-16 17:00:00,38424.230607,FST,82.9,41.0,22.7,180.0,22.0,29.89,1007.3,10.0,27.0,80.62,FEW
2020-04-16 18:00:00,38789.803749,FST,80.1,42.1,25.94,160.0,22.0,29.87,1007.5,10.0,28.0,78.99,CLR
2020-04-16 19:00:00,38486.094633,FST,77.0,45.0,32.1,160.0,22.0,29.88,1008.0,10.0,29.0,,CLR
2020-04-16 20:00:00,37931.752814,FST,72.0,48.9,43.97,150.0,22.0,29.88,1008.5,10.0,27.0,,CLR
2020-04-16 21:00:00,38577.488436,FST,68.0,48.9,50.4,160.0,23.0,29.89,1008.8,10.0,33.0,,CLR
2020-04-16 22:00:00,37619.48255,FST,64.9,50.0,58.47,160.0,22.0,29.92,1009.4,10.0,30.0,,CLR
2020-04-16 23:00:00,35714.635886,FST,64.0,50.0,60.34,160.0,21.0,29.94,1009.8,10.0,28.0,,CLR
2020-04-17 00:00:00,33533.840934,FST,63.0,51.1,65.09,160.0,21.0,29.95,1009.7,10.0,27.0,,CLR
2020-04-17 01:00:00,31817.742286,FST,,,,160.0,19.0,29.94,,10.0,23.0,,CLR
2020-04-17 02:00:00,30607.233807,,,,,,,,,,,,
2020-04-17 03:00:00,29881.689476,,,,,,,,,,,,
2020-04-17 04:00:00,29591.622763,,,,,,,,,,,,
2020-04-17 05:00:00,29776.352463,,,,,,,,,,,,
2020-04-17 06:00:00,30641.354361,FST,57.0,51.1,80.6,170.0,8.0,29.93,1009.5,10.0,,,CLR
2020-04-17 07:00:00,32247.504871,FST,57.0,51.1,80.6,170.0,11.0,29.96,1010.5,10.0,,,CLR
2020-04-17 08:00:00,33425.401627,FST,57.0,50.0,77.38,200.0,10.0,29.98,1011.7,10.0,,,CLR
2020-04-17 09:00:00,34811.766335,FST,57.0,52.0,83.33,340.0,14.0,30.09,1015.3,10.0,,,CLR
2020-04-17 10:00:00,36263.757796,FST,52.0,42.1,68.86,320.0,23.0,30.17,1019.0,10.0,31.0,39.14,BKN
2020-04-17 11:00:00,37526.588942,FST,46.9,32.0,55.94,330.0,18.0,30.21,1020.2,10.0,22.0,40.37,OVC
2020-04-17 12:00:00,38422.606957,FST,48.0,32.0,53.67,320.0,15.0,30.22,1020.3,10.0,,43.41,OVC
2020-04-17 13:00:00,39015.97823,FST,48.0,32.0,53.67,330.0,13.0,30.21,1019.8,10.0,,42.37,OVC
2020-04-17 14:00:00,39580.23922,FST,48.9,32.0,51.89,340.0,14.0,30.21,1020.4,10.0,,43.82,BKN
2020-04-17 15:00:00,39695.652013,FST,48.9,32.0,53.27,330.0,11.0,30.21,1019.8,10.0,,45.04,OVC
2020-04-17 16:00:00,39594.212036,FST,48.9,33.1,54.24,340.0,9.0,30.18,1016.7,10.0,,45.38,BKN
2020-04-17 17:00:00,39480.086039,FST,52.0,34.0,50.12,360.0,9.0,30.11,1016.2,10.0,,,SCT
2020-04-17 18:00:00,39403.744417,FST,54.0,36.0,50.42,340.0,4.0,30.09,1015.8,10.0,,,CLR
2020-04-17 19:00:00,39087.892587,FST,55.9,37.0,48.95,180.0,4.0,30.08,1015.7,10.0,,,CLR
2020-04-17 20:00:00,38776.208788,FST,55.0,36.0,48.62,150.0,5.0,30.08,1015.9,10.0,,,CLR
2020-04-17 21:00:00,39175.760892,FST,51.1,36.0,56.1,60.0,5.0,30.09,1016.1,10.0,,,CLR
2020-04-17 22:00:00,38356.687058,FST,48.0,36.0,62.97,90.0,6.0,30.09,1017.0,10.0,,44.8,CLR
2020-04-17 23:00:00,36769.68752,FST,48.9,37.0,63.34,110.0,7.0,30.11,1017.6,10.0,,45.38,CLR
2020-04-18 00:00:00,35068.461713,FST,48.0,37.0,65.51,130.0,8.0,30.11,1017.4,10.0,,45.4,CLR
2020-04-18 01:00:00,33513.999697,FST,46.0,37.0,70.64,120.0,7.0,30.1,1017.2,10.0,,42.39,CLR
2020-04-18 02:00:00,32188.282676,FST,46.9,37.9,70.73,130.0,7.0,30.09,1016.2,10.0,,42.94,CLR
2020-04-18 03:00:00,31289.212538,FST,46.0,37.9,73.18,140.0,8.0,30.08,1016.0,10.0,,42.39,CLR
2020-04-18 04:00:00,30834.595198,FST,45.0,37.9,76.01,140.0,8.0,30.06,1015.8,10.0,,41.19,CLR
2020-04-18 05:00:00,30709.255737,FST,42.1,37.0,81.98,110.0,5.0,30.05,1015.2,10.0,,38.39,CLR
2020-04-18 06:00:00,31088.588082,FST,46.0,41.0,82.58,110.0,13.0,30.04,1014.1,10.0,,39.82,BKN
2020-04-18 07:00:00,31890.176502,FST,46.0,42.1,86.16,190.0,11.0,30.02,1013.7,10.0,,42.39,BKN
2020-04-18 08:00:00,32675.090999,FST,46.9,46.0,96.66,230.0,9.0,30.03,1014.7,10.0,,45.72,FEW
2020-04-18 09:00:00,33662.031277,FST,46.9,37.9,70.73,250.0,5.0,30.05,1015.1,10.0,,,OVC
2020-04-18 10:00:00,34713.343183,FST,51.1,41.0,68.23,140.0,4.0,30.05,1015.2,10.0,,,BKN
2020-04-18 11:00:00,35419.560547,FST,54.0,39.0,56.74,350.0,4.0,30.06,1015.2,10.0,,,CLR
2020-04-18 12:00:00,35848.319379,FST,60.1,39.9,47.15,360.0,4.0,30.05,1014.2,10.0,,,CLR
2020-04-18 13:00:00,36009.974967,FST,66.0,42.1,41.73,330.0,2.0,30.03,1012.9,10.0,,,CLR
2020-04-18 14:00:00,35957.400488,FST,71.1,45.0,39.13,150.0,5.0,29.99,1010.8,10.0,,,CLR
2020-04-18 15:00:00,35759.236343,FST,75.0,46.9,36.87,100.0,8.0,29.93,1008.9,10.0,,,CLR
2020-04-18 16:00:00,35572.812828,FST,77.0,44.1,31.02,100.0,10.0,29.89,1008.0,10.0,,,CLR
2020-04-18 17:00:00,35630.138823,FST,79.0,46.0,31.21,100.0,9.0,29.86,1006.7,10.0,,,CLR
2020-04-18 18:00:00,35991.719415,FST,81.0,45.0,28.15,140.0,11.0,29.82,1005.6,10.0,,79.68,CLR
2020-04-18 19:00:00,36143.977568,FST,80.1,48.0,32.46,140.0,13.0,29.8,1005.1,10.0,,79.42,CLR
2020-04-18 20:00:00,36204.659996,FST,77.0,48.0,35.95,120.0,17.0,29.79,1005.1,10.0,,,CLR
2020-04-18 21:00:00,36631.89816,FST,72.0,48.9,43.97,130.0,14.0,29.79,1005.6,10.0,,,CLR
2020-04-18 22:00:00,36062.085059,FST,68.0,53.1,58.88,150.0,14.0,29.8,1005.7,10.0,18.0,,CLR
2020-04-18 23:00:00,34914.972288,FST,66.0,55.0,67.64,150.0,16.0,29.8,1005.8,10.0,19.0,,CLR
2020-04-19 00:00:00,33364.177647,FST,64.0,55.9,74.93,160.0,14.0,29.81,1005.9,10.0,19.0,,CLR
2020-04-19 01:00:00,31858.54209,FST,63.0,55.9,77.61,190.0,14.0,29.83,1006.3,10.0,,,CLR
2020-04-19 02:00:00,30596.253582,FST,59.0,50.0,72.01,310.0,10.0,29.84,1006.6,10.0,,,CLR
2020-04-19 03:00:00,29855.61769,FST,59.0,48.9,69.12,240.0,11.0,29.84,1006.4,10.0,,,CLR
2020-04-19 04:00:00,29436.804863,FST,61.0,46.0,57.72,250.0,11.0,29.84,1006.4,10.0,,,CLR
2020-04-19 05:00:00,29249.136839,FST,61.0,34.0,36.19,270.0,14.0,29.84,1006.4,10.0,,,CLR
2020-04-19 06:00:00,29308.983043,FST,62.1,26.1,25.24,280.0,15.0,29.86,1006.8,10.0,,,CLR
2020-04-19 07:00:00,29705.294522,FST,62.1,24.1,23.23,280.0,11.0,29.89,1007.8,10.0,,,CLR
2020-04-19 08:00:00,30034.563838,FST,64.0,23.0,20.75,250.0,11.0,29.91,1008.4,10.0,,,CLR
2020-04-19 09:00:00,31318.423735,FST,66.0,26.1,22.02,280.0,13.0,29.93,1009.5,10.0,,,CLR
2020-04-19 10:00:00,33111.624153,FST,71.1,26.1,18.48,300.0,23.0,29.94,1009.9,10.0,32.0,,CLR
2020-04-19 11:00:00,34786.473822,FST,73.0,28.0,18.74,300.0,23.0,29.96,1010.4,10.0,31.0,,CLR
2020-04-19 12:00:00,36197.903602,FST,75.0,27.0,16.82,300.0,22.0,29.97,1010.5,10.0,29.0,,CLR
2020-04-19 13:00:00,37512.979069,FST,78.1,25.0,13.97,300.0,22.0,29.96,1009.9,10.0,28.0,,CLR
2020-04-19 14:00:00,38698.393224,FST,80.1,21.0,11.06,310.0,20.0,29.94,1008.8,10.0,27.0,78.16,CLR
2020-04-19 15:00:00,39756.323664,FST,80.1,21.0,11.06,310.0,22.0,29.91,1007.9,10.0,27.0,78.16,CLR
2020-04-19 16:00:00,40745.650862,FST,82.0,19.9,9.92,310.0,19.0,29.88,1007.1,10.0,25.0,79.22,CLR
2020-04-19 17:00:00,41953.277514,FST,82.9,19.0,9.27,310.0,18.0,29.87,1006.8,10.0,24.0,79.77,CLR
2020-04-19 18:00:00,43303.316277,FST,82.0,19.0,9.54,300.0,19.0,29.85,1006.3,10.0,24.0,79.17,CLR
2020-04-19 19:00:00,43594.471858,FST,81.0,17.1,9.08,300.0,18.0,29.84,1006.0,10.0,23.0,78.42,CLR
2020-04-19 20:00:00,42429.609749,FST,79.0,16.0,9.25,300.0,15.0,29.84,1006.2,10.0,22.0,,CLR
2020-04-19 21:00:00,41922.276745,FST,69.1,16.0,12.89,290.0,11.0,29.86,1007.1,10.0,,,CLR
2020-04-19 22:00:00,40256.390322,FST,68.0,15.1,12.88,270.0,8.0,29.88,1007.7,10.0,,,CLR
2020-04-19 23:00:00,37680.0149,FST,64.9,15.1,14.34,270.0,8.0,29.9,1008.6,10.0,,,CLR
2020-04-20 00:00:00,34696.229101,FST,62.1,16.0,16.45,260.0,9.0,29.92,1009.0,10.0,,,CLR
2020-04-20 01:00:00,32192.142957,FST,64.0,17.1,16.14,250.0,11.0,29.92,1008.6,10.0,,,CLR
2020-04-20 02:00:00,30441.316579,FST,60.1,18.0,19.25,230.0,11.0,29.92,1008.8,10.0,,,CLR
2020-04-20 03:00:00,29423.532692,FST,59.0,18.0,20.02,220.0,11.0,29.91,1008.7,10.0,,,CLR
2020-04-20 04:00:00,28909.897244,FST,60.1,18.0,19.25,220.0,13.0,29.91,1008.4,10.0,,,CLR
2020-04-20 05:00:00,28997.647474,FST,60.1,19.0,20.09,220.0,12.0,29.91,1008.3,10.0,,,CLR
2020-04-20 06:00:00,29956.292079,FST,59.0,19.0,20.9,220.0,11.0,29.91,1008.6,10.0,,,CLR
2020-04-20 07:00:00,31621.233494,FST,60.1,19.0,20.09,250.0,13.0,29.92,1009.1,10.0,,,CLR
2020-04-20 08:00:00,32865.241607,FST,60.1,19.9,20.88,220.0,11.0,29.94,1009.6,10.0,,,CLR
2020-04-20 09:00:00,34117.484682,FST,66.0,24.1,20.26,220.0,11.0,29.96,1010.6,10.0,,,CLR
2020-04-20 10:00:00,35347.304765,FST,75.0,25.0,15.48,260.0,15.0,29.98,1011.0,10.0,21.0,,CLR
2020-04-20 11:00:00,36602.16239,FST,80.1,25.0,13.08,280.0,15.0,29.98,1010.7,10.0,21.0,78.42,CLR
2020-04-20 12:00:00,37965.476242,FST,82.0,25.0,12.29,300.0,15.0,29.98,1011.0,10.0,23.0,79.54,CLR
2020-04-20 13:00:00,39431.953857,FST,82.9,26.1,12.5,310.0,19.0,29.98,1010.1,10.0,20.0,80.21,CLR
2020-04-20 14:00:00,40955.759984,FST,84.0,24.1,11.1,300.0,19.0,29.96,1009.6,10.0,17.0,80.82,CLR
2020-04-20 15:00:00,42485.707418,FST,86.0,25.0,10.81,300.0,16.0,29.94,1008.7,10.0,22.0,82.27,CLR
2020-04-20 16:00:00,44140.006115,FST,87.1,25.0,10.43,320.0,17.0,29.92,1007.8,10.0,22.0,83.06,CLR
2020-04-20 17:00:00,45589.783152,FST,87.1,23.0,9.6,300.0,18.0,29.89,1006.8,10.0,21.0,82.93,CLR
2020-04-20 18:00:00,46456.196893,FST,86.0,24.1,10.41,310.0,14.0,29.87,1006.9,10.0,21.0,82.21,CLR
2020-04-20 19:00:00,45987.394012,FST,84.9,23.0,10.3,320.0,15.0,29.87,1006.9,10.0,15.0,81.37,CLR
2020-04-20 20:00:00,44291.110933,FST,82.0,23.0,11.31,320.0,11.0,29.88,1007.6,10.0,,79.4,CLR
2020-04-20 21:00:00,43625.095046,FST,75.0,28.0,17.53,320.0,5.0,29.9,1008.2,10.0,,,CLR
2020-04-20 22:00:00,41819.092136,FST,75.9,25.0,15.02,290.0,2.0,29.92,1008.5,10.0,,,CLR
2020-04-20 23:00:00,39080.068313,FST,72.0,25.0,17.13,180.0,2.0,29.95,1009.3,10.0,,,CLR
2020-04-21 00:00:00,36037.081019,FST,71.1,25.0,17.66,200.0,5.0,29.95,1009.4,10.0,,,CLR
2020-04-21 01:00:00,33582.979463,FST,66.9,25.0,20.39,220.0,6.0,29.95,1009.6,10.0,,,CLR
2020-04-21 02:00:00,31869.592925,FST,68.0,25.0,19.63,230.0,9.0,29.95,1009.4,10.0,,,CLR
2020-04-21 03:00:00,30693.820242,FST,68.0,24.1,18.91,190.0,9.0,29.95,1009.2,10.0,,,CLR
2020-04-21 04:00:00,30173.47551,FST,64.9,26.1,22.88,200.0,5.0,29.94,1008.6,10.0,,,CLR
2020-04-21 05:00:00,30141.525852,FST,64.0,25.0,22.56,220.0,8.0,29.92,1008.4,10.0,,,CLR
2020-04-21 06:00:00,30984.232101,FST,62.1,27.0,26.2,220.0,9.0,29.92,1008.8,10.0,,,CLR
2020-04-21 07:00:00,32467.559959,FST,60.1,27.0,28.13,230.0,10.0,29.95,1009.6,10.0,,,CLR
2020-04-21 08:00:00,33455.009017,FST,63.0,27.0,25.38,290.0,11.0,29.97,1010.3,10.0,,,CLR
2020-04-21 09:00:00,34825.681047,FST,71.1,30.0,21.69,280.0,8.0,30.0,1011.5,10.0,,,CLR
2020-04-21 10:00:00,36538.16349,FST,75.9,28.9,17.65,280.0,10.0,30.01,1011.4,10.0,,,CLR
2020-04-21 11:00:00,38449.156205,FST,82.0,28.9,14.44,300.0,14.0,30.01,1011.4,10.0,18.0,79.67,CLR
2020-04-21 12:00:00,40703.411029,FST,84.0,30.0,14.16,300.0,13.0,30.01,1011.0,10.0,,81.11,CLR
2020-04-21 13:00:00,43205.335847,FST,86.0,28.9,12.69,320.0,11.0,30.0,1010.4,10.0,16.0,82.58,CLR
2020-04-21 14:00:00,45403.691989,FST,88.0,28.9,11.91,310.0,11.0,29.98,1009.3,10.0,,84.03,CLR
2020-04-21 15:00:00,47169.144722,FST,90.0,30.0,11.7,310.0,11.0,29.95,1008.0,10.0,15.0,85.63,CLR
2020-04-21 16:00:00,48598.348099,FST,91.0,28.9,10.84,240.0,10.0,29.91,1006.7,10.0,15.0,86.27,CLR
2020-04-21 17:00:00,49470.023167,FST,93.0,28.0,9.81,240.0,17.0,29.87,1005.2,10.0,21.0,87.7,CLR
2020-04-21 18:00:00,49411.210918,FST,91.9,25.0,8.97,230.0,14.0,29.83,1004.9,10.0,16.0,86.6,CLR
2020-04-21 19:00:00,48085.406097,FST,91.0,21.9,8.1,260.0,11.0,29.82,1004.9,10.0,,85.71,CLR
2020-04-21 20:00:00,46006.687392,FST,87.1,30.0,12.82,260.0,9.0,29.81,1004.5,10.0,,83.48,CLR
2020-04-21 21:00:00,45403.592058,FST,84.0,43.0,23.66,160.0,16.0,29.8,1004.1,10.0,22.0,81.48,CLR
2020-04-21 22:00:00,43772.091578,FST,79.0,60.1,52.38,150.0,21.0,29.82,1004.7,10.0,26.0,,CLR
2020-04-21 23:00:00,41123.236452,FST,75.9,64.0,66.6,160.0,19.0,29.83,1004.8,10.0,25.0,,CLR
2020-04-22 00:00:00,38206.442026,FST,73.9,64.9,73.49,160.0,21.0,29.82,1004.4,7.0,26.0,,CLR
2020-04-22 01:00:00,35912.122051,FST,73.0,64.9,75.75,160.0,18.0,29.81,1003.8,6.0,22.0,,CLR
2020-04-22 02:00:00,34190.66421,FST,72.0,64.9,78.35,170.0,17.0,29.8,1003.6,6.0,18.0,,CLR
2020-04-22 03:00:00,33071.337306,FST,72.0,64.0,75.92,280.0,17.0,29.85,1005.0,7.0,22.0,,CLR
2020-04-22 04:00:00,32360.260714,FST,70.0,52.0,52.8,290.0,7.0,29.83,1005.0,10.0,,,CLR
2020-04-22 05:00:00,32201.853095,FST,68.0,35.1,29.61,290.0,9.0,29.84,1005.3,10.0,,,CLR
2020-04-22 06:00:00,33024.525578,FST,68.0,26.1,20.55,280.0,10.0,29.86,1005.8,10.0,,,CLR
2020-04-22 07:00:00,34531.33272,FST,68.0,24.1,18.91,290.0,11.0,29.88,1006.6,10.0,16.0,,CLR
2020-04-22 08:00:00,35711.423622,FST,68.0,24.1,18.91,280.0,11.0,29.9,1007.5,10.0,,,CLR
2020-04-22 09:00:00,36994.880966,FST,66.9,27.0,22.15,270.0,9.0,29.92,1008.5,10.0,,,CLR
2020-04-22 10:00:00,38312.898852,FST,71.1,28.0,19.99,290.0,10.0,29.93,1008.7,10.0,,,CLR
2020-04-22 11:00:00,39818.330146,FST,75.0,28.0,17.53,300.0,10.0,29.92,1008.4,10.0,14.0,,CLR
2020-04-22 12:00:00,41304.317483,FST,79.0,23.0,12.55,300.0,25.0,29.91,1007.9,10.0,32.0,,CLR
2020-04-22 13:00:00,42523.252664,FST,82.9,23.0,10.98,320.0,21.0,29.91,1006.6,10.0,27.0,80.0,FEW
2020-04-22 14:00:00,43486.058714,FST,84.9,21.9,9.83,300.0,22.0,29.87,1005.3,10.0,30.0,81.3,CLR
2020-04-22 15:00:00,44237.442332,FST,84.9,19.9,9.03,300.0,21.0,29.84,1004.7,10.0,27.0,81.19,CLR
2020-04-22 16:00:00,45459.768378,FST,87.1,19.0,8.1,310.0,23.0,29.82,1003.8,10.0,31.0,82.71,CLR
2020-04-22 17:00:00,46925.051397,FST,87.1,21.0,8.82,310.0,24.0,29.8,1003.4,10.0,32.0,82.81,CLR
2020-04-22 18:00:00,47893.000478,FST,86.0,21.0,9.13,300.0,21.0,29.78,1003.4,10.0,27.0,82.02,CLR
2020-04-22 19:00:00,47686.01404,FST,84.0,21.0,9.74,300.0,22.0,29.79,1003.9,10.0,26.0,80.63,CLR
2020-04-22 20:00:00,46325.8788,FST,81.0,21.0,10.73,300.0,19.0,29.8,1004.3,10.0,24.0,78.63,CLR
2020-04-22 21:00:00,45801.960644,FST,77.0,21.9,12.72,290.0,15.0,29.83,1005.9,10.0,19.0,,CLR
2020-04-22 22:00:00,44233.537554,FST,71.1,23.0,16.24,280.0,10.0,29.86,1007.0,10.0,,,CLR
2020-04-22 23:00:00,41545.76644,FST,68.0,23.0,18.06,270.0,10.0,29.89,1007.9,10.0,,,CLR
2020-04-23 00:00:00,38531.447319,FST,68.0,21.9,17.24,250.0,11.0,29.9,1008.0,10.0,,,CLR
2020-04-23 01:00:00,35942.49056,FST,68.0,27.0,21.33,330.0,16.0,29.94,1009.1,10.0,,,CLR
2020-04-23 02:00:00,34036.955138,FST,62.1,30.0,29.63,330.0,8.0,29.94,1009.1,10.0,,,CLR
2020-04-23 03:00:00,32822.523151,FST,60.1,30.0,31.8,240.0,8.0,29.94,1009.3,10.0,,,CLR
2020-04-23 04:00:00,32235.425082,FST,59.0,30.0,33.08,230.0,11.0,29.94,1009.3,10.0,,,CLR
2020-04-23 05:00:00,32192.668602,FST,57.9,28.0,31.71,230.0,11.0,29.94,1009.5,10.0,,,CLR
2020-04-23 06:00:00,32846.475252,FST,59.0,28.0,30.48,240.0,10.0,29.95,1009.6,10.0,,,CLR
2020-04-23 07:00:00,34048.405178,FST,57.0,28.9,33.98,230.0,11.0,29.95,1009.8,10.0,,,CLR
2020-04-23 08:00:00,34787.556603,FST,57.9,30.0,34.41,250.0,9.0,29.97,1010.9,10.0,,,CLR
2020-04-23 09:00:00,36079.293318,FST,64.0,33.1,31.41,240.0,9.0,29.99,1011.3,10.0,,,CLR
2020-04-23 10:00:00,37626.511799,FST,70.0,37.0,29.81,270.0,8.0,29.99,1011.1,10.0,,,CLR
2020-04-23 11:00:00,39400.828084,FST,73.9,37.0,26.12,300.0,5.0,29.98,1010.9,10.0,,,CLR
2020-04-23 12:00:00,41341.39081,FST,78.1,37.0,22.71,330.0,7.0,29.98,1010.3,10.0,,,CLR
2020-04-23 13:00:00,43329.619929,FST,82.0,34.0,17.74,310.0,8.0,29.96,1009.2,10.0,,79.77,CLR
2020-04-23 14:00:00,45306.577313,FST,84.0,30.9,14.68,340.0,15.0,29.93,1008.1,10.0,23.0,81.12,CLR
2020-04-23 15:00:00,47098.264329,FST,86.0,28.9,12.69,300.0,18.0,29.9,1006.8,10.0,23.0,82.58,CLR
2020-04-23 16:00:00,48683.437325,FST,87.1,25.0,10.43,310.0,21.0,29.86,1006.0,10.0,27.0,83.06,CLR
2020-04-23 17:00:00,49818.642535,FST,86.0,24.1,10.41,310.0,20.0,29.84,1004.9,10.0,25.0,82.21,CLR
2020-04-23 18:00:00,50252.683928,FST,88.0,25.0,10.14,310.0,18.0,29.8,1004.0,10.0,22.0,83.71,CLR
2020-04-23 19:00:00,49323.299813,FST,86.0,21.9,9.49,290.0,21.0,29.78,1004.1,10.0,26.0,82.08,CLR
2020-04-23 20:00:00,46791.032739,FST,84.0,21.0,9.74,300.0,18.0,29.79,1004.4,10.0,22.0,80.63,CLR
2020-04-23 21:00:00,45127.095952,FST,77.0,21.9,12.72,300.0,11.0,29.81,1005.0,10.0,,,CLR
2020-04-23 22:00:00,42802.329993,FST,72.0,21.9,15.04,290.0,8.0,29.83,1005.9,10.0,,,CLR
2020-04-23 23:00:00,39702.333417,FST,72.0,24.1,16.5,270.0,9.0,29.85,1006.4,10.0,,,CLR
2020-04-24 00:00:00,36357.138184,FST,66.9,25.0,20.39,240.0,11.0,29.86,1006.7,10.0,,,CLR
2020-04-24 01:00:00,33630.748876,FST,66.9,24.1,19.64,220.0,12.0,29.86,1006.1,10.0,,,CLR
2020-04-24 02:00:00,31625.045171,FST,66.9,25.0,20.39,210.0,13.0,29.85,1005.8,10.0,,,CLR
2020-04-24 03:00:00,30233.85133,FST,66.9,25.0,20.39,210.0,12.0,29.84,1005.4,10.0,,,CLR
2020-04-24 04:00:00,29459.470771,FST,66.9,25.0,20.39,220.0,14.0,29.83,1005.1,10.0,,,CLR
2020-04-24 05:00:00,29377.77962,FST,64.9,26.1,22.88,220.0,14.0,29.83,1005.2,10.0,,,CLR
2020-04-24 06:00:00,30132.169436,FST,64.0,26.1,23.61,220.0,12.0,29.83,1005.3,10.0,,,CLR
2020-04-24 07:00:00,31475.135335,FST,66.9,26.1,21.35,220.0,15.0,29.84,1005.5,10.0,17.0,,CLR
2020-04-24 08:00:00,32512.925635,FST,66.9,28.0,23.09,230.0,14.0,29.87,1006.9,10.0,,,CLR
2020-04-24 09:00:00,34394.569889,FST,73.0,30.9,21.1,240.0,11.0,29.9,1007.7,10.0,,,CLR
2020-04-24 10:00:00,36526.814951,FST,80.1,33.1,18.21,280.0,13.0,29.91,1008.0,10.0,17.0,78.67,CLR
2020-04-24 11:00:00,38924.620659,FST,84.9,32.0,14.91,330.0,19.0,29.91,1008.0,10.0,24.0,81.8,CLR
2020-04-24 12:00:00,41507.103294,FST,86.0,32.0,14.4,360.0,22.0,29.93,1008.9,10.0,24.0,82.64,CLR
2020-04-24 13:00:00,44320.069187,FST,88.0,33.1,14.12,350.0,18.0,29.93,1008.5,10.0,22.0,84.25,CLR
2020-04-24 14:00:00,47182.396344,FST,88.0,32.0,13.51,330.0,18.0,29.93,1007.9,10.0,26.0,84.24,CLR
2020-04-24 15:00:00,49921.234852,FST,89.1,30.9,12.48,330.0,17.0,29.9,1007.4,10.0,22.0,85.04,CLR
2020-04-24 16:00:00,52240.682946,FST,90.0,30.9,12.13,360.0,16.0,29.89,1006.9,10.0,21.0,85.72,CLR
2020-04-24 17:00:00,53661.435579,FST,90.0,30.0,11.7,360.0,15.0,29.88,1006.2,10.0,19.0,85.63,CLR
2020-04-24 18:00:00,53806.833797,FST,90.0,30.0,11.7,360.0,17.0,29.86,1005.9,10.0,20.0,85.63,CLR
2020-04-24 19:00:00,52272.358127,FST,89.1,28.9,11.5,350.0,11.0,29.85,1005.5,10.0,15.0,84.84,CLR
2020-04-24 20:00:00,49394.128154,FST,86.0,28.9,12.69,360.0,10.0,29.86,1006.3,10.0,,82.58,CLR
2020-04-24 21:00:00,47458.392487,FST,77.0,28.0,16.4,70.0,8.0,29.88,1007.2,10.0,,,CLR
2020-04-24 22:00:00,45301.596067,FST,73.9,28.0,18.19,90.0,8.0,29.91,1008.2,10.0,,,CLR
2020-04-24 23:00:00,42368.190612,FST,73.0,28.9,19.45,120.0,10.0,29.95,1009.0,10.0,,,CLR
2020-04-25 00:00:00,39268.952057,FST,69.1,30.9,24.09,120.0,9.0,29.96,1009.6,10.0,,,CLR
2020-04-25 01:00:00,36280.830501,FST,70.0,30.9,23.36,130.0,9.0,29.97,1010.0,10.0,,,CLR
2020-04-25 02:00:00,33841.62045,FST,64.9,32.0,29.12,120.0,9.0,30.01,1011.4,10.0,,,CLR
2020-04-25 03:00:00,32047.457075,FST,63.0,36.0,36.52,120.0,10.0,30.02,1011.9,10.0,,,CLR
2020-04-25 04:00:00,30752.210044,FST,63.0,37.0,37.99,120.0,12.0,30.02,1011.8,10.0,,,CLR
2020-04-25 05:00:00,30008.811376,FST,59.0,37.0,43.78,100.0,11.0,30.07,1013.6,10.0,,,CLR
2020-04-25 06:00:00,29779.231992,FST,57.0,37.0,47.04,70.0,11.0,30.12,1015.5,10.0,,,CLR
2020-04-25 07:00:00,29899.083911,FST,55.0,37.0,50.58,110.0,9.0,30.14,1016.5,10.0,,,CLR
2020-04-25 08:00:00,30036.391155,FST,55.0,37.0,50.58,90.0,8.0,30.18,1017.8,10.0,,,CLR
2020-04-25 09:00:00,31594.70869,FST,60.1,37.9,43.61,90.0,9.0,30.2,1018.4,10.0,,,CLR
2020-04-25 10:00:00,33510.472521,FST,63.0,37.9,39.36,100.0,15.0,30.21,1019.1,10.0,17.0,,CLR
2020-04-25 11:00:00,35319.279418,FST,66.0,37.9,35.44,80.0,13.0,30.22,1019.4,10.0,,,CLR
2020-04-25 12:00:00,36987.569111,FST,68.0,37.9,33.07,90.0,13.0,30.22,1019.2,10.0,,,CLR
2020-04-25 13:00:00,38317.614766,FST,70.0,37.0,29.81,110.0,11.0,30.21,1018.8,10.0,17.0,,CLR
2020-04-25 14:00:00,39212.941173,FST,72.0,37.9,28.85,110.0,11.0,30.2,1018.1,10.0,14.0,,CLR
2020-04-25 15:00:00,39299.202933,FST,73.9,37.9,27.06,110.0,11.0,30.17,1017.2,10.0,,,CLR
2020-04-25 16:00:00,39776.726177,FST,77.0,37.9,24.4,180.0,8.0,30.15,1016.1,10.0,,,CLR
2020-04-25 17:00:00,40566.093478,FST,79.0,37.9,22.84,140.0,9.0,30.12,1015.4,10.0,,,CLR
2020-04-25 18:00:00,40972.354332,FST,78.1,37.0,22.71,160.0,7.0,30.1,1014.9,10.0,,,CLR
2020-04-25 19:00:00,40434.362869,FST,79.0,37.0,22.05,360.0,8.0,30.09,1015.1,10.0,,,CLR
2020-04-25 20:00:00,39351.977674,FST,77.0,36.0,22.64,70.0,7.0,30.1,1015.5,10.0,,,CLR
2020-04-25 21:00:00,38943.938951,FST,70.0,36.0,28.65,80.0,7.0,30.1,1015.7,10.0,,,CLR
2020-04-25 22:00:00,37638.724437,FST,68.0,36.0,30.69,90.0,7.0,30.13,1016.6,10.0,,,CLR
2020-04-25 23:00:00,35616.653789,FST,66.0,35.1,31.73,100.0,7.0,30.15,1017.4,10.0,,,CLR
2020-04-26 00:00:00,33403.693472,FST,66.9,35.1,30.75,120.0,10.0,30.17,1017.7,10.0,,,CLR
2020-04-26 01:00:00,31415.385249,FST,66.0,35.1,31.73,120.0,12.0,30.17,1017.8,10.0,,,CLR
2020-04-26 02:00:00,29817.430294,FST,63.0,36.0,36.52,140.0,14.0,30.18,1018.0,10.0,16.0,,CLR
2020-04-26 03:00:00,28723.518532,FST,62.1,37.0,39.21,140.0,13.0,30.18,1018.0,10.0,,,CLR
2020-04-26 04:00:00,27994.492778,FST,62.1,37.9,40.62,140.0,13.0,30.18,1017.5,10.0,19.0,,CLR
2020-04-26 05:00:00,27667.108074,FST,61.0,39.9,45.67,160.0,19.0,30.17,1017.1,10.0,24.0,,CLR
2020-04-26 06:00:00,27658.900508,FST,60.1,42.1,51.35,160.0,18.0,30.16,1017.4,10.0,26.0,,CLR
2020-04-26 07:00:00,27874.592814,FST,59.0,41.0,51.18,160.0,19.0,30.17,1017.4,10.0,26.0,,CLR
2020-04-26 08:00:00,28039.735413,FST,60.1,41.0,49.21,160.0,22.0,30.17,1017.7,10.0,28.0,,CLR
2020-04-26 09:00:00,29492.486706,FST,63.0,39.0,41.09,160.0,21.0,30.18,1018.4,10.0,28.0,,CLR
2020-04-26 10:00:00,31545.419389,FST,66.9,41.0,38.76,160.0,19.0,30.2,1018.6,10.0,27.0,,CLR
2020-04-26 11:00:00,33638.621474,FST,73.0,43.0,34.0,160.0,19.0,30.19,1018.0,10.0,22.0,,CLR
2020-04-26 12:00:00,35549.310172,FST,77.0,43.0,29.74,160.0,21.0,30.18,1017.4,10.0,27.0,,CLR
2020-04-26 13:00:00,37603.877805,FST,82.0,43.0,25.24,170.0,19.0,30.16,1016.2,10.0,26.0,80.15,CLR
2020-04-26 14:00:00,39616.181578,FST,84.9,41.0,21.28,160.0,18.0,30.13,1015.3,10.0,25.0,82.03,CLR
2020-04-26 15:00:00,41544.204635,FST,87.1,39.9,19.01,170.0,19.0,30.11,1014.2,10.0,25.0,83.68,CLR
2020-04-26 16:00:00,43454.617203,FST,88.0,39.9,18.47,160.0,19.0,30.08,1013.3,10.0,26.0,84.41,CLR
2020-04-26 17:00:00,44835.437943,FST,88.0,37.9,17.08,160.0,18.0,30.05,1012.2,10.0,23.0,84.34,CLR
2020-04-26 18:00:00,45519.463224,FST,88.0,37.9,17.08,150.0,18.0,30.02,1011.5,10.0,23.0,84.34,CLR
2020-04-26 19:00:00,44979.931773,FST,86.0,41.0,20.54,160.0,20.0,30.0,1011.3,10.0,25.0,82.86,CLR
2020-04-26 20:00:00,43116.647975,FST,82.9,44.1,25.57,150.0,20.0,29.99,1011.2,10.0,25.0,80.8,CLR
2020-04-26 21:00:00,42280.095,FST,78.1,45.0,30.95,150.0,19.0,29.99,1011.3,10.0,26.0,,CLR
2020-04-26 22:00:00,40823.144566,FST,75.0,46.0,35.64,150.0,22.0,30.0,1011.8,10.0,27.0,,CLR
2020-04-26 23:00:00,38193.651347,FST,73.9,46.0,36.98,160.0,21.0,30.01,1011.9,10.0,28.0,,CLR
2020-04-27 00:00:00,35157.729848,FST,72.0,46.0,39.42,160.0,21.0,30.02,1011.8,10.0,29.0,,CLR
2020-04-27 01:00:00,32572.543645,FST,71.1,46.0,40.65,160.0,22.0,30.01,1011.4,10.0,29.0,,CLR
2020-04-27 02:00:00,30709.842903,FST,70.0,46.9,43.66,160.0,21.0,30.0,1010.9,10.0,27.0,,CLR
2020-04-27 03:00:00,29625.06862,FST,69.1,48.0,46.92,160.0,19.0,30.0,1010.3,10.0,26.0,,CLR
2020-04-27 04:00:00,29099.366099,FST,69.1,48.9,48.53,170.0,19.0,29.99,1010.3,10.0,24.0,,CLR
2020-04-27 05:00:00,29106.272573,FST,68.0,50.0,52.51,170.0,16.0,29.98,1010.4,10.0,21.0,,CLR
2020-04-27 06:00:00,30006.287473,FST,66.9,50.0,54.54,170.0,14.0,29.98,1010.1,10.0,,,CLR
2020-04-27 07:00:00,31412.342138,FST,66.9,50.0,54.54,170.0,16.0,29.98,1010.1,10.0,,,CLR
2020-04-27 08:00:00,32604.450592,FST,66.0,51.1,58.62,170.0,11.0,30.0,1011.0,10.0,,,CLR
2020-04-27 09:00:00,34429.795566,FST,73.0,53.1,49.66,150.0,7.0,29.99,1010.8,10.0,,,CLR
2020-04-27 10:00:00,36432.817466,FST,80.1,53.1,39.23,160.0,7.0,29.99,1010.5,10.0,,79.94,CLR
2020-04-27 11:00:00,38662.269665,FST,89.1,48.0,24.31,240.0,18.0,29.99,1009.9,10.0,21.0,85.97,CLR
2020-04-27 12:00:00,40739.303956,FST,93.0,46.0,19.95,260.0,16.0,29.98,1009.6,10.0,21.0,89.31,CLR
2020-04-27 13:00:00,42790.415938,FST,95.0,44.1,17.45,310.0,11.0,29.97,1009.1,10.0,,91.0,CLR
2020-04-27 14:00:00,44806.255034,FST,96.1,42.1,15.62,350.0,16.0,29.96,1008.5,10.0,21.0,91.83,CLR
2020-04-27 15:00:00,46477.420752,FST,93.9,42.1,16.72,360.0,15.0,29.94,1008.2,10.0,18.0,89.76,CLR
2020-04-27 16:00:00,47755.281749,FST,89.1,39.0,17.22,350.0,24.0,29.95,1008.1,10.0,32.0,85.3,CLR
2020-04-27 17:00:00,48487.159608,FST,93.9,39.0,15.92,250.0,20.0,29.91,1006.8,10.0,30.0,89.54,CLR
2020-04-27 18:00:00,48847.235807,FST,91.0,41.0,17.54,260.0,18.0,29.89,1007.1,10.0,22.0,87.04,CLR
2020-04-27 19:00:00,48080.684069,FST,84.9,44.1,23.97,130.0,20.0,29.9,1007.6,10.0,26.0,82.2,CLR
2020-04-27 20:00:00,46129.941848,FST,82.9,42.1,23.68,140.0,16.0,29.89,1007.3,10.0,21.0,80.68,CLR
2020-04-27 21:00:00,45462.67603,FST,80.1,43.0,26.85,150.0,15.0,29.9,1007.7,10.0,21.0,79.04,CLR
2020-04-27 22:00:00,44102.202038,FST,75.9,48.0,37.29,170.0,19.0,29.93,1008.5,10.0,27.0,,CLR
2020-04-27 23:00:00,41653.336816,FST,73.0,48.9,42.51,170.0,20.0,29.95,1009.0,10.0,21.0,,CLR
2020-04-28 00:00:00,38858.938973,FST,72.0,51.1,47.72,170.0,16.0,29.95,1008.6,10.0,,,CLR
2020-04-28 01:00:00,36519.869239,FST,70.0,52.0,52.8,170.0,11.0,29.94,1008.1,10.0,,,CLR
2020-04-28 02:00:00,34824.551751,FST,69.1,53.1,56.7,170.0,11.0,29.93,1008.0,10.0,,,CLR
2020-04-28 03:00:00,33483.713254,FST,69.1,53.1,56.7,180.0,11.0,29.92,1007.9,10.0,,,CLR
2020-04-28 04:00:00,32781.482574,FST,66.9,53.1,61.16,180.0,11.0,29.93,1008.5,10.0,,,CLR
2020-04-28 05:00:00,32806.919721,FST,68.0,53.1,58.88,170.0,11.0,29.93,1008.2,10.0,,,CLR
2020-04-28 06:00:00,33617.62113,FST,66.9,53.1,61.16,160.0,11.0,29.93,1008.6,10.0,,,CLR
2020-04-28 07:00:00,35077.057728,FST,64.0,52.0,64.97,170.0,11.0,29.93,1008.8,10.0,,,CLR
2020-04-28 08:00:00,36113.622917,FST,70.0,48.0,45.5,220.0,13.0,29.94,1008.9,10.0,,,CLR
2020-04-28 09:00:00,37607.047355,FST,77.0,44.1,31.02,220.0,14.0,29.95,1009.0,10.0,,,CLR
2020-04-28 10:00:00,39843.429451,FST,84.9,37.9,18.86,260.0,13.0,29.95,1009.1,10.0,,81.91,CLR
2020-04-28 11:00:00,42386.869449,FST,89.1,32.0,13.05,300.0,19.0,29.95,1009.1,10.0,23.0,85.15,CLR
2020-04-28 12:00:00,44818.743548,FST,91.9,32.0,11.95,330.0,18.0,29.96,1009.1,10.0,22.0,87.3,CLR
2020-04-28 13:00:00,47058.149876,FST,91.9,32.0,11.95,350.0,17.0,29.96,1008.9,10.0,19.0,87.3,CLR
2020-04-28 14:00:00,48820.294378,FST,93.0,32.0,11.55,340.0,16.0,29.94,1008.3,10.0,21.0,88.15,CLR
2020-04-28 15:00:00,50210.096451,FST,96.1,32.0,10.49,350.0,15.0,29.93,1007.3,10.0,20.0,90.61,CLR
2020-04-28 16:00:00,51343.450676,FST,96.1,32.0,10.49,330.0,15.0,29.9,1006.4,10.0,19.0,90.61,CLR
2020-04-28 17:00:00,52192.613614,FST,96.1,30.9,10.04,330.0,13.0,29.88,1005.6,10.0,,,CLR
2020-04-28 18:00:00,53035.557046,FST,96.1,24.1,7.59,310.0,19.0,29.85,1005.2,10.0,24.0,89.76,CLR
2020-04-28 19:00:00,52646.668085,FST,95.0,23.0,7.49,330.0,18.0,29.85,1005.4,10.0,23.0,88.76,CLR
2020-04-28 20:00:00,50874.684406,FST,91.9,25.0,8.97,330.0,14.0,29.85,1005.5,10.0,17.0,86.6,CLR
2020-04-28 21:00:00,50124.333244,FST,84.9,21.9,9.83,310.0,10.0,29.88,1006.4,10.0,,81.3,CLR
2020-04-28 22:00:00,48482.666723,FST,80.1,21.9,11.48,270.0,9.0,29.89,1006.7,10.0,,78.22,CLR
2020-04-28 23:00:00,45728.088849,FST,75.0,24.1,14.91,250.0,9.0,29.91,1007.4,10.0,,,CLR
2020-04-29 00:00:00,42213.021988,FST,73.0,24.1,15.95,240.0,11.0,29.91,1007.3,10.0,,,CLR
2020-04-29 01:00:00,39179.81742,FST,75.0,23.0,14.24,230.0,11.0,29.91,1007.0,10.0,,,CLR
2020-04-29 02:00:00,37131.285184,FST,72.0,23.0,15.75,240.0,11.0,29.93,1008.3,10.0,,,CLR
2020-04-29 03:00:00,35538.642575,FST,71.1,36.0,27.6,360.0,8.0,29.95,1008.6,10.0,,,CLR
2020-04-29 04:00:00,34418.549251,FST,68.0,39.0,34.53,80.0,8.0,29.95,1009.0,10.0,,,CLR
2020-04-29 05:00:00,33916.271188,FST,68.0,48.9,50.4,90.0,12.0,29.98,1010.0,10.0,,,CLR
2020-04-29 06:00:00,33094.977289,FST,68.0,52.0,56.55,60.0,20.0,30.06,1012.4,10.0,25.0,,CLR
2020-04-29 07:00:00,33584.993129,FST,66.0,43.0,43.2,50.0,24.0,30.12,1014.7,10.0,31.0,,CLR
2020-04-29 08:00:00,34150.676186,FST,64.9,43.0,44.88,50.0,22.0,30.18,1017.2,10.0,27.0,,CLR
2020-04-29 09:00:00,34989.965199,FST,66.9,46.0,46.94,60.0,22.0,30.25,1019.8,10.0,23.0,,CLR
2020-04-29 10:00:00,36230.222413,FST,66.9,45.0,45.19,60.0,19.0,30.28,1020.9,10.0,22.0,,OVC
2020-04-29 11:00:00,37729.413954,FST,71.1,44.1,37.81,80.0,19.0,30.29,1021.7,10.0,26.0,,OVC
2020-04-29 12:00:00,39239.183294,FST,73.9,39.0,28.25,90.0,19.0,30.29,1021.4,10.0,24.0,,SCT
2020-04-29 13:00:00,40526.845272,FST,77.0,36.0,22.64,90.0,16.0,30.29,1021.0,10.0,21.0,,CLR
2020-04-29 14:00:00,41837.809173,FST,77.0,30.9,18.46,90.0,18.0,30.28,1020.5,10.0,20.0,,CLR
2020-04-29 15:00:00,43134.45073,FST,78.1,28.9,16.41,100.0,16.0,30.26,1019.8,10.0,19.0,,CLR
2020-04-29 16:00:00,44206.123999,FST,79.0,28.0,15.35,90.0,14.0,30.24,1019.0,10.0,18.0,,CLR
2020-04-29 17:00:00,44853.932881,FST,80.1,28.9,15.36,100.0,13.0,30.21,1018.2,10.0,17.0,78.53,CLR
2020-04-29 18:00:00,45069.831594,FST,80.1,30.0,16.07,120.0,11.0,30.19,1017.7,10.0,,78.57,CLR
2020-04-29 19:00:00,44188.560305,FST,79.0,30.0,16.66,110.0,11.0,30.18,1017.4,10.0,16.0,,CLR
2020-04-29 20:00:00,42318.993163,FST,77.0,30.0,17.8,90.0,10.0,30.18,1017.9,10.0,,,CLR
2020-04-29 21:00:00,41410.954111,FST,71.1,30.0,21.69,70.0,9.0,30.19,1018.4,10.0,,,CLR
2020-04-29 22:00:00,39895.954806,FST,68.0,30.0,24.12,80.0,6.0,30.21,1019.1,10.0,,,CLR
2020-04-29 23:00:00,37142.269131,FST,66.0,30.9,26.81,100.0,8.0,30.22,1019.4,10.0,,,CLR
2020-04-30 00:00:00,34133.547753,FST,68.0,32.0,26.15,130.0,6.0,30.22,1019.2,10.0,,,CLR
2020-04-30 01:00:00,31653.955256,FST,62.1,30.9,30.73,170.0,8.0,30.22,1019.3,10.0,,,CLR
2020-04-30 02:00:00,30018.61797,FST,63.0,30.9,29.77,170.0,9.0,30.22,1019.1,10.0,,,CLR
2020-04-30 03:00:00,28905.845826,FST,61.0,30.9,31.95,170.0,9.0,30.21,1018.3,10.0,,,CLR
2020-04-30 04:00:00,28270.656365,FST,59.0,32.0,35.87,170.0,8.0,30.19,1018.0,10.0,,,CLR
2020-04-30 05:00:00,28344.559095,FST,57.9,32.0,37.31,170.0,8.0,30.18,1017.9,10.0,,,CLR
2020-04-30 06:00:00,29139.904668,FST,61.0,33.1,34.91,180.0,10.0,30.17,1017.6,10.0,,,CLR
2020-04-30 07:00:00,30585.573454,FST,57.9,34.0,40.43,190.0,9.0,30.17,1017.8,10.0,,,CLR
2020-04-30 08:00:00,31759.537113,FST,60.1,36.0,40.46,200.0,7.0,30.18,1018.1,10.0,,,CLR
2020-04-30 09:00:00,33274.854909,FST,69.1,37.9,31.85,210.0,7.0,30.18,1018.1,10.0,,,CLR
2020-04-30 10:00:00,34847.482752,FST,75.0,41.0,29.43,200.0,5.0,30.19,1017.9,10.0,,,CLR
2020-04-30 11:00:00,36686.604758,FST,81.0,42.1,25.19,220.0,10.0,30.18,1016.9,10.0,,79.49,CLR
2020-04-30 12:00:00,38346.903579,FST,82.9,42.1,23.68,280.0,11.0,30.16,1016.1,10.0,,80.68,CLR
2020-04-30 13:00:00,40147.623681,FST,86.0,42.1,21.43,330.0,8.0,30.14,1015.4,10.0,,82.92,CLR
2020-04-30 14:00:00,42236.23025,FST,87.1,41.0,19.83,250.0,9.0,30.11,1013.8,10.0,19.0,83.73,CLR
2020-04-30 15:00:00,44277.773096,FST,89.1,39.9,17.84,270.0,11.0,30.07,1012.6,10.0,,85.34,CLR
2020-04-30 16:00:00,46259.283007,FST,91.0,39.0,16.23,260.0,13.0,30.04,1011.4,10.0,,86.94,CLR
2020-04-30 17:00:00,47832.51835,FST,93.0,37.0,14.09,240.0,14.0,30.0,1010.3,10.0,18.0,88.63,CLR
2020-04-30 18:00:00,48561.973208,FST,91.9,39.0,15.77,250.0,10.0,29.97,1009.3,10.0,,87.74,CLR
2020-04-30 19:00:00,47872.170078,FST,91.0,39.0,16.23,280.0,13.0,29.94,1009.0,10.0,,86.94,CLR
2020-04-30 20:00:00,45581.851204,FST,88.0,37.9,17.08,180.0,13.0,29.93,1009.0,10.0,,84.34,CLR
2020-04-30 21:00:00,44215.186205,FST,84.0,41.0,21.9,180.0,13.0,29.94,1009.0,10.0,,81.37,CLR
2020-04-30 22:00:00,42464.897333,FST,81.0,44.1,27.2,150.0,14.0,29.96,1009.4,10.0,,79.62,CLR
2020-04-30 23:00:00,39496.843977,FST,78.1,50.0,37.36,150.0,16.0,29.97,1009.8,10.0,21.0,,CLR
2020-05-01 00:00:00,36260.721763,FST,75.9,50.0,40.19,160.0,17.0,29.97,1009.6,10.0,23.0,,CLR
2020-05-01 01:00:00,33474.714981,FST,73.9,48.0,39.87,160.0,17.0,29.96,1009.5,10.0,22.0,,CLR
2020-05-01 02:00:00,31504.690395,FST,73.0,44.1,35.46,160.0,16.0,29.96,1009.0,10.0,22.0,,CLR
2020-05-01 03:00:00,30231.125415,FST,71.1,44.1,37.81,170.0,17.0,29.94,1008.5,10.0,21.0,,CLR
2020-05-01 04:00:00,29439.944819,FST,69.1,44.1,40.48,180.0,14.0,29.93,1008.3,10.0,,,CLR
2020-05-01 05:00:00,29357.896727,FST,66.9,45.0,45.19,180.0,11.0,29.93,1008.0,10.0,,,CLR
2020-05-01 06:00:00,29979.464812,FST,64.0,45.0,49.99,170.0,8.0,29.93,1008.4,10.0,,,CLR
2020-05-01 07:00:00,31246.882517,FST,70.0,46.9,43.66,210.0,12.0,29.93,1008.4,10.0,,,CLR
2020-05-01 08:00:00,32291.367195,FST,72.0,48.0,42.51,210.0,11.0,29.96,1009.4,10.0,,,CLR
2020-05-01 09:00:00,34162.799376,FST,73.9,48.9,41.24,200.0,8.0,29.97,1009.9,10.0,,,CLR
2020-05-01 10:00:00,36296.681995,FST,79.0,52.0,39.06,180.0,7.0,29.98,1010.1,10.0,,,CLR
2020-05-01 11:00:00,38522.992567,FST,91.0,46.9,21.97,210.0,14.0,29.98,1009.6,10.0,,87.55,CLR
2020-05-01 12:00:00,40908.258846,FST,95.0,45.0,18.06,290.0,9.0,29.98,1009.4,10.0,,91.1,CLR
2020-05-01 13:00:00,43312.998129,FST,96.1,43.0,16.17,330.0,9.0,29.97,1008.9,10.0,,91.93,CLR
2020-05-01 14:00:00,45608.036587,FST,96.1,43.0,16.17,350.0,7.0,29.96,1008.2,10.0,,91.93,CLR
2020-05-01 15:00:00,47671.552431,FST,93.0,39.0,15.24,300.0,26.0,29.93,1007.5,10.0,33.0,88.73,FEW
2020-05-01 16:00:00,49262.893047,FST,93.9,41.0,18.1,280.0,23.0,29.93,1007.7,10.0,37.0,89.44,VV 
2020-05-01 17:00:00,50246.969556,FST,88.0,48.0,25.17,260.0,21.0,29.95,1009.1,10.0,27.0,85.02,FEW
2020-05-01 18:00:00,50384.799591,FST,87.1,46.9,24.85,160.0,24.0,29.95,1008.2,10.0,31.0,84.15,CLR
2020-05-01 19:00:00,49001.895583,FST,84.9,46.0,25.77,160.0,22.0,29.92,1007.8,10.0,26.0,82.35,CLR
2020-05-01 20:00:00,46517.180029,FST,84.0,48.0,28.6,170.0,17.0,29.91,1007.7,10.0,21.0,81.87,CLR
2020-05-01 21:00:00,45209.10831,FST,82.9,44.1,25.57,190.0,13.0,29.91,1007.9,10.0,,80.8,CLR
2020-05-01 22:00:00,43579.487733,FST,84.0,42.1,22.85,220.0,13.0,29.93,1008.2,10.0,,81.43,CLR
2020-05-01 23:00:00,41071.011895,FST,82.0,44.1,26.33,210.0,16.0,29.95,1008.5,10.0,,80.22,CLR
2020-05-02 00:00:00,38355.420592,FST,77.0,45.0,32.1,230.0,11.0,29.96,1008.8,10.0,,,CLR
2020-05-02 01:00:00,35853.344295,FST,73.9,46.0,36.98,230.0,11.0,29.97,1009.1,10.0,,,CLR
2020-05-02 02:00:00,33833.930253,FST,73.0,45.0,36.7,190.0,10.0,29.96,1009.0,10.0,,,CLR
2020-05-02 03:00:00,32355.305484,FST,70.0,44.1,39.26,200.0,10.0,29.96,1008.9,10.0,,,CLR
2020-05-02 04:00:00,31337.296896,FST,73.0,43.0,34.0,220.0,11.0,29.95,1008.4,10.0,,,CLR
2020-05-02 05:00:00,30840.895339,FST,73.9,45.0,35.6,230.0,14.0,29.94,1008.8,10.0,,,CLR
2020-05-02 06:00:00,30921.157285,FST,72.0,44.1,36.68,220.0,14.0,29.96,1009.3,10.0,,,CLR
2020-05-02 07:00:00,31180.701729,FST,71.1,44.1,37.81,230.0,13.0,29.97,1009.9,10.0,,,CLR
2020-05-02 08:00:00,31728.07152,FST,72.0,45.0,37.96,230.0,13.0,30.0,1010.9,10.0,,,CLR
2020-05-02 09:00:00,33786.383308,FST,78.1,46.9,33.26,240.0,11.0,30.02,1011.3,10.0,,,CLR
2020-05-02 10:00:00,36370.463221,FST,87.1,48.9,26.79,260.0,10.0,30.03,1011.5,10.0,,84.37,CLR
2020-05-02 11:00:00,38770.743678,FST,93.9,42.1,16.72,310.0,13.0,30.03,1011.3,10.0,18.0,89.76,CLR
2020-05-02 12:00:00,41329.866046,FST,95.0,37.0,13.25,360.0,15.0,30.03,1011.4,10.0,17.0,90.44,CLR
2020-05-02 13:00:00,44089.704201,FST,96.1,36.0,12.31,350.0,11.0,30.03,1011.0,10.0,15.0,91.21,CLR
2020-05-02 14:00:00,46703.808769,FST,98.1,37.0,12.05,360.0,10.0,30.01,1010.1,10.0,,93.05,CLR
2020-05-02 15:00:00,49184.232327,FST,98.1,36.0,11.58,300.0,8.0,29.99,1009.5,10.0,,92.87,CLR
2020-05-02 16:00:00,51308.164632,FST,97.0,36.0,11.98,360.0,11.0,29.96,1008.3,10.0,,91.96,CLR
2020-05-02 17:00:00,52810.285408,FST,93.2,37.9,15.11,260.0,39.0,29.96,1009.1,10.0,53.0,88.83,CLR
2020-05-02 18:00:00,53373.45821,FST,91.0,43.0,18.94,250.0,27.0,29.96,1009.1,10.0,62.0,87.18,FEW
2020-05-02 19:00:00,52549.146302,FST,90.0,44.1,21.72,180.0,22.0,29.94,1008.0,10.0,30.0,86.23,FEW
2020-05-02 20:00:00,50215.263669,FST,87.1,44.1,22.34,180.0,15.0,29.93,1008.4,10.0,18.0,83.91,CLR
2020-05-02 21:00:00,48574.148691,FST,84.9,45.0,24.81,160.0,18.0,29.93,1008.3,10.0,23.0,82.27,CLR
2020-05-02 22:00:00,46872.12959,FST,81.0,45.0,28.15,180.0,16.0,29.95,1008.8,10.0,21.0,79.68,CLR
2020-05-02 23:00:00,44163.102747,FST,80.1,45.0,28.99,180.0,13.0,29.98,1009.4,10.0,,79.18,CLR
2020-05-03 00:00:00,41197.905705,FST,80.1,46.0,30.11,200.0,21.0,29.98,1009.3,10.0,27.0,79.26,FEW
2020-05-03 01:00:00,38390.267193,FST,79.0,46.9,32.29,190.0,21.0,29.97,1009.0,10.0,26.0,,CLR
2020-05-03 02:00:00,36133.704015,FST,80.1,46.9,31.15,200.0,17.0,29.96,1008.6,10.0,19.0,79.33,CLR
2020-05-03 03:00:00,34361.822521,FST,75.9,46.9,35.78,240.0,14.0,29.97,1008.7,10.0,,,CLR
2020-05-03 04:00:00,33207.129226,FST,75.9,46.9,35.78,240.0,14.0,29.95,1008.6,10.0,,,CLR
2020-05-03 05:00:00,32454.983362,FST,75.9,46.9,35.78,250.0,14.0,29.95,1008.8,10.0,19.0,,CLR
2020-05-03 06:00:00,32085.059873,FST,75.0,48.0,38.43,230.0,14.0,29.96,1009.1,10.0,,,CLR
2020-05-03 07:00:00,31791.674247,FST,73.0,48.0,41.1,230.0,13.0,29.98,1009.7,10.0,,,CLR
2020-05-03 08:00:00,31810.827631,FST,77.0,48.0,35.95,330.0,6.0,30.01,1010.8,10.0,,,CLR
2020-05-03 09:00:00,33730.249462,FST,80.1,50.0,34.98,240.0,7.0,30.01,1011.0,10.0,,79.6,CLR
2020-05-03 10:00:00,36604.512049,FST,88.0,46.0,23.34,290.0,11.0,30.02,1011.1,10.0,,84.81,CLR
2020-05-03 11:00:00,39798.370498,FST,91.0,37.9,15.54,320.0,15.0,30.02,1010.8,10.0,15.0,86.9,CLR
2020-05-03 12:00:00,43041.11572,FST,93.9,37.9,14.2,340.0,14.0,30.01,1010.5,10.0,16.0,89.48,CLR
2020-05-03 13:00:00,46367.452182,FST,96.1,37.9,13.27,350.0,11.0,30.0,1010.0,10.0,,91.49,CLR
2020-05-03 14:00:00,49447.29913,FST,97.0,37.9,12.91,360.0,11.0,29.99,1009.0,10.0,,92.3,CLR
2020-05-03 15:00:00,52021.053564,FST,97.0,37.0,12.46,360.0,7.0,29.96,1008.1,10.0,,92.13,CLR
2020-05-03 16:00:00,54168.591998,FST,99.0,37.9,12.15,350.0,8.0,29.94,1007.1,10.0,14.0,93.98,CLR
2020-05-03 17:00:00,55633.902844,FST,100.0,37.9,11.78,340.0,7.0,29.91,1005.9,10.0,,94.83,CLR
2020-05-03 18:00:00,56224.942069,FST,96.1,39.9,14.35,190.0,13.0,29.87,1005.4,10.0,,91.64,CLR
2020-05-03 19:00:00,55275.716222,FST,95.0,39.9,14.84,190.0,15.0,29.85,1005.5,10.0,,90.61,CLR
2020-05-03 20:00:00,52768.572851,FST,91.9,39.9,16.34,200.0,16.0,29.86,1005.8,10.0,22.0,87.78,CLR
2020-05-03 21:00:00,50903.19315,FST,86.0,42.1,21.43,200.0,16.0,29.87,1005.8,10.0,,82.92,CLR
2020-05-03 22:00:00,48902.138625,FST,86.0,45.0,23.95,170.0,11.0,29.89,1006.4,10.0,,83.1,CLR
2020-05-03 23:00:00,45790.681259,FST,84.0,53.1,34.56,170.0,14.0,29.9,1006.9,10.0,,82.52,CLR
2020-05-04 00:00:00,42422.225658,FST,82.0,52.0,35.41,180.0,11.0,29.91,1006.6,10.0,,80.97,CLR
2020-05-04 01:00:00,39379.162708,FST,78.1,48.9,35.86,190.0,13.0,29.89,1006.2,10.0,,,CLR
2020-05-04 02:00:00,37118.565114,FST,75.0,46.9,36.87,220.0,9.0,29.88,1006.1,10.0,,,CLR
2020-05-04 03:00:00,35598.825833,FST,75.0,46.9,36.87,230.0,9.0,29.88,1005.9,10.0,,,CLR
2020-05-04 04:00:00,34658.391811,FST,73.9,46.9,38.26,220.0,10.0,29.87,1005.8,10.0,,,CLR
2020-05-04 05:00:00,34452.320782,FST,73.9,46.0,36.98,240.0,11.0,29.88,1006.2,10.0,,,CLR
2020-05-04 06:00:00,35118.476862,FST,73.9,46.0,36.98,210.0,16.0,29.89,1006.7,10.0,,,CLR
2020-05-04 07:00:00,36332.674456,FST,72.0,46.0,39.42,270.0,11.0,29.9,1007.0,10.0,,,CLR
2020-05-04 08:00:00,37480.022116,FST,75.0,46.0,35.64,220.0,13.0,29.91,1007.3,10.0,,,CLR
2020-05-04 09:00:00,39587.358454,FST,82.0,48.0,30.51,220.0,13.0,29.93,1007.9,10.0,,80.53,CLR
2020-05-04 10:00:00,42267.508394,FST,88.0,41.0,19.28,300.0,9.0,29.94,1008.2,10.0,,84.46,CLR
2020-05-04 11:00:00,45204.504326,FST,91.9,32.0,11.95,310.0,16.0,29.95,1008.3,10.0,18.0,87.3,CLR
2020-05-04 12:00:00,48456.50578,FST,93.9,30.9,10.74,310.0,14.0,29.95,1008.2,10.0,19.0,88.71,CLR
2020-05-04 13:00:00,51906.174137,FST,96.1,30.9,10.04,340.0,15.0,29.94,1007.7,10.0,19.0,90.46,CLR
2020-05-04 14:00:00,55081.840748,FST,98.1,30.9,9.44,330.0,13.0,29.92,1006.9,10.0,22.0,92.13,CLR
2020-05-04 15:00:00,57657.957814,FST,99.0,32.0,9.6,340.0,14.0,29.9,1006.1,10.0,20.0,93.03,CLR
2020-05-04 16:00:00,59502.068473,FST,99.0,30.9,9.19,350.0,11.0,29.87,1004.9,10.0,,,CLR
2020-05-04 17:00:00,60530.269144,FST,100.0,28.9,8.22,340.0,13.0,29.84,1003.9,10.0,17.0,93.48,CLR
2020-05-04 18:00:00,60420.80502,FST,100.0,28.9,8.22,330.0,15.0,29.82,1003.7,10.0,17.0,93.48,CLR
2020-05-04 19:00:00,58888.48692,FST,99.0,28.9,8.47,330.0,11.0,29.81,1003.6,10.0,,92.64,CLR
2020-05-04 20:00:00,56000.388322,FST,97.0,27.0,8.32,330.0,12.0,29.81,1003.8,10.0,,90.77,CLR
2020-05-04 21:00:00,53975.622669,FST,88.0,27.0,11.02,330.0,10.0,29.84,1004.7,10.0,,83.87,CLR
2020-05-04 22:00:00,51630.558883,FST,81.0,30.9,16.18,320.0,5.0,29.86,1005.6,10.0,,79.04,CLR
2020-05-04 23:00:00,48188.119517,FST,82.0,46.9,29.28,180.0,10.0,29.89,1006.3,10.0,,80.43,CLR
2020-05-05 00:00:00,44647.199947,FST,79.0,51.1,37.78,210.0,11.0,29.9,1006.6,10.0,,,CLR
2020-05-05 01:00:00,41429.46024,FST,77.0,51.1,40.36,210.0,10.0,29.89,1006.4,10.0,,,CLR
2020-05-05 02:00:00,39280.605297,FST,73.9,48.9,41.24,230.0,9.0,29.89,1006.1,10.0,,,CLR
2020-05-05 03:00:00,37853.003121,FST,66.9,50.0,54.54,230.0,9.0,29.88,1006.2,10.0,,,CLR
2020-05-05 04:00:00,36893.549764,FST,72.0,51.1,47.72,210.0,10.0,29.88,1006.0,10.0,,,CLR
2020-05-05 05:00:00,36622.736227,FST,69.1,46.9,45.02,300.0,11.0,29.92,1007.5,10.0,19.0,,CLR
2020-05-05 06:00:00,37054.476838,FST,66.0,45.0,46.62,360.0,11.0,29.95,1008.9,10.0,,,CLR
2020-05-05 07:00:00,37893.540105,FST,66.9,59.0,75.74,50.0,17.0,30.02,1011.1,10.0,26.0,,CLR
2020-05-05 08:00:00,38363.842687,FST,,,,50.0,19.0,30.1,,10.0,21.0,,CLR
2020-05-05 09:00:00,39661.111571,FST,68.0,48.9,50.4,40.0,19.0,30.16,1016.5,10.0,22.0,,CLR
2020-05-05 10:00:00,41433.077771,FST,70.0,45.0,40.63,30.0,18.0,30.18,1017.6,10.0,22.0,,CLR
2020-05-05 11:00:00,43660.217269,FST,72.0,42.1,33.97,60.0,18.0,30.19,1017.8,10.0,22.0,,CLR
2020-05-05 12:00:00,45917.990107,FST,75.9,41.0,28.56,50.0,18.0,30.2,1017.8,10.0,24.0,,OVC
2020-05-05 13:00:00,47842.728143,FST,78.1,41.0,26.55,60.0,20.0,30.2,1017.7,10.0,23.0,,BKN
2020-05-05 14:00:00,49779.304159,FST,80.1,41.0,24.86,80.0,15.0,30.2,1017.3,10.0,22.0,78.98,FEW
2020-05-05 15:00:00,51055.021371,FST,82.0,41.0,23.37,90.0,17.0,30.18,1016.9,10.0,22.0,80.04,FEW
2020-05-05 16:00:00,51736.260204,FST,82.0,41.0,23.37,100.0,17.0,30.16,1015.9,10.0,22.0,80.04,CLR
2020-05-05 17:00:00,52065.204382,FST,82.0,41.0,23.37,100.0,17.0,30.14,1015.0,10.0,18.0,80.04,CLR
2020-05-05 18:00:00,51552.683344,FST,82.0,41.0,23.37,110.0,14.0,30.11,1014.5,10.0,16.0,80.04,CLR
2020-05-05 19:00:00,49808.027694,FST,81.0,39.0,22.33,100.0,15.0,30.09,1014.4,10.0,,79.33,CLR
2020-05-05 20:00:00,47190.181369,FST,79.0,39.0,23.85,80.0,13.0,30.1,1014.9,10.0,,,CLR
2020-05-05 21:00:00,45766.223952,FST,75.0,37.9,26.08,80.0,11.0,30.12,1015.7,10.0,,,CLR
2020-05-05 22:00:00,44106.345168,FST,71.1,37.9,29.74,80.0,9.0,30.15,1016.8,10.0,,,CLR
2020-05-05 23:00:00,41304.015403,FST,66.9,37.9,34.35,90.0,8.0,30.17,1017.8,10.0,,,CLR
2020-05-06 00:00:00,38177.330218,FST,64.9,39.0,38.44,100.0,6.0,30.19,1018.2,10.0,,,CLR
2020-05-06 01:00:00,35563.488583,FST,66.0,39.9,38.32,120.0,10.0,30.2,1018.3,10.0,,,CLR
2020-05-06 02:00:00,33652.527764,FST,66.0,39.0,37.0,130.0,11.0,30.19,1018.0,10.0,,,CLR
2020-05-06 03:00:00,32296.223655,FST,62.1,37.9,40.62,150.0,10.0,30.19,1017.8,10.0,,,CLR
2020-05-06 04:00:00,31408.722557,FST,62.1,37.9,40.62,140.0,9.0,30.19,1017.8,10.0,,,CLR
2020-05-06 05:00:00,31144.888324,FST,62.1,37.9,40.62,130.0,10.0,30.19,1018.1,10.0,,,CLR
2020-05-06 06:00:00,31623.641796,FST,61.0,37.9,42.24,140.0,11.0,30.19,1017.8,10.0,14.0,,CLR
2020-05-06 07:00:00,32780.717945,FST,60.1,37.9,43.61,140.0,9.0,30.19,1018.3,10.0,,,CLR
2020-05-06 08:00:00,33722.418415,FST,60.1,37.9,43.61,140.0,10.0,30.2,1018.8,10.0,,,CLR
2020-05-06 09:00:00,35062.380273,FST,64.0,41.0,42.88,140.0,14.0,30.22,1019.2,10.0,18.0,,CLR
2020-05-06 10:00:00,36764.774144,FST,69.1,44.1,40.48,140.0,17.0,30.22,1019.3,10.0,17.0,,CLR
2020-05-06 11:00:00,38508.675461,FST,73.9,45.0,35.6,160.0,14.0,30.22,1019.2,10.0,,,CLR
2020-05-06 12:00:00,40183.030358,FST,78.1,46.0,32.15,150.0,14.0,30.22,1018.9,10.0,18.0,,CLR
2020-05-06 13:00:00,42029.9832,FST,80.1,46.0,30.11,120.0,13.0,30.21,1018.2,10.0,19.0,79.26,CLR
2020-05-06 14:00:00,43997.837255,FST,84.9,46.9,26.66,130.0,13.0,30.19,1016.8,10.0,18.0,82.42,CLR
2020-05-06 15:00:00,45874.525097,FST,84.9,46.9,26.66,120.0,14.0,30.16,1016.2,10.0,16.0,82.42,CLR
2020-05-06 16:00:00,47473.360728,FST,87.1,48.0,25.9,110.0,12.0,30.14,1014.9,10.0,18.0,84.27,CLR
2020-05-06 17:00:00,48501.324429,FST,88.0,48.0,25.17,130.0,14.0,30.1,1013.8,10.0,19.0,85.02,CLR
2020-05-06 18:00:00,48956.554907,FST,88.0,48.0,25.17,130.0,15.0,30.07,1012.9,10.0,19.0,85.02,CLR
2020-05-06 19:00:00,48073.956466,FST,87.1,48.0,25.9,130.0,18.0,30.05,1012.7,10.0,20.0,84.27,CLR
2020-05-06 20:00:00,45854.229917,FST,84.0,48.0,28.6,130.0,16.0,30.04,1012.9,10.0,22.0,81.87,CLR
2020-05-06 21:00:00,44350.315638,FST,80.1,48.9,33.58,140.0,17.0,30.06,1013.5,10.0,23.0,79.5,CLR
2020-05-06 22:00:00,42858.756497,FST,75.9,53.1,45.06,150.0,17.0,30.08,1014.2,10.0,23.0,,CLR
2020-05-06 23:00:00,39946.062837,FST,73.9,55.9,53.36,150.0,19.0,30.1,1014.7,10.0,24.0,,CLR
2020-05-07 00:00:00,36773.30645,FST,72.0,55.9,56.89,160.0,19.0,30.1,1014.7,10.0,26.0,,CLR
2020-05-07 01:00:00,34181.091792,FST,71.1,57.0,61.04,150.0,20.0,30.1,1014.0,10.0,26.0,,CLR
2020-05-07 02:00:00,32223.719196,FST,69.1,57.9,67.5,150.0,21.0,30.08,1013.3,10.0,26.0,,CLR
2020-05-07 03:00:00,30963.595884,FST,68.0,57.9,70.1,160.0,22.0,30.06,1012.2,10.0,30.0,,CLR
2020-05-07 04:00:00,30235.26412,FST,66.9,57.9,72.81,160.0,22.0,30.03,1011.2,10.0,29.0,,CLR
2020-05-07 05:00:00,30198.37037,FST,66.9,57.9,72.81,170.0,21.0,30.0,1010.8,10.0,23.0,,CLR
2020-05-07 06:00:00,30906.733637,FST,66.0,57.9,75.12,170.0,15.0,29.99,1010.9,10.0,,,CLR
2020-05-07 07:00:00,32306.57574,FST,64.9,57.9,78.05,160.0,11.0,29.99,1010.9,10.0,,,CLR
2020-05-07 08:00:00,33508.446723,FST,66.9,57.9,72.81,160.0,11.0,29.99,1011.0,10.0,,,CLR
2020-05-07 09:00:00,35520.775019,FST,77.0,57.0,50.07,200.0,13.0,30.0,1010.9,10.0,,,CLR
2020-05-07 10:00:00,37552.869216,FST,82.9,55.0,38.38,220.0,19.0,30.0,1010.1,10.0,23.0,82.03,CLR
2020-05-07 11:00:00,39719.509928,FST,90.0,53.1,28.55,220.0,20.0,29.98,1009.7,10.0,28.0,87.62,CLR
2020-05-07 12:00:00,41932.949154,FST,91.9,52.0,25.84,240.0,23.0,29.97,1008.8,10.0,30.0,89.21,CLR
2020-05-07 13:00:00,44051.713355,FST,96.1,51.1,21.95,230.0,23.0,29.95,1007.6,10.0,33.0,93.23,CLR
2020-05-07 14:00:00,46099.720976,FST,99.0,46.0,16.6,240.0,22.0,29.91,1006.7,10.0,30.0,95.17,CLR
2020-05-07 15:00:00,47597.568124,FST,100.9,45.0,15.73,260.0,22.0,29.88,1005.4,10.0,30.0,96.87,CLR
2020-05-07 16:00:00,48968.067858,FST,100.0,39.9,13.85,240.0,19.0,29.85,1004.6,10.0,26.0,95.23,CLR
2020-05-07 17:00:00,49693.527002,FST,99.0,39.9,13.13,250.0,18.0,29.83,1003.5,10.0,25.0,94.35,CLR
2020-05-07 18:00:00,49679.152004,FST,98.1,42.1,14.7,230.0,18.0,29.79,1002.6,10.0,22.0,93.74,CLR
2020-05-07 19:00:00,48826.739771,FST,98.1,39.0,13.03,240.0,15.0,29.77,1002.4,10.0,19.0,93.42,CLR
2020-05-07 20:00:00,47536.35382,FST,84.9,57.0,38.69,150.0,22.0,29.79,1003.9,10.0,29.0,83.99,CLR
2020-05-07 21:00:00,47321.43368,FST,84.0,57.9,41.14,140.0,17.0,29.82,1004.4,10.0,22.0,83.47,CLR
2020-05-07 22:00:00,46218.873802,FST,82.9,59.0,48.58,150.0,26.0,29.83,1004.7,10.0,36.0,82.03,CLR
2020-05-07 23:00:00,43760.40316,FST,79.0,59.0,53.8,180.0,29.0,29.85,1005.3,10.0,38.0,,CLR
2020-05-08 00:00:00,40762.552262,FST,77.0,57.9,51.72,170.0,28.0,29.86,1005.6,10.0,33.0,,CLR
2020-05-08 01:00:00,38334.283552,FST,75.9,57.9,53.64,170.0,23.0,29.86,1005.4,10.0,30.0,,CLR
2020-05-08 02:00:00,36586.513226,FST,75.0,57.9,55.28,170.0,21.0,29.86,1005.2,10.0,27.0,,CLR
2020-05-08 03:00:00,35480.351936,FST,73.9,57.0,55.53,180.0,18.0,29.86,1005.4,10.0,21.0,,CLR
2020-05-08 04:00:00,34970.971637,FST,73.9,54.0,49.79,190.0,16.0,29.86,1005.3,10.0,,,CLR
2020-05-08 05:00:00,34965.565189,FST,71.1,48.9,45.33,230.0,10.0,29.87,1006.0,10.0,,,CLR
2020-05-08 06:00:00,35653.33655,FST,71.6,50.0,49.03,360.0,29.0,29.96,1008.6,10.0,39.0,,CLR
2020-05-08 07:00:00,36890.98763,FST,66.9,46.0,46.94,40.0,28.0,30.08,1013.3,9.0,33.0,,BKN
2020-05-08 08:00:00,37792.617425,FST,66.0,34.0,30.37,360.0,21.0,30.17,1017.0,10.0,22.0,,OVC
2020-05-08 09:00:00,39449.457608,FST,66.0,28.9,24.71,30.0,26.0,30.2,1018.1,10.0,27.0,,OVC
2020-05-08 10:00:00,41375.271554,FST,66.9,28.0,23.09,20.0,22.0,30.22,1018.9,10.0,31.0,,OVC
2020-05-08 11:00:00,43440.09132,FST,68.0,28.0,22.23,30.0,21.0,30.24,1019.9,10.0,26.0,,CLR
2020-05-08 12:00:00,45120.420916,FST,69.1,28.9,22.21,40.0,20.0,30.26,1020.3,10.0,24.0,,CLR
2020-05-08 13:00:00,46708.764895,FST,70.0,28.9,21.53,360.0,18.0,30.26,1020.2,10.0,24.0,,CLR
2020-05-08 14:00:00,47549.86022,FST,72.0,28.0,19.39,40.0,18.0,30.25,1019.5,10.0,23.0,,CLR
2020-05-08 15:00:00,47772.388297,FST,73.0,28.0,18.74,60.0,15.0,30.24,1019.1,10.0,21.0,,CLR
2020-05-08 16:00:00,47458.203375,FST,75.0,27.0,16.82,60.0,15.0,30.22,1018.1,10.0,19.0,,CLR
2020-05-08 17:00:00,46354.109306,FST,73.9,27.0,17.45,70.0,14.0,30.19,1017.3,10.0,,,CLR
2020-05-08 18:00:00,44962.738289,FST,72.0,28.0,19.39,60.0,15.0,30.16,1017.0,10.0,,,CLR
2020-05-08 19:00:00,43055.291428,FST,72.0,28.9,20.12,60.0,15.0,30.15,1017.1,10.0,,,CLR
2020-05-08 20:00:00,41068.308149,FST,70.0,28.9,21.53,70.0,13.0,30.15,1017.3,10.0,,,CLR
2020-05-08 21:00:00,40470.784558,FST,66.0,28.9,24.71,80.0,11.0,30.16,1017.8,10.0,,,CLR
2020-05-08 22:00:00,39545.594158,FST,61.0,28.9,29.45,80.0,7.0,30.19,1018.9,10.0,,,CLR
2020-05-08 23:00:00,37429.737313,FST,60.1,30.9,32.99,90.0,7.0,30.21,1019.6,10.0,,,CLR
2020-05-09 00:00:00,34923.460857,FST,59.0,32.0,35.87,120.0,8.0,30.23,1020.2,10.0,,,CLR
2020-05-09 01:00:00,32817.05073,FST,57.9,33.1,39.0,120.0,8.0,30.23,1020.2,10.0,,,CLR
2020-05-09 02:00:00,31220.191329,FST,55.0,30.9,39.63,150.0,5.0,30.23,1020.2,10.0,,,CLR
2020-05-09 03:00:00,30049.924235,FST,57.0,34.0,41.76,150.0,8.0,30.23,1019.4,10.0,,,CLR
2020-05-09 04:00:00,29243.751991,FST,55.9,37.0,48.95,130.0,13.0,30.21,1019.1,10.0,,,CLR
2020-05-09 05:00:00,28898.891591,FST,54.0,39.0,56.74,130.0,11.0,30.2,1019.1,10.0,,,CLR
2020-05-09 06:00:00,28935.209384,FST,53.1,39.0,58.64,130.0,10.0,30.2,1019.0,10.0,,,CLR
2020-05-09 07:00:00,29206.36211,FST,52.0,39.0,61.06,140.0,10.0,30.19,1018.8,10.0,,,CLR
2020-05-09 08:00:00,29513.345159,FST,53.1,39.0,58.64,140.0,8.0,30.19,1018.8,10.0,,,CLR
2020-05-09 09:00:00,30864.361528,FST,57.9,41.0,53.24,150.0,14.0,30.18,1018.4,10.0,19.0,,CLR
2020-05-09 10:00:00,32436.52526,FST,63.0,41.0,44.41,160.0,14.0,30.17,1018.5,10.0,18.0,,CLR
2020-05-09 11:00:00,33550.971091,FST,66.9,41.0,38.76,150.0,14.0,30.17,1017.9,10.0,,,CLR
2020-05-09 12:00:00,34533.656243,FST,72.0,39.9,31.2,160.0,11.0,30.16,1017.1,10.0,15.0,,CLR
2020-05-09 13:00:00,35432.518095,FST,77.0,41.0,27.53,160.0,13.0,30.14,1016.2,10.0,18.0,,CLR
2020-05-09 14:00:00,36301.44166,FST,79.0,41.0,25.78,140.0,11.0,30.12,1015.2,10.0,,,CLR
2020-05-09 15:00:00,37142.077934,FST,81.0,41.0,24.14,160.0,11.0,30.09,1014.0,10.0,,79.43,CLR
2020-05-09 16:00:00,37917.606862,FST,84.9,42.1,22.2,160.0,11.0,30.06,1012.9,10.0,14.0,82.08,CLR
2020-05-09 17:00:00,38495.037601,FST,84.9,41.0,21.28,100.0,13.0,30.04,1012.3,10.0,17.0,82.03,CLR
2020-05-09 18:00:00,38852.145654,FST,84.9,41.0,21.28,120.0,13.0,30.01,1012.0,10.0,20.0,82.03,CLR
2020-05-09 19:00:00,38593.350558,FST,82.9,41.0,22.7,120.0,15.0,30.01,1012.2,10.0,20.0,80.62,CLR
2020-05-09 20:00:00,37644.859054,FST,79.0,41.0,25.78,110.0,18.0,30.02,1012.9,10.0,,,CLR
2020-05-09 21:00:00,37466.217691,FST,75.9,41.0,28.56,120.0,18.0,30.05,1013.7,10.0,21.0,,CLR
2020-05-09 22:00:00,36908.671426,FST,73.0,41.0,31.47,120.0,14.0,30.08,1014.9,10.0,,,CLR
2020-05-09 23:00:00,35296.919334,FST,71.1,42.1,35.02,140.0,15.0,30.1,1015.4,10.0,,,CLR
2020-05-10 00:00:00,33277.434339,FST,70.0,43.0,37.64,140.0,15.0,30.11,1015.4,10.0,21.0,,CLR
2020-05-10 01:00:00,31250.848426,FST,68.0,44.1,42.04,150.0,16.0,30.11,1015.0,10.0,22.0,,CLR
2020-05-10 02:00:00,29716.391561,FST,66.9,45.0,45.19,150.0,19.0,30.1,1014.4,10.0,26.0,,CLR
2020-05-10 03:00:00,28603.787259,FST,64.9,46.9,52.06,150.0,21.0,30.08,1014.2,10.0,25.0,,CLR
2020-05-10 04:00:00,27885.011907,FST,63.0,48.0,57.99,150.0,17.0,30.08,1014.2,10.0,22.0,,CLR
2020-05-10 05:00:00,27546.571833,FST,62.1,50.0,64.5,150.0,15.0,30.09,1014.6,10.0,17.0,,CLR
2020-05-10 06:00:00,27491.364599,FST,61.0,52.0,72.22,140.0,11.0,30.12,1015.6,10.0,18.0,,CLR
2020-05-10 07:00:00,27604.30406,FST,59.0,53.1,80.75,130.0,15.0,30.14,1016.4,10.0,,,CLR
2020-05-10 08:00:00,27993.846054,FST,60.1,53.1,77.65,130.0,17.0,30.16,1017.3,10.0,21.0,,CLR
2020-05-10 09:00:00,29633.050747,FST,62.1,54.0,74.75,140.0,18.0,30.18,1018.2,10.0,23.0,,CLR
2020-05-10 10:00:00,31603.376778,FST,63.0,54.0,72.42,140.0,20.0,30.2,1018.8,10.0,24.0,,CLR
2020-05-10 11:00:00,33418.518167,FST,64.0,55.0,72.52,140.0,20.0,30.2,1018.9,10.0,24.0,,CLR
2020-05-10 12:00:00,35053.69991,FST,69.1,55.9,62.8,140.0,19.0,30.21,1018.6,10.0,24.0,,CLR
2020-05-10 13:00:00,36685.127625,FST,73.0,55.9,55.0,160.0,20.0,30.19,1018.0,10.0,26.0,,CLR
2020-05-10 14:00:00,38134.178828,FST,77.0,54.0,44.9,140.0,20.0,30.18,1016.6,10.0,27.0,,CLR
2020-05-10 15:00:00,39484.728002,FST,81.0,53.1,38.09,150.0,19.0,30.14,1015.8,10.0,22.0,80.47,CLR
2020-05-10 16:00:00,40831.571946,FST,81.0,52.0,36.58,160.0,16.0,30.13,1015.8,10.0,20.0,80.34,CLR
2020-05-10 17:00:00,42140.099501,FST,79.0,51.1,37.78,140.0,15.0,30.12,1015.6,10.0,16.0,,CLR
2020-05-10 18:00:00,42815.505107,FST,77.0,51.1,40.36,130.0,15.0,30.12,1015.8,10.0,19.0,,CLR
2020-05-10 19:00:00,42423.257499,FST,75.9,51.1,41.86,130.0,20.0,30.12,1015.4,10.0,24.0,,BKN
2020-05-10 20:00:00,40920.834919,FST,75.0,51.1,43.14,130.0,15.0,30.11,1015.8,10.0,19.0,,CLR
2020-05-10 21:00:00,40341.734487,FST,73.9,51.1,44.76,140.0,15.0,30.12,1016.0,10.0,16.0,,CLR
2020-05-10 22:00:00,39576.706558,FST,73.0,51.1,46.13,200.0,14.0,30.14,1016.9,10.0,,,CLR
2020-05-10 23:00:00,37421.999458,FST,73.0,50.0,44.29,180.0,17.0,30.15,1016.6,10.0,22.0,,FEW
2020-05-11 00:00:00,34625.559497,FST,72.0,51.1,47.72,160.0,21.0,30.14,1015.3,10.0,31.0,,CLR
2020-05-11 01:00:00,32242.191725,FST,70.0,51.1,51.07,170.0,26.0,30.1,1014.5,10.0,32.0,,CLR
2020-05-11 02:00:00,30621.391601,FST,68.0,52.0,56.55,180.0,16.0,30.08,1014.1,10.0,19.0,,CLR
2020-05-11 03:00:00,29549.290774,FST,66.9,52.0,58.74,170.0,11.0,30.08,1014.2,10.0,14.0,,CLR
2020-05-11 04:00:00,28993.599405,FST,64.9,52.0,62.96,170.0,11.0,30.08,1013.9,10.0,,,CLR
2020-05-11 05:00:00,29076.968319,FST,64.0,51.1,62.85,160.0,11.0,30.08,1014.3,10.0,,,CLR
2020-05-11 06:00:00,29939.533533,FST,62.1,48.9,61.91,140.0,7.0,30.09,1014.9,10.0,,,CLR
2020-05-11 07:00:00,31350.879897,FST,62.1,48.9,61.91,130.0,9.0,30.1,1015.3,10.0,,,CLR
2020-05-11 08:00:00,32696.166175,FST,63.0,51.1,65.09,140.0,15.0,30.11,1015.7,10.0,20.0,,CLR
2020-05-11 09:00:00,34645.70885,FST,64.9,53.1,65.56,150.0,17.0,30.12,1015.9,10.0,23.0,,CLR
2020-05-11 10:00:00,36663.829456,FST,69.1,54.0,58.6,160.0,20.0,30.12,1016.0,10.0,24.0,,CLR
2020-05-11 11:00:00,38677.528856,FST,73.9,54.0,49.79,160.0,18.0,30.13,1015.2,10.0,21.0,,CLR
2020-05-11 12:00:00,40649.842568,FST,73.0,54.0,51.33,160.0,16.0,30.11,1014.3,10.0,22.0,,CLR
2020-05-11 13:00:00,42642.788852,FST,79.0,54.0,42.03,170.0,15.0,30.1,1013.9,10.0,21.0,,CLR
2020-05-11 14:00:00,44559.558956,FST,84.0,54.0,35.72,180.0,14.0,30.07,1012.5,10.0,20.0,82.67,CLR
2020-05-11 15:00:00,46200.424383,FST,86.0,53.1,32.41,170.0,15.0,30.03,1011.0,10.0,15.0,84.09,CLR
2020-05-11 16:00:00,47571.619308,FST,86.0,55.0,34.74,160.0,18.0,29.99,1010.0,10.0,25.0,84.46,CLR
2020-05-11 17:00:00,48265.903931,FST,84.0,54.0,35.72,160.0,19.0,29.96,1008.7,10.0,24.0,82.67,CLR
2020-05-11 18:00:00,48027.877728,FST,82.9,57.9,86.82,360.0,39.0,29.98,1011.1,10.0,58.0,82.03,SCT
2020-05-11 19:00:00,46868.594319,FST,64.9,57.9,80.6,330.0,22.0,29.98,1009.5,10.0,41.0,,BKN
2020-05-11 20:00:00,45047.467957,FST,68.0,61.0,83.91,160.0,26.0,29.92,1009.2,10.0,42.0,,SCT
2020-05-11 21:00:00,44507.933097,FST,66.9,61.0,93.04,330.0,37.0,30.05,1014.2,10.0,44.0,,FEW
2020-05-11 22:00:00,43319.67024,FST,59.0,57.9,96.81,360.0,22.0,30.04,1012.0,10.0,32.0,,BKN
2020-05-11 23:00:00,40581.106087,FST,60.1,57.0,93.07,220.0,23.0,30.09,1015.2,10.0,37.0,,OVC
2020-05-12 00:00:00,37384.990637,FST,61.0,57.0,86.67,320.0,24.0,30.09,1013.8,10.0,41.0,,SCT
2020-05-12 01:00:00,34932.784374,FST,61.0,57.0,86.67,250.0,15.0,30.05,1011.7,10.0,27.0,,BKN
2020-05-12 02:00:00,33211.864275,FST,60.1,57.0,89.48,220.0,23.0,30.0,1011.0,10.0,51.0,,CLR
2020-05-12 03:00:00,32080.291881,FST,61.0,57.0,86.67,210.0,15.0,29.98,1010.6,10.0,30.0,,CLR
2020-05-12 04:00:00,31455.839461,FST,62.1,55.0,77.53,210.0,17.0,29.97,1009.8,10.0,30.0,,CLR
2020-05-12 05:00:00,31448.237791,FST,61.0,54.0,77.72,230.0,14.0,29.95,1009.9,10.0,30.0,,CLR
2020-05-12 06:00:00,32327.0388,FST,61.0,54.0,77.72,230.0,16.0,29.96,1011.0,10.0,27.0,,CLR
2020-05-12 07:00:00,33800.300115,FST,59.0,53.1,80.75,230.0,11.0,29.97,1011.5,10.0,,,CLR
2020-05-12 08:00:00,35192.006834,FST,62.1,54.0,74.75,240.0,15.0,29.99,1011.9,10.0,33.0,,CLR
2020-05-12 09:00:00,36963.763979,FST,66.9,54.0,63.21,230.0,17.0,29.99,1011.9,10.0,30.0,,CLR
2020-05-12 10:00:00,38795.585528,FST,72.0,55.9,56.89,240.0,19.0,29.99,1011.7,10.0,36.0,,CLR
2020-05-12 11:00:00,40639.1427,FST,75.9,55.0,48.3,260.0,11.0,29.99,1011.4,10.0,17.0,,CLR
2020-05-12 12:00:00,42155.597824,FST,80.1,54.0,40.54,250.0,11.0,29.98,1010.7,10.0,20.0,80.04,CLR
2020-05-12 13:00:00,43352.185168,FST,82.9,51.1,33.27,280.0,15.0,29.97,1010.2,10.0,,81.45,CLR
2020-05-12 14:00:00,44445.000238,FST,84.0,51.1,32.1,290.0,13.0,29.96,1009.7,10.0,,82.23,CLR
2020-05-12 15:00:00,45427.15076,FST,84.9,48.9,28.74,310.0,11.0,29.94,1008.7,10.0,,82.63,CLR
2020-05-12 16:00:00,45998.609265,FST,88.0,48.9,26.03,310.0,10.0,29.91,1007.8,10.0,,85.13,CLR
2020-05-12 17:00:00,46262.220474,FST,88.0,48.0,25.17,310.0,8.0,29.89,1007.0,10.0,,85.02,CLR
2020-05-12 18:00:00,45948.582414,FST,89.1,48.0,24.31,290.0,10.0,29.87,1006.4,10.0,,85.97,CLR
2020-05-12 19:00:00,45031.430139,FST,88.0,46.9,24.15,280.0,9.0,29.86,1006.2,10.0,,84.9,CLR
2020-05-12 20:00:00,43670.152355,FST,84.0,53.1,34.56,220.0,15.0,29.85,1006.1,10.0,26.0,82.52,CLR
2020-05-12 21:00:00,43150.494553,FST,80.1,54.0,40.54,180.0,17.0,29.85,1006.3,10.0,23.0,80.04,CLR
2020-05-12 22:00:00,42305.573335,FST,77.0,54.0,44.9,190.0,16.0,29.87,1006.7,10.0,23.0,,CLR
2020-05-12 23:00:00,40094.378906,FST,73.9,55.0,51.64,180.0,17.0,29.88,1007.0,10.0,22.0,,CLR
2020-05-13 00:00:00,37321.432149,FST,73.0,61.0,66.04,180.0,18.0,29.88,1006.9,10.0,33.0,,CLR
2020-05-13 01:00:00,35054.776617,FST,72.0,61.0,68.31,180.0,17.0,29.88,1006.6,10.0,31.0,,CLR
2020-05-13 02:00:00,33519.028978,FST,71.1,61.0,70.42,180.0,19.0,29.87,1006.2,10.0,37.0,,CLR
2020-05-13 03:00:00,32433.878775,FST,71.1,61.0,70.42,180.0,22.0,29.86,1006.0,10.0,41.0,,CLR
2020-05-13 04:00:00,31738.695467,FST,71.1,60.1,68.21,180.0,20.0,29.86,1005.7,10.0,41.0,,CLR
2020-05-13 05:00:00,31731.196605,FST,68.0,60.1,75.84,180.0,21.0,29.86,1006.3,10.0,40.0,,CLR
2020-05-13 06:00:00,32604.612825,FST,66.9,61.0,81.33,300.0,20.0,29.92,1008.3,10.0,41.0,,CLR
2020-05-13 07:00:00,34200.576672,FST,68.0,61.0,81.33,210.0,20.0,29.92,1008.1,10.0,39.0,,FEW
2020-05-13 08:00:00,35476.438127,FST,66.9,62.1,84.56,190.0,18.0,29.94,1009.2,10.0,37.0,,FEW
2020-05-13 09:00:00,37331.426619,FST,68.0,62.1,87.24,180.0,17.0,29.94,1009.5,10.0,29.0,,FEW
2020-05-13 10:00:00,39521.098211,FST,71.1,63.0,75.58,200.0,14.0,29.94,1009.4,10.0,24.0,,SCT
2020-05-13 11:00:00,41685.325332,FST,75.9,62.1,62.3,190.0,15.0,29.94,1008.5,10.0,23.0,,CLR
2020-05-13 12:00:00,43804.14442,FST,82.9,59.0,44.34,200.0,13.0,29.92,1007.9,10.0,21.0,82.86,CLR
2020-05-13 13:00:00,45708.026913,FST,84.0,59.0,42.8,210.0,16.0,29.91,1007.4,10.0,22.0,83.75,CLR
2020-05-13 14:00:00,47622.836596,FST,88.0,57.9,36.21,230.0,15.0,29.9,1006.4,10.0,24.0,86.96,CLR
2020-05-13 15:00:00,49285.497005,FST,88.0,53.1,30.41,240.0,18.0,29.87,1005.5,10.0,38.0,85.8,CLR
2020-05-13 16:00:00,50778.361806,FST,86.0,55.9,38.28,230.0,15.0,29.85,1005.1,10.0,21.0,84.46,BKN
2020-05-13 17:00:00,51832.865858,FST,71.1,60.8,73.09,300.0,19.0,29.85,1005.9,10.0,17.0,,FEW
2020-05-13 18:00:00,52121.479317,FST,75.9,61.0,70.42,190.0,16.0,29.83,1004.2,10.0,23.0,,SCT
2020-05-13 19:00:00,51410.105176,FST,71.1,59.0,65.58,160.0,21.0,29.83,1006.0,10.0,35.0,,CLR
2020-05-13 20:00:00,49543.494118,FST,70.0,55.9,60.89,180.0,22.0,29.81,1005.3,10.0,38.0,,CLR
2020-05-13 21:00:00,48520.435043,FST,69.1,53.1,56.7,190.0,23.0,29.83,1006.0,10.0,41.0,,CLR
2020-05-13 22:00:00,47202.615537,FST,66.9,53.1,61.16,190.0,26.0,29.84,1006.3,10.0,41.0,,CLR
2020-05-13 23:00:00,44303.594191,FST,68.0,55.9,65.22,190.0,24.0,29.86,1006.6,10.0,41.0,,CLR
2020-05-14 00:00:00,41030.30938,FST,68.0,60.1,75.84,200.0,20.0,29.87,1006.7,10.0,38.0,,CLR
2020-05-14 01:00:00,38298.087691,FST,69.1,62.1,78.39,200.0,18.0,29.88,1006.9,10.0,39.0,,CLR
2020-05-14 02:00:00,36459.374505,FST,69.1,63.0,80.92,200.0,15.0,29.88,1006.9,10.0,29.0,,CLR
2020-05-14 03:00:00,35091.446039,FST,68.0,64.0,87.03,200.0,18.0,29.88,1006.8,10.0,40.0,,CLR
2020-05-14 04:00:00,34295.728948,FST,68.0,63.0,84.03,190.0,18.0,29.88,1007.1,10.0,38.0,,CLR
2020-05-14 05:00:00,34071.815612,FST,66.9,62.1,84.56,200.0,16.0,29.88,1007.8,10.0,35.0,,CLR
2020-05-14 06:00:00,34626.334163,FST,64.0,62.1,93.54,220.0,16.0,29.89,1008.3,10.0,38.0,,CLR
2020-05-14 07:00:00,35944.289049,FST,64.0,60.1,87.14,220.0,16.0,29.91,1008.8,10.0,29.0,,CLR
2020-05-14 08:00:00,37135.736491,FST,66.0,59.0,78.14,230.0,15.0,29.93,1009.4,10.0,30.0,,CLR
2020-05-14 09:00:00,39125.167282,FST,71.1,59.0,65.58,240.0,15.0,29.93,1009.3,10.0,23.0,,CLR
2020-05-14 10:00:00,41711.05436,FST,77.0,57.9,51.72,250.0,17.0,29.94,1009.7,10.0,,,CLR
2020-05-14 11:00:00,44445.845226,FST,82.0,48.9,31.56,270.0,14.0,29.94,1009.3,10.0,,80.61,CLR
2020-05-14 12:00:00,47336.792139,FST,84.9,43.0,22.98,280.0,15.0,29.94,1008.7,10.0,,82.13,CLR
2020-05-14 13:00:00,50141.214382,FST,88.0,39.9,18.47,300.0,16.0,29.93,1008.3,10.0,17.0,84.41,CLR
2020-05-14 14:00:00,52802.875755,FST,90.0,39.0,16.74,280.0,15.0,29.92,1007.4,10.0,25.0,86.07,CLR
2020-05-14 15:00:00,54966.480193,FST,90.0,37.0,15.48,300.0,11.0,29.9,1006.3,10.0,,86.0,CLR
2020-05-14 16:00:00,56669.404852,FST,91.9,37.9,15.11,290.0,11.0,29.86,1005.5,10.0,,87.69,CLR
2020-05-14 17:00:00,57712.547869,FST,91.9,39.0,15.77,300.0,8.0,29.84,1004.5,10.0,,87.74,CLR
2020-05-14 18:00:00,57850.809023,FST,91.0,39.9,16.8,260.0,10.0,29.81,1004.1,10.0,14.0,86.98,CLR
2020-05-14 19:00:00,56488.497425,FST,88.0,52.0,29.21,180.0,7.0,29.8,1003.9,10.0,,85.6,CLR
2020-05-14 20:00:00,53708.116215,FST,84.9,55.0,35.99,140.0,11.0,29.79,1004.0,10.0,23.0,83.56,CLR
2020-05-14 21:00:00,51772.732115,FST,80.1,55.9,43.44,360.0,10.0,29.81,1004.7,10.0,16.0,80.29,CLR
2020-05-14 22:00:00,50013.018921,FST,81.0,59.0,47.17,170.0,15.0,29.82,1004.8,10.0,35.0,81.4,CLR
2020-05-14 23:00:00,46812.078313,FST,78.1,62.1,57.92,200.0,11.0,29.83,1004.8,10.0,19.0,,CLR
2020-05-15 00:00:00,43225.145877,FST,77.0,64.0,64.21,200.0,14.0,29.84,1005.0,10.0,23.0,,CLR
2020-05-15 01:00:00,40150.317519,FST,75.9,64.0,66.6,200.0,13.0,29.83,1004.6,10.0,22.0,,CLR
2020-05-15 02:00:00,37799.582786,FST,73.0,64.0,73.4,240.0,14.0,29.83,1004.7,10.0,22.0,,CLR
2020-05-15 03:00:00,36218.937244,FST,72.0,64.0,75.92,250.0,16.0,29.82,1004.4,10.0,19.0,,CLR
2020-05-15 04:00:00,35257.259387,FST,73.0,64.0,73.4,240.0,18.0,29.81,1003.6,10.0,25.0,,CLR
2020-05-15 05:00:00,35044.532751,FST,72.0,64.0,75.92,180.0,17.0,29.8,1003.8,10.0,22.0,,CLR
2020-05-15 06:00:00,35712.9136,FST,70.0,64.0,81.27,230.0,15.0,29.82,1004.6,10.0,21.0,,CLR
2020-05-15 07:00:00,37181.643399,FST,71.1,64.0,78.28,230.0,16.0,29.84,1005.2,10.0,21.0,,CLR
2020-05-15 08:00:00,38424.268925,FST,70.0,64.0,81.27,240.0,16.0,29.86,1006.1,10.0,19.0,,CLR
2020-05-15 09:00:00,40402.676452,FST,75.9,57.9,53.64,240.0,13.0,29.86,1006.2,10.0,19.0,,CLR
2020-05-15 10:00:00,42827.330213,FST,80.1,45.0,28.99,270.0,14.0,29.86,1005.8,10.0,,79.18,CLR
2020-05-15 11:00:00,45742.884547,FST,81.0,41.0,24.14,290.0,15.0,29.86,1005.9,10.0,,79.43,CLR
2020-05-15 12:00:00,48254.050783,FST,84.0,37.9,19.41,280.0,15.0,29.86,1005.8,10.0,,81.25,CLR
2020-05-15 13:00:00,50383.834916,FST,84.9,37.0,18.2,280.0,14.0,29.86,1006.0,10.0,,81.88,CLR
2020-05-15 14:00:00,52278.212185,FST,86.0,37.0,17.57,300.0,11.0,29.86,1005.0,10.0,,82.72,CLR
2020-05-15 15:00:00,52925.059334,FST,84.9,37.0,18.2,290.0,14.0,29.83,1004.4,10.0,,81.88,CLR
2020-05-15 16:00:00,52582.982975,FST,81.0,42.1,25.19,250.0,16.0,29.81,1003.9,10.0,21.0,79.49,CLR
2020-05-15 17:00:00,52505.605413,FST,80.1,39.9,23.82,230.0,17.0,29.79,1002.1,10.0,18.0,78.93,CLR
2020-05-15 18:00:00,52063.16717,FST,78.1,39.9,25.44,220.0,21.0,29.74,1002.3,10.0,45.0,,CLR
2020-05-15 19:00:00,50573.260323,FST,75.9,44.1,32.17,190.0,19.0,29.74,1002.6,10.0,39.0,,CLR
2020-05-15 20:00:00,48015.380846,FST,73.9,45.0,35.6,190.0,18.0,29.75,1003.0,10.0,41.0,,CLR
2020-05-15 21:00:00,46084.445943,FST,72.0,45.0,37.96,200.0,20.0,29.76,1003.0,10.0,43.0,,CLR
2020-05-15 22:00:00,43847.118641,FST,70.0,46.0,42.2,190.0,17.0,29.83,1004.8,10.0,20.0,,CLR
2020-05-15 23:00:00,40965.224556,FST,68.0,46.9,46.76,70.0,13.0,29.83,1005.3,10.0,20.0,,CLR
2020-05-16 00:00:00,38040.292235,FST,66.0,48.0,52.22,70.0,13.0,29.84,1005.7,10.0,20.0,,CLR
2020-05-16 01:00:00,35446.404872,FST,63.0,48.9,59.98,70.0,13.0,29.82,1004.6,10.0,20.0,,CLR
2020-05-16 02:00:00,33544.843652,FST,62.1,48.9,61.91,70.0,13.0,29.81,1005.0,10.0,20.0,,CLR
2020-05-16 03:00:00,32155.957058,FST,62.1,48.0,59.86,70.0,13.0,29.81,1004.4,10.0,20.0,,CLR
2020-05-16 04:00:00,31105.36479,FST,61.0,48.9,64.37,70.0,13.0,29.83,1005.6,10.0,20.0,,CLR
2020-05-16 05:00:00,30121.049572,FST,59.0,51.1,75.02,70.0,13.0,29.85,1006.3,10.0,20.0,,CLR
2020-05-16 06:00:00,29873.599987,FST,57.0,52.0,83.33,70.0,13.0,29.86,1006.8,10.0,20.0,,CLR
2020-05-16 07:00:00,30178.466884,FST,55.0,52.0,89.59,70.0,13.0,29.86,1007.2,10.0,20.0,,CLR
2020-05-16 08:00:00,30639.22025,FST,57.9,53.1,84.0,70.0,13.0,29.86,1007.2,10.0,20.0,,CLR
2020-05-16 09:00:00,31918.846214,FST,62.1,53.1,72.33,70.0,13.0,29.87,1007.6,10.0,20.0,,CLR
2020-05-16 10:00:00,33596.979771,FST,64.9,53.1,65.56,70.0,13.0,29.89,1007.8,10.0,20.0,,CLR
2020-05-16 11:00:00,35259.065317,FST,70.0,53.1,54.98,70.0,13.0,29.89,1008.0,10.0,20.0,,CLR
2020-05-16 12:00:00,36844.226657,FST,73.0,55.0,53.23,,,29.92,1008.9,10.0,,,CLR
2020-05-16 13:00:00,38075.869433,FST,75.9,55.0,48.3,,,29.92,1008.5,10.0,,,CLR
2020-05-16 14:00:00,39138.982354,FST,79.0,54.0,42.03,,,29.9,1007.8,10.0,,,CLR
2020-05-16 15:00:00,40243.794372,FST,82.0,52.0,35.41,,,29.89,1007.2,10.0,,,CLR
2020-05-16 16:00:00,41410.434139,FST,84.0,51.1,32.1,,,29.87,1006.4,10.0,,,CLR
2020-05-16 17:00:00,42187.716894,FST,84.9,51.1,31.19,,,29.85,1005.7,10.0,,,CLR
2020-05-16 18:00:00,42479.74395,FST,86.0,51.1,30.11,,,29.83,1005.6,10.0,,,CLR
2020-05-16 19:00:00,42204.374624,FST,84.0,50.0,30.82,,,29.84,1006.3,10.0,,,CLR
2020-05-16 20:00:00,41214.750751,FST,82.9,48.9,30.65,,,29.85,1006.3,10.0,,,CLR
2020-05-16 21:00:00,40570.305008,FST,78.1,52.0,40.23,,,29.87,1007.4,10.0,,,CLR
2020-05-16 22:00:00,39609.003548,FST,75.0,53.1,46.44,,,29.88,1007.7,10.0,,,CLR
2020-05-16 23:00:00,37630.987506,FST,73.0,55.0,53.23,,,29.92,1008.9,10.0,,,CLR
2020-05-17 00:00:00,35356.694368,FST,71.1,55.0,56.77,,,29.94,1009.7,10.0,,,CLR
2020-05-17 01:00:00,33252.37542,FST,68.0,55.0,63.12,,,29.95,1010.0,10.0,,,CLR
2020-05-17 02:00:00,31613.028973,FST,68.0,55.0,63.12,,,29.95,1009.8,10.0,,,CLR
2020-05-17 03:00:00,30435.543032,FST,66.9,55.9,67.74,,,29.96,1009.8,10.0,,,CLR
2020-05-17 04:00:00,29649.022623,FST,66.0,55.9,69.88,,,29.96,1009.7,10.0,,,CLR
2020-05-17 05:00:00,29170.449933,FST,64.9,55.9,72.61,,,29.97,1010.2,10.0,,,CLR
2020-05-17 06:00:00,29056.135063,FST,63.0,55.9,77.61,,,29.97,1010.5,10.0,,,CLR
2020-05-17 07:00:00,29079.324381,FST,64.0,55.9,74.93,,,29.99,1011.0,10.0,,,CLR
2020-05-17 08:00:00,29397.834645,FST,64.0,57.0,77.97,,,30.02,1012.0,10.0,,,CLR
2020-05-17 09:00:00,31151.076915,FST,66.9,57.9,72.81,,,30.04,1012.9,10.0,,,CLR
2020-05-17 10:00:00,33541.246157,FST,73.0,59.0,61.5,,,30.05,1013.2,10.0,,,CLR
2020-05-17 11:00:00,35943.63234,FST,77.0,60.1,55.95,,,30.06,1013.5,10.0,,,CLR
2020-05-17 12:00:00,38447.959691,FST,82.0,60.1,47.49,,,30.06,1013.3,10.0,,,CLR
2020-05-17 13:00:00,41212.402037,FST,82.9,57.9,42.63,,,30.06,1012.9,10.0,,,CLR
2020-05-17 14:00:00,43650.15581,FST,86.0,55.9,35.9,,,30.05,1012.2,10.0,,,CLR
2020-05-17 15:00:00,45887.323563,FST,87.1,55.0,33.55,,,30.03,1011.5,10.0,,,CLR
2020-05-17 16:00:00,47878.351573,FST,89.1,55.0,31.49,,,30.01,1010.2,10.0,,,CLR
2020-05-17 17:00:00,49465.356391,FST,90.0,53.1,28.55,,,29.98,1009.2,10.0,,,CLR
2020-05-17 18:00:00,50377.225926,FST,90.0,51.1,26.52,,,29.95,1009.0,10.0,,,CLR
2020-05-17 19:00:00,49977.305104,FST,89.1,52.0,28.21,,,29.94,1008.7,10.0,,,CLR
2020-05-17 20:00:00,48100.930033,FST,86.0,52.0,31.13,,,29.93,1008.9,10.0,,,CLR
2020-05-17 21:00:00,46099.556101,FST,82.9,53.1,35.81,,,29.94,1009.4,10.0,,,CLR
2020-05-17 22:00:00,44471.661459,FST,79.0,55.0,43.59,,,29.95,1009.7,10.0,,,CLR
2020-05-17 23:00:00,41476.889876,FST,77.0,55.9,48.12,,,29.97,1010.0,10.0,,,CLR
2020-05-18 00:00:00,38103.73371,FST,75.0,57.0,53.52,,,29.97,1009.7,10.0,,,CLR
2020-05-18 01:00:00,35182.042316,FST,73.9,57.0,55.53,,,29.97,1009.4,10.0,,,CLR
2020-05-18 02:00:00,33018.91291,FST,73.0,57.0,57.23,,,29.96,1008.9,10.0,,,CLR
2020-05-18 03:00:00,31557.430062,FST,72.0,57.0,59.2,,,29.94,1008.5,10.0,,,CLR
2020-05-18 04:00:00,30759.885337,FST,70.0,55.9,60.89,,,29.93,1008.2,10.0,,,CLR
2020-05-18 05:00:00,30627.682349,FST,66.9,55.0,65.56,,,29.93,1008.4,10.0,,,CLR
2020-05-18 06:00:00,31469.735662,FST,69.1,55.0,60.78,,,29.93,1008.3,10.0,,,CLR
2020-05-18 07:00:00,32796.470913,FST,71.1,54.0,54.73,,,29.93,1008.3,10.0,,,CLR
2020-05-18 08:00:00,34516.472253,FST,72.0,55.0,55.06,,,29.95,1009.2,10.0,,,CLR
2020-05-18 09:00:00,37196.827621,FST,78.1,55.0,44.9,,,29.96,1009.4,10.0,,,CLR
2020-05-18 10:00:00,40270.692009,FST,84.0,53.1,34.56,,,29.97,1009.5,10.0,,,CLR
2020-05-18 11:00:00,43674.51554,FST,90.0,50.0,25.46,,,29.98,1009.7,10.0,,,CLR
2020-05-18 12:00:00,47035.234566,FST,93.9,48.9,21.64,,,29.98,1009.4,10.0,,,CLR
2020-05-18 13:00:00,50403.643252,FST,97.0,43.0,15.73,0.0,0.0,29.97,1008.9,,,,CLR
2020-05-18 14:00:00,53610.528103,FST,98.1,50.0,19.82,310.0,11.0,29.96,1008.3,10.0,,95.04,CLR
2020-05-18 15:00:00,56265.616231,FST,98.1,48.0,18.39,150.0,14.0,29.93,1007.4,10.0,14.0,94.63,CLR
2020-05-18 16:00:00,58396.619032,FST,97.0,48.0,19.02,170.0,8.0,29.91,1006.9,10.0,,93.52,CLR
2020-05-18 17:00:00,59778.427894,FST,100.0,48.9,17.96,110.0,13.0,29.89,1006.1,10.0,18.0,96.75,FEW
2020-05-18 18:00:00,60221.533701,FST,99.0,46.0,16.6,340.0,14.0,29.87,1005.6,10.0,17.0,95.17,CLR
2020-05-18 19:00:00,59251.439135,FST,97.0,46.0,17.64,140.0,18.0,29.86,1005.6,10.0,21.0,93.19,CLR
2020-05-18 20:00:00,56571.877902,FST,93.0,46.0,19.95,140.0,16.0,29.86,1005.7,10.0,22.0,89.31,CLR
2020-05-18 21:00:00,54027.45387,FST,88.0,48.0,25.17,140.0,13.0,29.87,1006.2,10.0,,85.02,CLR
2020-05-18 22:00:00,51899.126268,FST,86.0,55.0,34.74,140.0,13.0,29.89,1006.6,10.0,,84.46,CLR
2020-05-18 23:00:00,48154.02762,FST,82.9,57.9,42.63,150.0,14.0,29.89,1006.6,10.0,20.0,82.6,CLR
2020-05-19 00:00:00,44005.191243,FST,82.0,57.9,43.89,150.0,16.0,29.9,1006.6,10.0,21.0,81.92,CLR
2020-05-19 01:00:00,40391.712051,FST,80.1,57.9,46.7,160.0,15.0,29.9,1006.2,10.0,20.0,80.58,CLR
2020-05-19 02:00:00,37706.030606,FST,77.0,57.0,50.07,160.0,15.0,29.89,1006.0,10.0,21.0,,CLR
2020-05-19 03:00:00,35758.614797,FST,75.9,57.0,51.93,160.0,14.0,29.88,1005.5,10.0,,,CLR
2020-05-19 04:00:00,34512.642654,FST,73.9,55.9,53.36,170.0,14.0,29.86,1005.3,10.0,,,CLR
2020-05-19 05:00:00,34043.155583,FST,71.1,55.0,56.77,200.0,9.0,29.86,1005.3,10.0,,,CLR
2020-05-19 06:00:00,34685.002342,FST,72.0,52.0,49.33,210.0,8.0,29.85,1005.3,10.0,,,CLR
2020-05-19 07:00:00,35832.940415,FST,73.9,51.1,44.76,230.0,10.0,29.86,1005.5,10.0,,,CLR
2020-05-19 08:00:00,37466.230218,FST,75.9,52.0,43.28,250.0,13.0,29.89,1006.5,10.0,,,CLR
2020-05-19 09:00:00,40366.811316,FST,82.0,53.1,36.87,230.0,11.0,29.89,1006.5,10.0,,81.11,CLR
2020-05-19 10:00:00,43611.675726,FST,88.0,55.0,32.6,270.0,5.0,29.9,1006.6,10.0,,86.2,CLR
2020-05-19 11:00:00,47375.111778,FST,91.9,50.0,23.99,270.0,7.0,29.9,1006.4,10.0,,88.84,CLR
2020-05-19 12:00:00,51386.514504,FST,95.0,51.1,22.7,300.0,7.0,29.89,1006.1,10.0,,92.11,CLR
2020-05-19 13:00:00,55324.294449,FST,98.1,46.0,17.06,220.0,10.0,29.88,1005.4,10.0,,94.28,CLR
2020-05-19 14:00:00,58735.688867,FST,100.0,44.1,14.98,200.0,14.0,29.86,1004.4,10.0,,95.84,CLR
2020-05-19 15:00:00,61430.63975,FST,100.9,44.1,14.58,180.0,14.0,29.83,1003.8,10.0,18.0,96.72,CLR
2020-05-19 16:00:00,63453.12579,FST,97.0,50.0,24.68,270.0,14.0,29.81,1003.7,10.0,19.0,92.58,CLR
2020-05-19 17:00:00,64368.17153,FST,87.1,50.0,27.91,330.0,17.0,29.82,1004.1,10.0,22.0,84.51,CLR
2020-05-19 18:00:00,64396.100206,FST,82.9,50.0,31.93,310.0,22.0,29.83,1005.0,10.0,31.0,81.32,FEW
2020-05-19 19:00:00,62779.624114,FST,88.0,46.0,23.34,310.0,20.0,29.82,1004.5,10.0,28.0,84.81,FEW
2020-05-19 20:00:00,59597.713576,FST,84.0,52.0,35.41,300.0,22.0,29.85,1005.2,10.0,30.0,82.23,FEW
2020-05-19 21:00:00,56956.660801,FST,82.0,48.9,31.56,250.0,22.0,29.86,1005.7,10.0,26.0,80.61,CLR
2020-05-19 22:00:00,54347.31581,FST,79.0,52.0,39.06,340.0,8.0,29.86,1005.8,10.0,,,FEW
2020-05-19 23:00:00,50429.65597,FST,82.9,48.0,30.51,200.0,14.0,29.86,1005.1,10.0,20.0,81.01,CLR
2020-05-20 00:00:00,46512.398204,FST,81.0,46.9,30.24,270.0,11.0,29.85,1004.7,10.0,,79.83,CLR
2020-05-20 01:00:00,43155.377355,FST,75.0,50.0,41.41,240.0,13.0,29.84,1004.6,10.0,,,CLR
2020-05-20 02:00:00,40679.261941,FST,73.9,48.9,41.24,220.0,13.0,29.83,1004.2,10.0,,,CLR
2020-05-20 03:00:00,38857.260545,FST,72.0,50.0,45.81,210.0,9.0,29.83,1004.4,10.0,,,CLR
2020-05-20 04:00:00,37528.574757,FST,72.0,48.9,43.97,220.0,13.0,29.83,1004.6,10.0,,,CLR
2020-05-20 05:00:00,36893.125285,FST,75.0,46.9,36.87,210.0,16.0,29.82,1004.2,10.0,,,CLR
2020-05-20 06:00:00,37352.158385,FST,72.0,48.0,42.51,310.0,15.0,29.83,1005.0,10.0,16.0,,CLR
2020-05-20 07:00:00,38542.712127,FST,72.0,48.9,43.97,300.0,9.0,29.84,1005.1,10.0,,,CLR
2020-05-20 08:00:00,39698.832721,FST,72.0,52.0,49.33,260.0,9.0,29.87,1006.6,10.0,,,CLR
2020-05-20 09:00:00,41580.683009,FST,80.1,50.0,34.98,300.0,7.0,29.88,1006.5,10.0,,79.6,CLR
2020-05-20 10:00:00,43759.915189,FST,84.0,36.0,18.01,290.0,13.0,29.89,1006.9,10.0,,81.2,CLR
2020-05-20 11:00:00,46346.303931,FST,88.0,30.9,12.92,310.0,14.0,29.89,1006.5,10.0,17.0,84.22,CLR
2020-05-20 12:00:00,49281.591845,FST,91.0,32.0,12.29,320.0,13.0,29.89,1006.5,10.0,16.0,86.61,CLR
2020-05-20 13:00:00,52065.038005,FST,91.9,33.1,12.49,340.0,14.0,29.88,1006.1,10.0,16.0,87.44,CLR
2020-05-20 14:00:00,54553.469969,FST,93.0,33.1,12.07,350.0,11.0,29.87,1005.2,10.0,,88.29,CLR
2020-05-20 15:00:00,56576.377992,FST,96.1,34.0,11.37,350.0,8.0,29.84,1004.5,10.0,,90.89,CLR
2020-05-20 16:00:00,58086.396265,FST,97.0,34.0,11.06,360.0,8.0,29.82,1003.4,10.0,,91.64,CLR
2020-05-20 17:00:00,58882.973072,FST,91.9,37.9,15.11,340.0,8.0,29.79,1002.8,10.0,,87.69,CLR
2020-05-20 18:00:00,58921.885593,FST,91.9,34.0,12.95,310.0,18.0,29.78,1001.4,10.0,22.0,87.56,CLR
2020-05-20 19:00:00,57525.333788,FST,93.9,37.9,14.2,130.0,7.0,29.73,1000.5,10.0,,89.48,CLR
2020-05-20 20:00:00,54947.431241,FST,79.0,48.9,34.81,160.0,23.0,29.75,1002.7,10.0,31.0,,CLR
2020-05-20 21:00:00,53172.727411,FST,78.1,48.0,34.67,160.0,22.0,29.76,1002.5,10.0,27.0,,CLR
2020-05-20 22:00:00,51258.09471,FST,75.9,48.9,38.57,170.0,15.0,29.78,1003.3,10.0,,,CLR
2020-05-20 23:00:00,48069.181337,FST,73.9,50.0,42.97,170.0,11.0,29.81,1004.2,10.0,,,CLR
2020-05-21 00:00:00,44483.285277,FST,75.0,48.9,39.75,170.0,13.0,29.82,1004.3,10.0,,,CLR
2020-05-21 01:00:00,41111.823135,FST,75.0,51.1,43.14,170.0,15.0,29.82,1004.4,10.0,,,CLR
2020-05-21 02:00:00,38553.329892,FST,73.0,54.0,51.33,170.0,17.0,29.83,1004.5,10.0,19.0,,CLR
2020-05-21 03:00:00,36665.724016,FST,72.0,54.0,53.09,150.0,13.0,29.86,1005.4,10.0,17.0,,CLR
2020-05-21 04:00:00,35583.645093,FST,71.1,54.0,56.82,140.0,11.0,29.86,1005.7,10.0,,,CLR
2020-05-21 05:00:00,35256.325077,FST,68.0,54.0,60.86,160.0,11.0,29.87,1006.1,10.0,16.0,,CLR
2020-05-21 06:00:00,35999.213471,FST,66.0,54.0,65.21,160.0,11.0,29.87,1006.3,10.0,,,CLR
2020-05-21 07:00:00,37429.265255,FST,64.9,54.0,67.76,180.0,9.0,29.86,1006.0,10.0,,,CLR
2020-05-21 08:00:00,38921.347086,FST,69.1,54.0,58.6,200.0,10.0,29.87,1006.8,10.0,,,CLR
2020-05-21 09:00:00,41173.148856,FST,73.0,55.0,53.23,210.0,9.0,29.86,1006.6,10.0,,,CLR
2020-05-21 10:00:00,43857.659491,FST,81.0,35.1,19.15,300.0,14.0,29.88,1006.7,10.0,17.0,79.17,CLR
2020-05-21 11:00:00,46591.711378,FST,84.9,33.1,15.59,300.0,15.0,29.89,1006.9,10.0,19.0,81.81,CLR
2020-05-21 12:00:00,49155.493621,FST,89.1,30.0,12.03,320.0,16.0,29.89,1006.5,10.0,21.0,84.95,CLR
2020-05-21 13:00:00,51582.671069,FST,90.0,27.0,10.34,340.0,17.0,29.88,1005.9,10.0,21.0,85.35,CLR
2020-05-21 14:00:00,53789.521513,FST,91.0,28.0,10.44,330.0,14.0,29.86,1005.4,10.0,19.0,86.19,CLR
2020-05-21 15:00:00,55639.769354,FST,93.0,28.0,9.81,320.0,11.0,29.85,1004.7,10.0,,87.7,CLR
2020-05-21 16:00:00,57248.628772,FST,93.0,28.0,9.81,350.0,11.0,29.83,1003.8,10.0,,87.7,CLR
2020-05-21 17:00:00,58222.084437,FST,93.9,28.9,9.9,350.0,6.0,29.8,1002.9,10.0,,88.48,CLR
2020-05-21 18:00:00,58214.744156,FST,95.0,30.9,10.38,290.0,5.0,29.77,1002.2,10.0,,89.56,CLR
2020-05-21 19:00:00,56914.31863,FST,93.9,32.0,11.23,330.0,5.0,29.75,1002.0,10.0,,88.85,CLR
2020-05-21 20:00:00,54718.657059,FST,91.9,30.9,11.43,280.0,11.0,29.75,1002.1,10.0,,87.17,CLR
2020-05-21 21:00:00,53156.093743,FST,86.0,34.0,15.6,150.0,9.0,29.77,1003.0,10.0,,82.66,CLR
2020-05-21 22:00:00,51862.147494,FST,82.0,39.9,22.39,150.0,9.0,29.8,1003.8,10.0,,79.98,CLR
2020-05-21 23:00:00,48863.371112,FST,80.1,64.9,59.83,170.0,11.0,29.82,1004.3,10.0,,81.91,CLR
2020-05-22 00:00:00,45468.772881,FST,77.0,63.0,62.0,350.0,11.0,29.84,1005.0,10.0,,,CLR
2020-05-22 01:00:00,42447.637926,FST,75.9,64.0,66.6,360.0,5.0,29.85,1005.4,10.0,,,CLR
2020-05-22 02:00:00,40079.610779,FST,75.9,64.0,66.6,130.0,8.0,29.87,1005.9,10.0,,,CLR
2020-05-22 03:00:00,38587.237152,FST,75.0,64.0,68.64,140.0,8.0,29.87,1005.8,10.0,,,CLR
2020-05-22 04:00:00,37546.297541,FST,73.9,64.0,71.21,140.0,10.0,29.86,1005.5,10.0,,,CLR
2020-05-22 05:00:00,37275.763275,FST,71.1,64.0,78.28,160.0,7.0,29.85,1005.5,10.0,,,CLR
2020-05-22 06:00:00,37860.537088,FST,68.0,61.0,78.3,220.0,11.0,29.87,1006.1,10.0,,,CLR
2020-05-22 07:00:00,39009.042601,FST,66.9,50.0,54.54,220.0,13.0,29.88,1006.5,10.0,,,CLR
2020-05-22 08:00:00,40345.426477,FST,68.0,48.0,48.73,220.0,11.0,29.89,1007.1,10.0,,,CLR
2020-05-22 09:00:00,42903.374041,FST,75.0,46.9,36.87,230.0,11.0,29.91,1007.4,10.0,,,CLR
2020-05-22 10:00:00,46441.485862,FST,81.0,39.9,23.13,240.0,8.0,29.92,1007.9,10.0,,79.37,CLR
2020-05-22 11:00:00,49730.500904,FST,86.0,30.0,13.28,350.0,4.0,29.92,1007.8,10.0,,82.64,CLR
2020-05-22 12:00:00,52745.167909,FST,89.1,30.9,12.48,330.0,7.0,29.92,1007.5,10.0,,85.04,CLR
2020-05-22 13:00:00,55618.091779,FST,89.1,32.0,13.05,360.0,5.0,29.91,1007.4,10.0,,85.15,CLR
2020-05-22 14:00:00,58150.808301,FST,91.9,26.1,9.39,340.0,5.0,29.91,1006.6,10.0,,86.69,CLR
2020-05-22 15:00:00,60106.042925,FST,91.9,28.0,10.15,320.0,5.0,29.88,1006.0,10.0,,86.87,CLR
2020-05-22 16:00:00,61249.942576,FST,93.0,28.9,10.18,230.0,7.0,29.87,1005.2,10.0,,87.79,CLR
2020-05-22 17:00:00,61907.083591,FST,93.9,30.0,10.36,300.0,11.0,29.84,1004.1,10.0,14.0,88.6,CLR
2020-05-22 18:00:00,61650.739914,FST,93.9,34.0,12.17,150.0,11.0,29.81,1003.7,10.0,,89.13,CLR
2020-05-22 19:00:00,60112.776014,FST,91.9,45.0,19.88,150.0,10.0,29.8,1003.4,10.0,,88.17,CLR
2020-05-22 20:00:00,57445.006363,FST,90.0,48.0,23.63,140.0,13.0,29.79,1003.7,10.0,,86.78,CLR
2020-05-22 21:00:00,55359.500304,FST,87.1,55.9,34.66,130.0,13.0,29.8,1004.0,10.0,16.0,85.61,CLR
2020-05-22 22:00:00,53548.498706,FST,82.0,61.0,49.03,150.0,17.0,29.82,1004.3,10.0,19.0,82.62,CLR
2020-05-22 23:00:00,50588.424568,FST,80.1,64.0,57.98,150.0,16.0,29.84,1005.1,10.0,22.0,81.71,CLR
2020-05-23 00:00:00,47342.323038,FST,77.0,64.0,64.21,160.0,11.0,29.84,1005.1,10.0,,,CLR
2020-05-23 01:00:00,44287.202674,FST,75.9,62.1,62.3,160.0,9.0,29.84,1004.6,10.0,,,CLR
2020-05-23 02:00:00,41465.810466,FST,73.9,61.0,64.07,160.0,10.0,29.83,1003.6,10.0,,,CLR
2020-05-23 03:00:00,39415.958612,FST,70.0,60.1,70.81,180.0,9.0,29.79,1003.2,10.0,,,CLR
2020-05-23 04:00:00,38037.741353,FST,69.1,57.9,67.5,240.0,5.0,29.78,1003.2,10.0,,,CLR
2020-05-23 05:00:00,37209.866895,FST,69.1,57.0,65.35,240.0,4.0,29.8,1003.7,10.0,,,CLR
2020-05-23 06:00:00,36984.777077,FST,66.9,57.9,72.81,180.0,8.0,29.82,1004.6,10.0,,,CLR
2020-05-23 07:00:00,36814.473531,FST,64.9,57.9,78.05,360.0,6.0,29.86,1006.1,10.0,,,CLR
2020-05-23 08:00:00,37260.878773,FST,68.0,57.9,70.1,170.0,10.0,29.88,1006.8,10.0,,,CLR
2020-05-23 09:00:00,39540.635555,FST,73.9,57.9,57.36,160.0,11.0,29.89,1006.9,10.0,,,CLR
2020-05-23 10:00:00,42405.5335,FST,80.1,57.9,46.7,160.0,11.0,29.9,1006.8,10.0,,80.58,CLR
2020-05-23 11:00:00,45524.20455,FST,84.9,46.9,26.66,270.0,11.0,29.9,1006.9,10.0,,82.42,CLR
2020-05-23 12:00:00,48888.09367,FST,88.0,43.0,20.82,290.0,7.0,29.89,1006.4,10.0,,84.58,CLR
2020-05-23 13:00:00,51910.14959,FST,89.1,37.0,15.92,210.0,5.0,29.88,1005.9,10.0,,85.23,CLR
2020-05-23 14:00:00,54385.05698,FST,91.9,39.9,16.34,240.0,7.0,29.86,1005.2,10.0,,87.78,CLR
2020-05-23 15:00:00,56344.252765,FST,86.0,60.1,41.74,240.0,14.0,29.83,1004.6,10.0,19.0,85.81,CLR
2020-05-23 16:00:00,57703.98283,FST,84.9,63.0,52.38,160.0,22.0,29.81,1003.9,10.0,32.0,85.83,CLR
2020-05-23 17:00:00,58451.98552,FST,78.1,53.1,45.06,180.0,35.0,29.84,1004.6,10.0,53.0,,FEW
2020-05-23 18:00:00,58220.354367,FST,72.0,52.0,50.86,170.0,22.0,29.79,1004.5,10.0,24.0,,FEW
2020-05-23 19:00:00,56799.533638,FST,72.0,55.9,56.89,170.0,20.0,29.79,1004.0,10.0,24.0,,CLR
2020-05-23 20:00:00,54380.172515,FST,75.0,59.0,57.5,160.0,20.0,29.77,1003.4,10.0,19.0,,CLR
2020-05-23 21:00:00,52679.490651,FST,73.9,62.1,66.61,150.0,17.0,29.78,1003.8,10.0,22.0,,CLR
2020-05-23 22:00:00,51140.522685,FST,73.0,57.0,57.23,150.0,18.0,29.8,1004.3,10.0,25.0,,CLR
2020-05-23 23:00:00,48340.718137,FST,71.1,54.0,54.73,160.0,22.0,29.82,1004.7,10.0,28.0,,CLR
2020-05-24 00:00:00,45300.742125,FST,71.1,55.0,56.77,160.0,20.0,29.83,1004.9,10.0,26.0,,CLR
2020-05-24 01:00:00,42468.85828,FST,70.0,55.0,58.94,160.0,20.0,29.83,1004.5,10.0,27.0,,CLR
2020-05-24 02:00:00,40179.592209,FST,68.0,57.0,67.86,160.0,22.0,29.82,1004.4,10.0,27.0,,CLR
2020-05-24 03:00:00,38405.973829,FST,68.0,57.9,70.1,160.0,22.0,29.82,1004.4,10.0,28.0,,CLR
2020-05-24 04:00:00,36951.981015,FST,66.9,59.0,75.74,180.0,21.0,29.81,1004.9,10.0,28.0,,CLR
2020-05-24 05:00:00,35965.482285,FST,66.9,59.0,75.74,210.0,17.0,29.83,1005.4,10.0,22.0,,CLR
2020-05-24 06:00:00,35752.078241,FST,64.9,57.9,78.05,190.0,14.0,29.83,1006.0,10.0,,,CLR
2020-05-24 07:00:00,35773.158576,FST,64.0,57.9,80.54,170.0,11.0,29.84,1006.3,10.0,,,CLR
2020-05-24 08:00:00,36432.305543,FST,64.9,57.9,78.05,170.0,10.0,29.85,1006.7,10.0,,,CLR
2020-05-24 09:00:00,38787.269591,FST,73.9,57.9,57.36,200.0,13.0,29.85,1006.0,10.0,,,CLR
2020-05-24 10:00:00,42125.029188,FST,80.1,59.0,48.58,210.0,14.0,29.85,1006.1,10.0,,80.76,CLR
2020-05-24 11:00:00,45407.437937,FST,84.9,46.0,25.77,270.0,11.0,29.85,1005.7,10.0,,82.35,CLR
2020-05-24 12:00:00,48281.100324,FST,89.1,32.0,13.05,330.0,13.0,29.84,1005.1,10.0,17.0,85.15,CLR
2020-05-24 13:00:00,50622.453621,FST,90.0,34.0,13.74,350.0,10.0,29.83,1004.7,10.0,,85.93,CLR
2020-05-24 14:00:00,52263.326496,FST,90.0,32.0,12.68,350.0,10.0,29.82,1003.8,10.0,,85.84,CLR
2020-05-24 15:00:00,52465.472612,FST,91.0,37.0,15.0,320.0,10.0,29.79,1002.5,10.0,,86.86,FEW
2020-05-24 16:00:00,51481.300073,FST,79.0,63.0,58.04,150.0,15.0,29.76,1002.3,10.0,21.0,,CLR
2020-05-24 17:00:00,50308.27035,FST,73.9,54.0,49.79,160.0,14.0,29.73,1001.3,10.0,,,CLR
2020-05-24 18:00:00,49096.153947,FST,73.9,52.0,46.27,180.0,14.0,29.74,1002.8,10.0,,,CLR
2020-05-24 19:00:00,47178.432743,FST,80.1,45.0,28.99,210.0,17.0,29.74,1001.0,10.0,24.0,79.18,SCT
2020-05-24 20:00:00,44935.3158,FST,81.0,48.9,43.97,160.0,18.0,29.71,1001.8,10.0,25.0,79.68,CLR
2020-05-24 21:00:00,43194.569263,FST,68.0,50.0,52.51,150.0,20.0,29.74,1002.6,10.0,25.0,,CLR
2020-05-24 22:00:00,41315.355003,FST,66.0,48.0,52.22,170.0,18.0,29.73,1001.1,10.0,22.0,,CLR
2020-05-24 23:00:00,39323.865325,FST,66.0,46.0,48.43,170.0,17.0,29.72,1001.5,10.0,,,CLR
2020-05-25 00:00:00,36971.937849,FST,64.0,46.9,53.72,160.0,13.0,29.76,1002.8,10.0,17.0,,CLR
2020-05-25 01:00:00,34595.485333,FST,64.0,46.9,53.72,160.0,14.0,29.77,1003.3,10.0,,,CLR
2020-05-25 02:00:00,32721.616215,FST,64.0,50.0,60.34,160.0,14.0,29.78,1003.0,10.0,17.0,,CLR
2020-05-25 03:00:00,31458.390609,FST,64.9,48.9,56.12,160.0,17.0,29.79,1003.4,10.0,,,CLR
2020-05-25 04:00:00,30740.140749,FST,62.1,48.0,59.86,120.0,11.0,29.79,1004.5,10.0,,,CLR
2020-05-25 05:00:00,30580.262411,FST,60.1,48.9,66.46,140.0,11.0,29.79,1004.5,10.0,,,CLR
2020-05-25 06:00:00,30754.149877,FST,63.0,52.0,67.29,150.0,11.0,29.78,1004.2,10.0,,,CLR
2020-05-25 07:00:00,31281.676523,FST,61.0,52.0,72.22,160.0,12.0,29.78,1003.8,10.0,,,CLR
2020-05-25 08:00:00,31555.83738,FST,61.0,53.1,75.2,160.0,11.0,29.78,1004.3,10.0,,,CLR
2020-05-25 09:00:00,33084.272125,FST,68.0,54.0,60.86,190.0,10.0,29.78,1004.4,10.0,,,CLR
2020-05-25 10:00:00,35157.141625,FST,72.0,43.0,35.16,290.0,19.0,29.82,1005.4,10.0,22.0,,CLR
2020-05-25 11:00:00,37336.027095,FST,71.6,51.8,49.64,320.0,18.0,29.86,1007.0,10.0,,,CLR
2020-05-25 12:00:00,39256.52998,FST,72.0,53.1,51.37,330.0,18.0,29.88,1007.9,10.0,22.0,,FEW
2020-05-25 13:00:00,40732.669858,FST,75.0,54.0,47.99,350.0,17.0,29.88,1007.5,10.0,,,FEW
2020-05-25 14:00:00,41748.745381,FST,79.0,53.1,40.67,360.0,16.0,29.88,1007.2,10.0,20.0,,FEW
2020-05-25 15:00:00,42502.143244,FST,79.0,52.0,39.06,360.0,15.0,29.87,1006.9,10.0,22.0,,CLR
2020-05-25 16:00:00,43177.880807,FST,78.1,55.0,44.9,360.0,19.0,29.88,1007.4,10.0,26.0,,BKN
2020-05-25 17:00:00,43746.399988,FST,79.0,54.0,42.03,360.0,16.0,29.88,1007.3,10.0,23.0,,SCT
2020-05-25 18:00:00,44037.528101,FST,78.1,52.0,40.23,360.0,15.0,29.88,1007.6,10.0,,,FEW
2020-05-25 19:00:00,43457.528556,FST,77.0,52.0,41.72,360.0,17.0,29.89,1008.1,10.0,,,SCT
2020-05-25 20:00:00,42305.915611,FST,75.9,52.0,43.28,360.0,14.0,29.91,1008.9,10.0,19.0,,FEW
2020-05-25 21:00:00,41991.985946,FST,72.0,52.0,49.33,360.0,11.0,29.95,1010.0,10.0,,,CLR
2020-05-25 22:00:00,41382.502586,FST,69.1,52.0,54.45,360.0,9.0,29.97,1010.7,10.0,,,CLR
2020-05-25 23:00:00,39170.972423,FST,66.9,53.1,61.16,80.0,7.0,30.0,1011.9,10.0,,,CLR
2020-05-26 00:00:00,36370.68751,FST,64.9,53.1,65.56,90.0,5.0,30.02,1012.7,10.0,,,CLR
2020-05-26 01:00:00,33952.375925,FST,64.0,53.1,67.66,70.0,5.0,30.03,1012.7,10.0,,,CLR
2020-05-26 02:00:00,32250.513533,FST,62.1,52.0,69.46,360.0,7.0,30.03,1012.3,10.0,,,SCT
2020-05-26 03:00:00,31034.525779,FST,60.1,52.0,74.57,360.0,5.0,30.02,1012.6,10.0,,,CLR
2020-05-26 04:00:00,30334.238498,FST,59.0,52.0,77.55,360.0,5.0,30.03,1013.0,10.0,,,CLR
2020-05-26 05:00:00,30309.507295,FST,57.9,52.0,80.67,360.0,4.0,30.06,1013.8,10.0,,,CLR
2020-05-26 06:00:00,31139.318888,FST,55.9,51.1,83.88,360.0,4.0,30.06,1014.0,10.0,,,CLR
2020-05-26 07:00:00,32561.472759,FST,55.9,52.0,86.71,60.0,4.0,30.07,1014.5,10.0,,,CLR
2020-05-26 08:00:00,33888.36363,FST,57.9,53.1,84.0,170.0,3.0,30.08,1014.9,10.0,,,CLR
2020-05-26 09:00:00,35706.30179,FST,63.0,55.0,75.11,100.0,5.0,30.09,1014.9,10.0,,,CLR
2020-05-26 10:00:00,37684.249566,FST,66.9,55.9,67.74,210.0,5.0,30.09,1015.2,10.0,,,CLR
2020-05-26 11:00:00,39856.31885,FST,71.1,55.0,56.77,350.0,5.0,30.09,1015.0,10.0,,,CLR
2020-05-26 12:00:00,41952.863248,FST,73.0,52.0,47.69,340.0,5.0,30.09,1014.9,10.0,,,SCT
2020-05-26 13:00:00,43965.375366,FST,73.9,46.0,36.98,350.0,5.0,30.09,1014.5,10.0,,,FEW
2020-05-26 14:00:00,45906.524852,FST,75.9,43.0,30.85,360.0,8.0,30.07,1013.6,10.0,,,CLR
2020-05-26 15:00:00,47514.143214,FST,79.0,39.9,24.7,260.0,5.0,30.05,1012.6,10.0,,,CLR
2020-05-26 16:00:00,48594.675764,FST,82.0,39.9,22.39,330.0,8.0,30.02,1011.6,10.0,,79.98,CLR
2020-05-26 17:00:00,49223.855724,FST,81.0,37.9,21.39,160.0,8.0,30.0,1010.9,10.0,,79.28,CLR
2020-05-26 18:00:00,49333.660072,FST,82.9,37.9,20.11,320.0,7.0,29.97,1010.2,10.0,,80.49,CLR
2020-05-26 19:00:00,48485.929863,FST,82.0,37.0,19.99,210.0,8.0,29.95,1010.2,10.0,,79.86,CLR
2020-05-26 20:00:00,46751.283676,FST,81.0,37.0,20.65,120.0,5.0,29.95,1010.2,10.0,,79.24,CLR
2020-05-26 21:00:00,45284.78848,FST,78.1,39.0,24.56,140.0,8.0,29.96,1010.2,10.0,,,CLR
2020-05-26 22:00:00,43934.936639,FST,73.0,43.0,34.0,150.0,8.0,29.97,1010.8,10.0,,,CLR
2020-05-26 23:00:00,40776.930822,FST,70.0,45.0,40.63,160.0,9.0,29.98,1010.9,10.0,,,CLR
2020-05-27 00:00:00,37336.254543,FST,69.1,45.0,41.9,170.0,9.0,29.98,1010.7,10.0,,,CLR
2020-05-27 01:00:00,34502.65909,FST,69.1,43.0,38.82,170.0,11.0,29.97,1010.0,10.0,,,CLR
2020-05-27 02:00:00,32493.041146,FST,70.0,46.9,43.66,170.0,14.0,29.95,1009.1,10.0,,,CLR
2020-05-27 03:00:00,31144.079646,FST,69.1,48.9,48.53,180.0,11.0,29.93,1008.6,10.0,,,CLR
2020-05-27 04:00:00,30333.562499,FST,68.0,48.9,50.4,190.0,11.0,29.91,1008.2,10.0,,,CLR
2020-05-27 05:00:00,30306.829699,FST,64.0,48.0,55.99,190.0,8.0,29.91,1008.2,10.0,,,CLR
2020-05-27 06:00:00,31123.70934,FST,66.9,46.9,48.56,210.0,13.0,29.91,1008.0,10.0,,,CLR
2020-05-27 07:00:00,32455.582143,FST,64.9,46.0,50.32,210.0,13.0,29.9,1008.0,10.0,,,CLR
2020-05-27 08:00:00,34168.305908,FST,69.1,46.9,45.02,220.0,15.0,29.91,1008.2,10.0,,,CLR
2020-05-27 09:00:00,36827.932965,FST,75.0,48.9,39.75,220.0,15.0,29.92,1008.3,10.0,,,CLR
2020-05-27 10:00:00,39633.806754,FST,81.0,51.1,35.38,230.0,14.0,29.92,1008.4,10.0,,80.23,CLR
2020-05-27 11:00:00,42659.537774,FST,87.1,48.0,25.9,250.0,13.0,29.92,1008.0,10.0,,84.27,CLR
2020-05-27 12:00:00,45623.523537,FST,91.0,42.1,18.3,310.0,9.0,29.92,1007.8,10.0,,87.11,CLR
2020-05-27 13:00:00,48411.311082,FST,91.9,42.1,17.79,360.0,11.0,29.91,1007.3,10.0,,87.92,CLR
2020-05-27 14:00:00,50962.370379,FST,93.9,39.9,15.35,360.0,14.0,29.9,1006.9,10.0,19.0,89.6,CLR
2020-05-27 15:00:00,52963.83397,FST,93.0,37.9,14.6,340.0,13.0,29.89,1006.1,10.0,14.0,88.67,CLR
2020-05-27 16:00:00,54040.227044,FST,95.0,37.9,13.73,360.0,9.0,29.87,1005.3,10.0,,90.48,CLR
2020-05-27 17:00:00,52482.507795,FST,96.1,37.9,13.27,360.0,11.0,29.84,1005.1,10.0,,91.49,CLR
2020-05-27 18:00:00,50522.834132,FST,96.1,37.9,13.27,360.0,11.0,29.83,1004.6,10.0,,91.49,CLR
2020-05-27 19:00:00,49132.717242,FST,95.0,36.0,12.73,360.0,11.0,29.83,1004.6,10.0,,90.32,CLR
2020-05-27 20:00:00,47022.003814,FST,93.0,35.1,13.07,360.0,9.0,29.83,1004.8,10.0,,88.56,CLR
2020-05-27 21:00:00,45475.480234,FST,84.9,39.0,19.69,60.0,8.0,29.85,1005.7,10.0,,81.95,CLR
2020-05-27 22:00:00,43883.684252,FST,82.0,39.0,21.62,70.0,10.0,29.88,1006.4,10.0,,79.94,CLR
2020-05-27 23:00:00,41038.668264,FST,82.0,39.0,21.62,110.0,13.0,29.91,1007.2,10.0,21.0,79.94,CLR
2020-05-28 00:00:00,37855.770419,FST,79.0,43.0,27.84,100.0,16.0,29.93,1008.1,10.0,,,CLR
2020-05-28 01:00:00,35207.218273,FST,75.9,48.9,38.57,130.0,11.0,29.94,1008.4,10.0,,,CLR
2020-05-28 02:00:00,33353.552007,FST,75.0,51.1,43.14,130.0,11.0,29.95,1008.6,10.0,15.0,,CLR
2020-05-28 03:00:00,31907.824477,FST,73.9,51.1,44.76,140.0,13.0,29.95,1008.1,10.0,18.0,,CLR
2020-05-28 04:00:00,31170.251153,FST,73.0,59.0,61.5,150.0,16.0,29.93,1007.8,10.0,23.0,,CLR
2020-05-28 05:00:00,31149.207859,FST,72.0,63.0,73.31,150.0,16.0,29.94,1008.3,10.0,19.0,,CLR
2020-05-28 06:00:00,32001.330143,FST,70.0,63.0,78.46,150.0,13.0,29.94,1008.5,10.0,18.0,,CLR
2020-05-28 07:00:00,33350.243149,FST,69.1,63.0,80.92,170.0,11.0,29.97,1009.5,10.0,,,CLR
2020-05-28 08:00:00,34958.16477,FST,71.1,64.0,78.28,140.0,9.0,29.99,1010.2,10.0,,,CLR
2020-05-28 09:00:00,37059.754902,FST,73.0,64.9,75.75,120.0,10.0,30.01,1011.1,10.0,,,CLR
2020-05-28 10:00:00,39539.266645,FST,75.0,64.9,70.83,110.0,10.0,30.02,1011.4,10.0,,,CLR
2020-05-28 11:00:00,42578.552911,FST,77.0,64.9,66.27,120.0,9.0,30.03,1012.0,10.0,,,CLR
2020-05-28 12:00:00,45748.500535,FST,80.1,64.0,57.98,110.0,10.0,30.05,1012.5,10.0,,81.71,CLR
2020-05-28 13:00:00,48722.802679,FST,82.9,63.0,51.1,100.0,14.0,30.06,1012.8,10.0,,83.98,CLR
2020-05-28 14:00:00,51430.501164,FST,84.0,60.1,44.51,90.0,16.0,30.07,1013.3,10.0,19.0,84.05,CLR
2020-05-28 15:00:00,53132.272334,FST,88.0,57.0,35.05,80.0,17.0,30.07,1011.2,10.0,25.0,86.71,FEW
2020-05-28 16:00:00,54161.519013,FST,89.1,51.1,27.29,90.0,19.0,30.02,1011.5,10.0,19.0,86.42,FEW
2020-05-28 17:00:00,54060.441415,FST,89.1,50.0,26.19,110.0,15.0,30.03,1011.4,10.0,21.0,86.25,CLR
2020-05-28 18:00:00,53252.293873,FST,89.1,48.9,25.14,100.0,13.0,30.02,1011.4,10.0,,86.09,CLR
2020-05-28 19:00:00,51582.486258,FST,87.1,53.1,31.3,120.0,20.0,30.04,1012.2,10.0,,85.01,BKN
2020-05-28 20:00:00,49114.794537,FST,84.9,44.1,23.97,100.0,16.0,30.06,1013.1,10.0,19.0,82.2,BKN
2020-05-28 21:00:00,47451.669137,FST,81.0,44.1,27.2,70.0,14.0,30.1,1014.4,10.0,,79.62,CLR
2020-05-28 22:00:00,46231.304035,FST,77.0,44.1,31.02,70.0,11.0,30.13,1015.8,10.0,,,CLR
2020-05-28 23:00:00,43365.16122,FST,75.0,45.0,34.31,90.0,10.0,30.17,1017.1,10.0,,,CLR
2020-05-29 00:00:00,40014.380166,FST,73.9,45.0,35.6,130.0,10.0,30.19,1017.6,10.0,,,CLR
2020-05-29 01:00:00,37118.910816,FST,70.0,59.0,68.09,150.0,9.0,30.2,1018.0,10.0,,,CLR
2020-05-29 02:00:00,34936.213882,FST,68.0,59.0,72.92,160.0,5.0,30.2,1018.1,10.0,,,CLR
2020-05-29 03:00:00,33469.032953,FST,64.9,57.9,78.05,160.0,5.0,30.2,1018.1,10.0,,,CLR
2020-05-29 04:00:00,32484.096194,FST,63.0,55.9,77.61,150.0,4.0,30.2,1017.8,10.0,,,CLR
2020-05-29 05:00:00,32150.002138,FST,62.1,57.0,83.36,160.0,7.0,30.2,1018.2,10.0,,,CLR
2020-05-29 06:00:00,32835.885923,FST,62.1,55.9,80.11,170.0,7.0,30.22,1018.9,10.0,,,CLR
2020-05-29 07:00:00,33974.335999,FST,60.1,55.0,83.23,170.0,4.0,30.24,1019.7,10.0,,,CLR
2020-05-29 08:00:00,35584.543459,FST,66.0,55.9,69.88,180.0,4.0,30.25,1020.0,10.0,,,CLR
2020-05-29 09:00:00,38042.208897,FST,70.0,55.9,60.89,110.0,5.0,30.28,1020.7,10.0,,,CLR
2020-05-29 10:00:00,40793.693453,FST,73.0,57.0,57.23,100.0,9.0,30.28,1020.8,10.0,,,CLR
2020-05-29 11:00:00,43618.887872,FST,75.9,55.9,49.91,110.0,11.0,30.27,1020.4,10.0,14.0,,CLR
2020-05-29 12:00:00,46456.142077,FST,79.0,54.0,42.03,100.0,10.0,30.27,1020.2,10.0,,,CLR
2020-05-29 13:00:00,48782.329473,FST,81.0,53.1,38.09,120.0,11.0,30.26,1019.9,10.0,,80.47,CLR
2020-05-29 14:00:00,50859.511553,FST,81.0,53.1,38.09,140.0,11.0,30.25,1019.5,10.0,16.0,80.47,CLR
2020-05-29 15:00:00,52573.058228,FST,84.0,53.1,34.56,170.0,11.0,30.24,1018.7,10.0,19.0,82.52,SCT
2020-05-29 16:00:00,53900.214201,FST,84.9,48.9,28.74,150.0,13.0,30.21,1018.2,10.0,,,FEW
2020-05-29 17:00:00,54574.90381,FST,84.9,46.0,25.77,130.0,13.0,30.19,1017.6,10.0,16.0,82.35,FEW
2020-05-29 18:00:00,54424.357225,FST,86.0,45.0,23.95,130.0,14.0,30.18,1017.1,10.0,17.0,83.1,CLR
2020-05-29 19:00:00,52779.717458,FST,86.0,46.9,25.74,120.0,16.0,30.16,1016.8,10.0,19.0,83.27,CLR
2020-05-29 20:00:00,50132.130128,FST,84.0,46.0,26.52,130.0,14.0,30.16,1016.6,10.0,17.0,81.69,CLR
2020-05-29 21:00:00,48005.052469,FST,80.1,46.0,30.11,120.0,11.0,30.16,1017.0,10.0,,79.26,CLR
2020-05-29 22:00:00,46391.915593,FST,77.0,46.9,34.5,100.0,10.0,30.18,1017.3,10.0,,,CLR
2020-05-29 23:00:00,43493.76007,FST,73.9,46.9,38.26,110.0,10.0,30.2,1018.2,10.0,,,CLR
2020-05-30 00:00:00,40227.925318,FST,71.1,48.0,43.83,160.0,8.0,30.22,1018.8,10.0,,,CLR
2020-05-30 01:00:00,37188.484083,FST,72.0,48.9,43.97,140.0,9.0,30.21,1018.5,10.0,,,CLR
2020-05-30 02:00:00,34821.487027,FST,68.0,50.0,52.51,150.0,8.0,30.21,1018.2,10.0,,,CLR
2020-05-30 03:00:00,33238.51568,FST,68.0,51.1,54.7,160.0,8.0,30.2,1018.0,10.0,,,CLR
2020-05-30 04:00:00,31967.181119,FST,64.0,50.0,60.34,170.0,7.0,30.2,1018.1,10.0,,,CLR
2020-05-30 05:00:00,31301.295645,FST,64.0,50.0,60.34,170.0,8.0,30.2,1018.1,10.0,,,CLR
2020-05-30 06:00:00,31231.053325,FST,62.1,50.0,64.5,170.0,7.0,30.2,1018.3,10.0,,,CLR
2020-05-30 07:00:00,31317.764296,FST,62.1,51.1,67.19,170.0,7.0,30.21,1018.6,10.0,,,CLR
2020-05-30 08:00:00,32202.386867,FST,64.0,52.0,64.97,160.0,7.0,30.22,1019.0,10.0,,,CLR
2020-05-30 09:00:00,34592.963754,FST,70.0,52.0,52.8,160.0,10.0,30.23,1019.3,10.0,,,CLR
2020-05-30 10:00:00,37457.547594,FST,73.9,53.1,48.18,160.0,16.0,30.23,1019.2,10.0,19.0,,CLR
2020-05-30 11:00:00,40563.638105,FST,77.0,51.1,40.36,160.0,15.0,30.23,1018.7,10.0,19.0,,CLR
2020-05-30 12:00:00,43746.692666,FST,78.1,48.9,35.86,150.0,17.0,30.21,1018.5,10.0,20.0,,CLR
2020-05-30 13:00:00,46618.113853,FST,81.0,48.0,31.52,170.0,13.0,30.21,1017.9,10.0,24.0,79.92,CLR
2020-05-30 14:00:00,48851.373588,FST,82.0,48.0,30.51,150.0,17.0,30.19,1017.1,10.0,21.0,80.53,CLR
2020-05-30 15:00:00,50609.483691,FST,84.0,46.0,26.52,150.0,14.0,30.17,1016.2,10.0,18.0,81.69,CLR
2020-05-30 16:00:00,52072.327761,FST,84.9,46.9,26.66,160.0,14.0,30.14,1015.3,10.0,18.0,82.42,CLR
2020-05-30 17:00:00,52865.070589,FST,84.9,45.0,24.81,140.0,15.0,30.11,1014.5,10.0,19.0,82.27,CLR
2020-05-30 18:00:00,52787.777839,FST,84.9,45.0,24.81,150.0,16.0,30.09,1014.1,10.0,21.0,82.27,CLR
2020-05-30 19:00:00,51740.772862,FST,84.9,44.1,23.97,130.0,15.0,30.07,1013.6,10.0,18.0,82.2,CLR
2020-05-30 20:00:00,49671.885062,FST,82.0,48.0,30.51,180.0,11.0,30.07,1014.0,10.0,,80.53,CLR
2020-05-30 21:00:00,47524.436086,FST,79.0,48.0,33.66,170.0,13.0,30.08,1014.2,10.0,,,CLR
2020-05-30 22:00:00,45944.837098,FST,75.0,48.9,39.75,160.0,9.0,30.09,1014.5,10.0,,,CLR
2020-05-30 23:00:00,43378.762493,FST,72.0,48.9,43.97,160.0,7.0,30.1,1014.9,10.0,,,CLR
2020-05-31 00:00:00,40541.133009,FST,69.1,48.9,48.53,160.0,7.0,30.12,1015.5,10.0,,,CLR
2020-05-31 01:00:00,37873.071374,FST,66.0,48.9,54.01,170.0,5.0,30.12,1015.6,10.0,,,CLR
2020-05-31 02:00:00,35664.79483,FST,64.9,48.0,54.26,160.0,4.0,30.12,1015.6,10.0,,,CLR
2020-05-31 03:00:00,33920.935545,FST,63.0,48.9,59.98,170.0,5.0,30.12,1015.6,10.0,,,CLR
2020-05-31 04:00:00,32714.508183,FST,64.0,50.0,60.34,160.0,8.0,30.12,1015.4,10.0,,,CLR
2020-05-31 05:00:00,31993.81686,FST,63.0,50.0,62.49,160.0,8.0,30.12,1015.6,10.0,,,CLR
2020-05-31 06:00:00,31711.640928,FST,62.1,50.0,64.5,160.0,8.0,30.12,1015.6,10.0,,,CLR
2020-05-31 07:00:00,31454.102429,FST,60.1,50.0,69.24,170.0,7.0,30.15,1016.5,10.0,,,CLR
2020-05-31 08:00:00,32118.2127,FST,61.0,51.1,69.86,180.0,6.0,30.17,1017.5,10.0,,,CLR
2020-05-31 09:00:00,34469.004392,FST,66.9,52.0,58.74,160.0,7.0,30.19,1018.0,10.0,,,CLR
2020-05-31 10:00:00,37490.844252,FST,73.0,52.0,47.69,160.0,14.0,30.2,1018.2,10.0,,,CLR
2020-05-31 11:00:00,40483.76647,FST,72.0,52.0,49.33,140.0,14.0,30.2,1018.6,10.0,,,CLR
2020-05-31 12:00:00,43535.749393,FST,73.9,52.0,46.27,150.0,12.0,30.2,1018.4,10.0,17.0,,CLR
2020-05-31 13:00:00,46057.198301,FST,79.0,51.1,37.78,150.0,13.0,30.19,1017.6,10.0,17.0,,CLR
2020-05-31 14:00:00,47401.481532,FST,79.0,51.1,37.78,150.0,15.0,30.17,1016.8,10.0,18.0,,CLR
2020-05-31 15:00:00,48070.63048,FST,81.0,54.0,39.37,160.0,14.0,30.15,1016.1,10.0,19.0,80.59,CLR
2020-05-31 16:00:00,48203.504181,FST,82.9,55.9,39.66,150.0,15.0,30.13,1015.1,10.0,18.0,82.2,CLR
2020-05-31 17:00:00,48008.769325,FST,82.9,55.0,38.38,140.0,15.0,30.11,1014.8,10.0,22.0,82.03,CLR
2020-05-31 18:00:00,47885.260497,FST,82.0,57.0,42.49,140.0,19.0,30.09,1014.5,10.0,22.0,81.75,FEW
2020-05-31 19:00:00,47048.007785,FST,80.1,57.0,45.21,140.0,16.0,30.08,1014.5,10.0,,80.45,CLR
2020-05-31 20:00:00,45717.446167,FST,77.0,57.0,50.07,140.0,17.0,30.09,1015.1,10.0,,,CLR
2020-05-31 21:00:00,44946.754537,FST,75.9,57.9,53.64,140.0,15.0,30.1,1014.9,10.0,,,CLR
2020-05-31 22:00:00,44163.050291,FST,75.9,55.9,49.91,130.0,13.0,30.09,1014.6,10.0,,,CLR
2020-05-31 23:00:00,41963.799962,FST,73.0,59.0,61.5,140.0,15.0,30.12,1015.6,10.0,,,CLR
2020-06-01 00:00:00,39071.540676,FST,72.0,59.0,63.61,150.0,15.0,30.13,1015.8,10.0,22.0,,CLR
2020-06-01 01:00:00,36511.076135,FST,70.0,60.1,70.81,150.0,16.0,30.13,1015.8,10.0,18.0,,CLR
2020-06-01 02:00:00,34635.368793,FST,69.1,61.0,75.4,140.0,14.0,30.13,1015.9,10.0,21.0,,CLR
2020-06-01 03:00:00,33359.790755,FST,68.0,61.0,78.3,140.0,15.0,30.13,1015.6,10.0,19.0,,BKN
2020-06-01 04:00:00,32640.839211,FST,66.9,61.0,81.33,140.0,13.0,30.12,1015.3,10.0,,,CLR
2020-06-01 05:00:00,32663.833371,FST,66.9,61.0,81.33,140.0,14.0,30.12,1015.4,10.0,15.0,,CLR
2020-06-01 06:00:00,33713.54001,FST,66.9,60.1,78.77,140.0,11.0,30.12,1015.4,10.0,15.0,,CLR
2020-06-01 07:00:00,35193.943147,FST,66.0,60.1,81.27,150.0,10.0,30.13,1016.1,10.0,,,CLR
2020-06-01 08:00:00,36557.549468,FST,66.0,61.0,83.91,160.0,9.0,30.15,1016.7,10.0,,,FEW
2020-06-01 09:00:00,38534.677956,FST,68.0,61.0,78.3,150.0,10.0,30.17,1017.5,10.0,,,CLR
2020-06-01 10:00:00,40654.463317,FST,70.0,59.0,68.09,160.0,11.0,30.19,1018.0,10.0,,,BKN
2020-06-01 11:00:00,42911.065287,FST,72.0,59.0,68.09,150.0,13.0,30.19,1017.9,10.0,16.0,,OVC
2020-06-01 12:00:00,45322.490648,FST,75.9,60.1,58.04,150.0,14.0,30.18,1017.4,10.0,18.0,,OVC
2020-06-01 13:00:00,47828.903378,FST,78.1,57.9,49.87,160.0,14.0,30.17,1016.9,10.0,19.0,,BKN
2020-06-01 14:00:00,49903.040198,FST,80.1,57.9,46.7,160.0,13.0,30.15,1015.6,10.0,17.0,80.58,CLR
2020-06-01 15:00:00,51412.177295,FST,82.9,57.9,42.63,140.0,16.0,30.12,1014.5,10.0,22.0,82.6,FEW
2020-06-01 16:00:00,52442.380745,FST,84.0,55.9,38.28,150.0,14.0,30.09,1013.8,10.0,21.0,83.03,CLR
2020-06-01 17:00:00,52546.200306,FST,84.0,55.9,38.28,140.0,16.0,30.07,1012.9,10.0,20.0,83.03,FEW
2020-06-01 18:00:00,52033.414464,FST,82.9,55.9,39.66,150.0,14.0,30.05,1012.8,10.0,,82.2,FEW
2020-06-01 19:00:00,51004.893457,FST,82.0,55.9,40.83,140.0,14.0,30.04,1012.7,10.0,,81.55,BKN
2020-06-01 20:00:00,49226.000135,FST,81.0,55.0,40.83,140.0,13.0,30.03,1012.4,10.0,,80.73,BKN
2020-06-01 21:00:00,48115.285653,FST,75.9,60.1,58.04,140.0,19.0,30.04,1013.1,10.0,24.0,,FEW
2020-06-01 22:00:00,46983.531891,FST,75.0,61.0,61.75,130.0,15.0,30.06,1013.6,10.0,,,CLR
2020-06-01 23:00:00,44141.466348,FST,73.0,61.0,66.04,130.0,13.0,30.08,1014.2,10.0,,,CLR
2020-06-02 00:00:00,40705.509216,FST,72.0,61.0,68.31,140.0,15.0,30.09,1014.7,10.0,,,CLR
2020-06-02 01:00:00,37820.14552,FST,70.0,62.1,76.01,150.0,15.0,30.1,1014.7,10.0,,,CLR
2020-06-02 02:00:00,35764.622289,FST,69.1,63.0,80.92,140.0,12.0,30.1,1014.2,10.0,,,CLR
2020-06-02 03:00:00,34392.215536,FST,69.1,62.1,78.39,140.0,13.0,30.08,1013.4,10.0,,,CLR
2020-06-02 04:00:00,33583.283776,FST,68.0,62.1,81.41,150.0,11.0,30.07,1013.6,10.0,,,CLR
2020-06-02 05:00:00,33558.36258,FST,68.0,62.1,81.41,140.0,8.0,30.07,1013.5,10.0,,,CLR
2020-06-02 06:00:00,34520.525025,FST,66.9,62.1,84.56,150.0,7.0,30.07,1013.9,10.0,,,CLR
2020-06-02 07:00:00,35954.874722,FST,66.0,62.1,87.24,140.0,7.0,30.08,1014.2,10.0,,,CLR
2020-06-02 08:00:00,37516.642739,FST,68.0,62.1,81.41,160.0,10.0,30.09,1014.4,10.0,,,CLR
2020-06-02 09:00:00,40047.968924,FST,71.1,63.0,75.58,160.0,11.0,30.1,1014.9,10.0,,,CLR
2020-06-02 10:00:00,43181.200529,FST,75.0,62.1,64.2,170.0,11.0,30.1,1014.8,10.0,,,CLR
2020-06-02 11:00:00,46750.053767,FST,79.0,62.1,56.23,170.0,10.0,30.1,1014.3,10.0,,,CLR
2020-06-02 12:00:00,50126.55201,FST,82.0,61.0,49.03,160.0,9.0,30.09,1014.0,10.0,,82.62,CLR
2020-06-02 13:00:00,53034.890057,FST,84.9,61.0,44.65,210.0,5.0,30.08,1013.5,10.0,,,CLR
2020-06-02 14:00:00,55644.196342,FST,86.0,57.9,38.58,350.0,5.0,30.07,1012.8,10.0,,85.16,SCT
2020-06-02 15:00:00,57518.336834,FST,89.1,61.0,39.06,210.0,10.0,30.05,1011.9,10.0,,,FEW
2020-06-02 16:00:00,58665.644686,FST,89.1,61.0,39.06,140.0,14.0,30.03,1011.2,10.0,19.0,89.11,FEW
2020-06-02 17:00:00,59181.792348,FST,89.1,61.0,39.06,150.0,10.0,30.01,1010.5,10.0,,89.11,CLR
2020-06-02 18:00:00,58686.042686,FST,89.1,60.1,37.83,150.0,13.0,29.99,1010.1,10.0,18.0,88.76,CLR
2020-06-02 19:00:00,57341.482478,FST,88.0,60.1,39.17,130.0,15.0,29.97,1010.1,10.0,20.0,87.69,CLR
2020-06-02 20:00:00,55003.612614,FST,86.0,60.1,41.74,140.0,16.0,29.98,1010.5,10.0,19.0,85.81,CLR
2020-06-02 21:00:00,52822.823602,FST,82.0,60.1,47.49,140.0,18.0,30.0,1011.1,10.0,23.0,82.4,CLR
2020-06-02 22:00:00,51249.077939,FST,79.0,61.0,54.08,130.0,17.0,30.02,1011.8,10.0,21.0,,CLR
2020-06-02 23:00:00,47986.577139,FST,77.0,61.0,57.77,140.0,15.0,30.05,1012.5,10.0,,,CLR
2020-06-03 00:00:00,44327.189678,FST,75.9,62.1,62.3,140.0,15.0,30.06,1012.8,10.0,22.0,,CLR
2020-06-03 01:00:00,41150.359389,FST,73.9,62.1,66.61,150.0,17.0,30.06,1012.4,10.0,24.0,,CLR
2020-06-03 02:00:00,38841.900908,FST,73.0,62.1,68.66,150.0,17.0,30.05,1012.1,10.0,23.0,,CLR
2020-06-03 03:00:00,37129.599279,FST,72.0,62.1,71.02,150.0,16.0,30.04,1011.5,10.0,21.0,,CLR
2020-06-03 04:00:00,36122.702666,FST,71.1,63.0,75.58,160.0,16.0,30.02,1011.5,10.0,22.0,,CLR
2020-06-03 05:00:00,35922.926256,FST,70.0,64.0,81.27,160.0,14.0,30.02,1011.3,10.0,,,CLR
2020-06-03 06:00:00,36648.424902,FST,69.1,64.0,83.81,160.0,13.0,30.01,1011.4,10.0,15.0,,CLR
2020-06-03 07:00:00,37768.277355,FST,69.1,64.0,83.81,150.0,10.0,30.02,1011.6,10.0,,,CLR
2020-06-03 08:00:00,39342.914168,FST,71.1,64.0,78.28,160.0,10.0,30.04,1012.1,10.0,,,CLR
2020-06-03 09:00:00,42184.358759,FST,73.9,64.9,73.49,160.0,13.0,30.04,1012.4,10.0,,,CLR
2020-06-03 10:00:00,45518.734285,FST,78.1,64.9,63.9,150.0,9.0,30.05,1012.6,10.0,,,CLR
2020-06-03 11:00:00,49084.064039,FST,82.9,63.0,51.1,150.0,8.0,30.05,1012.1,10.0,,83.98,CLR
2020-06-03 12:00:00,52658.178074,FST,86.0,62.1,44.81,130.0,9.0,30.04,1011.8,10.0,,86.52,CLR
2020-06-03 13:00:00,55821.988008,FST,87.1,61.0,41.62,110.0,11.0,30.03,1011.6,10.0,,87.15,CLR
2020-06-03 14:00:00,58186.913527,FST,89.1,60.1,37.83,120.0,10.0,30.02,1011.0,10.0,,88.76,CLR
2020-06-03 15:00:00,59539.095477,FST,91.0,59.0,34.27,140.0,11.0,30.0,1010.1,10.0,16.0,90.27,CLR
2020-06-03 16:00:00,59793.127502,FST,91.0,57.0,31.89,150.0,11.0,29.98,1009.4,10.0,,,CLR
2020-06-03 17:00:00,59637.01514,FST,91.9,57.9,32.03,120.0,14.0,29.96,1008.8,10.0,,90.8,CLR
2020-06-03 18:00:00,59632.751053,FST,91.9,55.9,29.8,130.0,10.0,29.94,1008.2,10.0,14.0,90.17,CLR
2020-06-03 19:00:00,58865.95415,FST,91.9,55.9,29.8,350.0,9.0,29.92,1007.8,10.0,,90.17,CLR
2020-06-03 20:00:00,56806.723937,FST,90.0,55.9,31.62,140.0,10.0,29.92,1007.8,10.0,,88.29,CLR
2020-06-03 21:00:00,54482.376363,FST,86.0,60.1,41.74,130.0,15.0,29.93,1008.4,10.0,,85.81,CLR
2020-06-03 22:00:00,52889.112568,FST,82.9,61.0,47.62,140.0,13.0,29.93,1008.3,10.0,17.0,83.37,CLR
2020-06-03 23:00:00,49516.278911,FST,81.0,61.0,50.65,150.0,13.0,29.96,1009.1,10.0,17.0,81.81,CLR
2020-06-04 00:00:00,45793.894872,FST,79.0,61.0,54.08,150.0,14.0,29.97,1009.4,10.0,,,CLR
2020-06-04 01:00:00,42567.452377,FST,77.0,62.1,60.06,150.0,16.0,29.97,1009.4,10.0,17.0,,CLR
2020-06-04 02:00:00,40130.365478,FST,75.9,62.1,62.3,160.0,13.0,29.97,1009.0,10.0,17.0,,CLR
2020-06-04 03:00:00,38498.607585,FST,75.0,62.1,64.2,160.0,12.0,29.95,1008.7,10.0,,,CLR
2020-06-04 04:00:00,37369.566663,FST,73.0,62.1,68.66,160.0,11.0,29.95,1008.3,10.0,,,CLR
2020-06-04 05:00:00,37028.847025,FST,72.0,62.1,71.02,170.0,11.0,29.93,1008.3,10.0,,,CLR
2020-06-04 06:00:00,37737.558574,FST,71.1,62.1,73.22,180.0,11.0,29.93,1008.2,10.0,,,CLR
2020-06-04 07:00:00,38892.581972,FST,69.1,62.1,78.39,180.0,10.0,29.95,1009.0,10.0,,,CLR
2020-06-04 08:00:00,40679.830806,FST,71.1,63.0,75.58,160.0,10.0,29.97,1009.8,10.0,,,CLR
2020-06-04 09:00:00,43813.63402,FST,75.9,64.9,68.73,160.0,15.0,29.98,1010.0,10.0,17.0,,CLR
2020-06-04 10:00:00,47224.496756,FST,81.0,64.0,56.3,170.0,15.0,29.98,1009.5,10.0,,82.54,CLR
2020-06-04 11:00:00,50923.84735,FST,87.1,57.9,37.25,180.0,15.0,29.98,1009.6,10.0,17.0,86.14,CLR
2020-06-04 12:00:00,54958.281027,FST,91.0,55.9,30.65,180.0,14.0,29.97,1009.1,10.0,17.0,89.27,CLR
2020-06-04 13:00:00,58647.652366,FST,93.9,50.0,22.55,170.0,10.0,29.96,1008.5,10.0,,90.79,CLR
2020-06-04 14:00:00,61652.909469,FST,96.1,48.9,20.22,160.0,13.0,29.94,1008.2,10.0,19.0,92.78,CLR
2020-06-04 15:00:00,63700.745072,FST,97.0,53.1,22.98,160.0,14.0,29.93,1007.6,10.0,19.0,94.67,CLR
2020-06-04 16:00:00,65058.588849,FST,98.1,54.0,22.97,150.0,16.0,29.92,1007.0,10.0,,96.1,CLR
2020-06-04 17:00:00,65668.067969,FST,96.1,54.0,24.42,150.0,16.0,29.9,1006.6,10.0,21.0,93.97,CLR
2020-06-04 18:00:00,65218.052786,FST,96.1,54.0,24.42,140.0,16.0,29.88,1006.0,10.0,22.0,93.97,CLR
2020-06-04 19:00:00,63449.440805,FST,95.0,52.0,23.47,150.0,16.0,29.87,1005.5,10.0,18.0,92.31,CLR
2020-06-04 20:00:00,60609.304406,FST,93.0,54.0,26.87,150.0,17.0,29.86,1005.8,10.0,18.0,90.76,CLR
2020-06-04 21:00:00,57967.29922,FST,89.1,55.9,32.53,150.0,16.0,29.87,1006.0,10.0,21.0,87.44,CLR
2020-06-04 22:00:00,56042.525125,FST,84.9,57.0,38.69,140.0,14.0,29.88,1006.4,10.0,19.0,83.99,CLR
2020-06-04 23:00:00,52428.706054,FST,82.9,60.1,46.12,160.0,18.0,29.9,1007.0,10.0,21.0,83.13,CLR
2020-06-05 00:00:00,48370.231195,FST,81.0,61.0,50.65,160.0,17.0,29.92,1007.4,10.0,23.0,81.81,CLR
2020-06-05 01:00:00,44745.40221,FST,79.0,61.0,54.08,160.0,18.0,29.92,1007.6,10.0,23.0,,CLR
2020-06-05 02:00:00,41941.712871,FST,78.1,61.0,55.71,150.0,20.0,29.94,1008.2,10.0,24.0,,CLR
2020-06-05 03:00:00,39896.954874,FST,77.0,63.0,62.0,140.0,17.0,29.95,1008.5,10.0,22.0,,CLR
2020-06-05 04:00:00,38514.687538,FST,75.0,64.0,68.64,140.0,17.0,29.96,1008.7,10.0,23.0,,CLR
2020-06-05 05:00:00,38074.702506,FST,73.9,64.0,71.21,150.0,20.0,29.95,1008.4,10.0,26.0,,CLR
2020-06-05 06:00:00,38648.210811,FST,73.0,63.0,70.87,170.0,17.0,29.94,1008.3,10.0,19.0,,CLR
2020-06-05 07:00:00,39484.63281,FST,73.0,63.0,70.87,180.0,13.0,29.95,1008.7,10.0,,,CLR
2020-06-05 08:00:00,41088.096715,FST,75.0,63.0,66.27,190.0,15.0,29.96,1009.0,10.0,18.0,,CLR
2020-06-05 09:00:00,44234.38074,FST,82.0,57.9,43.89,200.0,13.0,29.97,1009.1,10.0,17.0,81.92,CLR
2020-06-05 10:00:00,48157.343044,FST,86.0,57.0,37.35,200.0,11.0,30.0,1010.2,10.0,,84.92,CLR
2020-06-05 11:00:00,52185.775509,FST,88.0,57.0,35.05,130.0,13.0,30.01,1010.4,10.0,,86.71,CLR
2020-06-05 12:00:00,56085.823034,FST,91.0,55.0,29.66,140.0,15.0,30.0,1010.4,10.0,,89.03,CLR
2020-06-05 13:00:00,59398.372968,FST,93.0,52.0,24.97,160.0,14.0,30.0,1009.7,10.0,18.0,90.29,CLR
2020-06-05 14:00:00,62216.974338,FST,96.1,51.1,21.95,160.0,15.0,29.98,1009.2,10.0,18.0,93.23,CLR
2020-06-05 15:00:00,64111.311532,FST,97.0,48.9,19.67,160.0,15.0,29.97,1008.9,10.0,18.0,93.69,CLR
2020-06-05 16:00:00,65095.586705,FST,98.1,51.1,20.64,160.0,14.0,29.96,1008.4,10.0,18.0,95.3,CLR
2020-06-05 17:00:00,65465.832027,FST,97.0,51.1,21.35,150.0,17.0,29.94,1008.1,10.0,25.0,94.16,CLR
2020-06-05 18:00:00,65289.96674,FST,96.1,52.0,22.69,140.0,16.0,29.93,1007.7,10.0,22.0,93.44,CLR
2020-06-05 19:00:00,63802.70208,FST,95.0,54.0,25.26,130.0,17.0,29.92,1007.6,10.0,21.0,92.82,CLR
2020-06-05 20:00:00,61212.42582,FST,91.9,54.0,27.8,130.0,17.0,29.92,1007.8,10.0,24.0,89.66,CLR
2020-06-05 21:00:00,58273.937525,FST,89.1,55.0,31.49,140.0,17.0,29.94,1008.1,10.0,22.0,87.21,CLR
2020-06-05 22:00:00,56109.084815,FST,86.0,57.9,38.58,140.0,17.0,29.95,1008.7,10.0,19.0,85.16,CLR
2020-06-05 23:00:00,52574.669182,FST,82.9,59.0,44.34,150.0,15.0,29.97,1009.3,10.0,21.0,82.86,CLR
2020-06-06 00:00:00,48713.853132,FST,81.0,59.0,47.17,150.0,16.0,29.99,1009.8,10.0,21.0,81.4,CLR
2020-06-06 01:00:00,45063.239464,FST,79.0,61.0,54.08,140.0,15.0,29.99,1009.5,10.0,22.0,,CLR
2020-06-06 02:00:00,42212.935185,FST,77.0,61.0,57.77,140.0,15.0,29.98,1009.2,10.0,19.0,,CLR
2020-06-06 03:00:00,40044.766546,FST,75.0,62.1,64.2,140.0,14.0,29.96,1008.7,10.0,19.0,,CLR
2020-06-06 04:00:00,38383.189127,FST,73.9,62.1,66.61,150.0,13.0,29.95,1008.6,10.0,17.0,,CLR
2020-06-06 05:00:00,37331.810443,FST,73.0,62.1,68.66,140.0,12.0,29.95,1008.7,10.0,,,CLR
2020-06-06 06:00:00,36876.690092,FST,71.1,62.1,73.22,140.0,13.0,29.95,1008.8,10.0,16.0,,CLR
2020-06-06 07:00:00,36611.813614,FST,70.0,62.1,76.01,150.0,13.0,29.96,1009.1,10.0,,,CLR
2020-06-06 08:00:00,37902.917151,FST,71.1,63.0,75.58,140.0,14.0,29.96,1009.3,10.0,17.0,,CLR
2020-06-06 09:00:00,41581.628615,FST,75.9,63.0,64.31,160.0,15.0,29.99,1010.0,10.0,19.0,,CLR
2020-06-06 10:00:00,46264.302945,FST,79.0,63.0,58.04,160.0,15.0,30.01,1010.8,10.0,18.0,,CLR
2020-06-06 11:00:00,50873.058426,FST,82.9,62.1,49.51,170.0,19.0,30.01,1010.7,10.0,23.0,83.7,CLR
2020-06-06 12:00:00,55293.675872,FST,86.0,61.0,43.1,170.0,17.0,30.0,1010.2,10.0,22.0,86.12,CLR
2020-06-06 13:00:00,58737.570135,FST,88.0,60.1,39.17,160.0,17.0,29.99,1009.7,10.0,26.0,87.69,CLR
2020-06-06 14:00:00,61260.897338,FST,90.0,60.1,36.77,160.0,18.0,29.98,1009.0,10.0,23.0,89.66,CLR
2020-06-06 15:00:00,63082.02626,FST,91.9,57.0,31.0,150.0,17.0,29.95,1008.1,10.0,22.0,90.5,CLR
2020-06-06 16:00:00,64360.957972,FST,93.0,54.0,26.87,150.0,18.0,29.92,1007.1,10.0,23.0,90.76,CLR
2020-06-06 17:00:00,64817.265689,FST,93.0,54.0,26.87,160.0,18.0,29.9,1006.2,10.0,27.0,90.76,CLR
2020-06-06 18:00:00,64872.203468,FST,91.9,53.1,26.9,140.0,17.0,29.87,1005.9,10.0,23.0,89.45,CLR
2020-06-06 19:00:00,63681.62104,FST,91.0,50.0,24.68,160.0,19.0,29.86,1005.4,10.0,25.0,87.99,CLR
2020-06-06 20:00:00,60765.495259,FST,89.1,50.0,26.19,140.0,19.0,29.84,1005.1,10.0,28.0,86.25,CLR
2020-06-06 21:00:00,57637.959926,FST,86.0,52.0,31.13,140.0,18.0,29.84,1005.1,10.0,27.0,83.91,CLR
2020-06-06 22:00:00,55459.06675,FST,82.9,53.1,35.81,130.0,18.0,29.86,1005.9,10.0,22.0,81.73,CLR
2020-06-06 23:00:00,52069.516471,FST,81.0,54.0,39.37,130.0,16.0,29.88,1006.4,10.0,,80.59,CLR
2020-06-07 00:00:00,48614.98103,FST,80.1,54.0,40.54,140.0,16.0,29.89,1006.8,10.0,21.0,80.04,CLR
2020-06-07 01:00:00,45302.883319,FST,79.0,54.0,42.03,140.0,15.0,29.89,1006.3,10.0,22.0,,CLR
2020-06-07 02:00:00,42559.904995,FST,78.1,55.9,46.4,150.0,21.0,29.87,1005.5,10.0,26.0,,CLR
2020-06-07 03:00:00,40356.072134,FST,75.9,57.0,51.93,150.0,20.0,29.86,1005.5,10.0,27.0,,CLR
2020-06-07 04:00:00,38695.007444,FST,75.0,57.9,55.28,160.0,19.0,29.85,1004.5,10.0,27.0,,CLR
2020-06-07 05:00:00,37497.044771,FST,73.9,57.9,57.36,160.0,20.0,29.85,1005.2,10.0,22.0,,CLR
2020-06-07 06:00:00,36850.688776,FST,73.0,57.9,59.12,150.0,16.0,29.85,1005.2,10.0,21.0,,CLR
2020-06-07 07:00:00,36156.314124,FST,72.0,57.9,61.15,170.0,13.0,29.86,1005.9,10.0,19.0,,CLR
2020-06-07 08:00:00,37065.358866,FST,73.9,59.0,59.66,160.0,11.0,29.87,1006.2,10.0,17.0,,CLR
2020-06-07 09:00:00,40518.875512,FST,78.1,59.0,51.88,160.0,17.0,29.88,1006.3,10.0,18.0,,CLR
2020-06-07 10:00:00,44931.286629,FST,82.9,57.9,42.63,160.0,17.0,29.88,1006.2,10.0,23.0,82.6,CLR
2020-06-07 11:00:00,49345.08067,FST,87.1,57.9,37.25,160.0,16.0,29.87,1005.6,10.0,20.0,86.14,CLR
2020-06-07 12:00:00,53538.229814,FST,90.0,59.0,35.36,160.0,16.0,29.85,1005.0,10.0,19.0,89.26,CLR
2020-06-07 13:00:00,57172.798034,FST,93.0,57.0,29.96,160.0,14.0,29.84,1004.2,10.0,23.0,91.64,CLR
2020-06-07 14:00:00,59683.47858,FST,95.0,57.0,28.16,140.0,17.0,29.82,1003.3,10.0,21.0,93.75,CLR
2020-06-07 15:00:00,61694.826392,FST,96.1,55.9,26.16,160.0,17.0,29.8,1002.6,10.0,22.0,94.55,CLR
2020-06-07 16:00:00,63133.638662,FST,97.0,57.0,26.49,150.0,19.0,29.77,1002.1,10.0,24.0,95.92,CLR
2020-06-07 17:00:00,64026.999233,FST,98.1,55.9,24.61,150.0,18.0,29.76,1001.3,10.0,24.0,96.72,CLR
2020-06-07 18:00:00,64303.000183,FST,96.1,54.0,24.42,140.0,18.0,29.73,1000.9,10.0,22.0,93.97,CLR
2020-06-07 19:00:00,63447.599948,FST,93.9,52.0,24.28,130.0,16.0,29.73,1000.9,10.0,21.0,91.19,CLR
2020-06-07 20:00:00,61189.39175,FST,91.9,52.0,25.84,140.0,17.0,29.74,1001.4,10.0,18.0,89.21,CLR
2020-06-07 21:00:00,58686.732699,FST,91.0,52.0,26.57,130.0,15.0,29.74,1001.2,10.0,19.0,88.35,CLR
2020-06-07 22:00:00,56710.083117,FST,88.0,51.1,28.25,130.0,15.0,29.73,1001.1,10.0,18.0,85.45,CLR
2020-06-07 23:00:00,53114.108221,FST,86.0,51.1,30.11,140.0,14.0,29.76,1002.0,10.0,19.0,83.77,CLR
2020-06-08 00:00:00,49054.44246,FST,84.0,53.1,34.56,150.0,15.0,29.77,1002.3,10.0,21.0,82.52,CLR
2020-06-08 01:00:00,45444.228417,FST,82.0,54.0,38.11,150.0,15.0,29.77,1002.0,10.0,21.0,81.24,CLR
2020-06-08 02:00:00,42661.173783,FST,81.0,54.0,39.37,150.0,15.0,29.76,1001.6,10.0,,80.59,CLR
2020-06-08 03:00:00,40712.891356,FST,80.1,54.0,40.54,150.0,16.0,29.75,1001.3,10.0,21.0,80.04,CLR
2020-06-08 04:00:00,39341.321819,FST,78.1,54.0,43.3,160.0,14.0,29.74,1001.1,10.0,,,CLR
2020-06-08 05:00:00,38882.590464,FST,77.0,54.0,44.9,210.0,11.0,29.76,1001.7,10.0,,,CLR
2020-06-08 06:00:00,39494.027023,FST,73.9,54.0,49.79,180.0,11.0,29.76,1002.1,10.0,,,CLR
2020-06-08 07:00:00,40524.319301,FST,73.0,54.0,51.33,190.0,11.0,29.77,1002.6,10.0,,,CLR
2020-06-08 08:00:00,42352.603924,FST,73.9,54.0,49.79,200.0,8.0,29.78,1003.0,10.0,,,CLR
2020-06-08 09:00:00,46024.835413,FST,82.9,46.9,28.43,260.0,13.0,29.79,1003.0,10.0,,81.01,CLR
2020-06-08 10:00:00,50455.513425,FST,88.0,39.0,17.83,300.0,18.0,29.8,1003.4,10.0,22.0,84.38,CLR
2020-06-08 11:00:00,54971.46043,FST,91.9,39.0,15.77,320.0,18.0,29.81,1003.3,10.0,22.0,87.74,CLR
2020-06-08 12:00:00,59137.715156,FST,93.9,39.0,14.82,320.0,17.0,29.81,1003.5,10.0,21.0,89.54,CLR
2020-06-08 13:00:00,62575.883067,FST,96.1,37.9,13.27,330.0,16.0,29.81,1003.4,10.0,21.0,91.49,CLR
2020-06-08 14:00:00,65062.532974,FST,97.0,39.0,13.48,340.0,14.0,29.8,1002.7,10.0,22.0,92.4,CLR
2020-06-08 15:00:00,66495.229458,FST,98.1,39.0,13.03,360.0,11.0,29.78,1001.9,10.0,17.0,93.42,CLR
2020-06-08 16:00:00,67183.144382,FST,99.0,44.1,15.44,360.0,10.0,29.76,1001.1,10.0,14.0,94.87,CLR
2020-06-08 17:00:00,67820.705447,FST,100.9,44.1,14.58,350.0,12.0,29.73,999.9,10.0,16.0,96.72,CLR
2020-06-08 18:00:00,68043.447277,FST,100.9,42.1,13.5,360.0,5.0,29.7,999.5,10.0,,96.42,CLR
2020-06-08 19:00:00,67428.595895,FST,99.0,43.0,14.8,190.0,16.0,29.69,999.4,10.0,,94.72,CLR
2020-06-08 20:00:00,65258.2495,FST,96.1,46.0,18.13,180.0,16.0,29.69,999.7,10.0,,92.3,CLR
2020-06-08 21:00:00,62680.235605,FST,90.0,46.9,22.67,190.0,10.0,29.7,999.9,10.0,,86.65,CLR
2020-06-08 22:00:00,60619.7294,FST,88.0,48.9,26.03,240.0,10.0,29.73,1000.7,10.0,,85.13,CLR
2020-06-08 23:00:00,56876.909874,FST,84.9,50.0,29.94,250.0,9.0,29.75,1001.5,10.0,,82.76,CLR
2020-06-09 00:00:00,52757.505303,FST,84.0,46.9,27.44,240.0,7.0,29.78,1002.3,10.0,,81.77,CLR
2020-06-09 01:00:00,49042.25179,FST,86.0,44.1,23.14,310.0,10.0,29.79,1002.6,10.0,,83.04,CLR
2020-06-09 02:00:00,46453.186099,FST,82.9,42.1,23.68,310.0,10.0,29.79,1002.7,10.0,,80.68,CLR
2020-06-09 03:00:00,44571.801296,FST,79.0,42.1,26.89,260.0,8.0,29.79,1002.7,10.0,,,CLR
2020-06-09 04:00:00,43445.358109,FST,82.0,41.0,23.37,300.0,17.0,29.81,1003.2,10.0,24.0,80.04,CLR
2020-06-09 05:00:00,43040.137014,FST,80.1,33.1,18.21,300.0,14.0,29.83,1004.2,10.0,19.0,78.67,CLR
2020-06-09 06:00:00,43714.469514,FST,81.0,32.0,16.92,290.0,20.0,29.86,1004.9,10.0,28.0,79.07,CLR
2020-06-09 07:00:00,44776.710637,FST,79.0,32.0,18.06,300.0,19.0,29.89,1006.3,10.0,24.0,,CLR
2020-06-09 08:00:00,46355.86382,FST,73.9,17.6,11.94,350.0,17.0,29.96,1008.9,10.0,,,CLR
2020-06-09 09:00:00,49262.363762,FST,73.9,16.0,10.96,360.0,15.0,29.99,1010.4,10.0,,,CLR
2020-06-09 10:00:00,52915.911714,FST,75.0,14.0,9.68,360.0,17.0,30.01,1011.1,10.0,18.0,,CLR
2020-06-09 11:00:00,56689.711085,FST,77.0,12.9,8.63,350.0,16.0,30.02,1011.4,10.0,22.0,,CLR
2020-06-09 12:00:00,60023.675101,FST,79.0,12.9,8.08,350.0,17.0,30.03,1011.5,10.0,20.0,,CLR
2020-06-09 13:00:00,63009.210751,FST,82.9,12.0,6.83,350.0,19.0,30.03,1011.0,10.0,21.0,79.46,CLR
2020-06-09 14:00:00,65628.963269,FST,84.0,10.9,6.28,340.0,19.0,30.02,1010.8,10.0,25.0,80.19,CLR
2020-06-09 15:00:00,67356.687613,FST,86.0,10.0,5.66,350.0,18.0,30.01,1010.2,10.0,21.0,81.57,CLR
2020-06-09 16:00:00,67612.640834,FST,88.0,10.9,5.53,340.0,17.0,29.99,1009.6,10.0,19.0,83.03,CLR
2020-06-09 17:00:00,67504.104375,FST,89.1,10.0,5.13,350.0,15.0,29.97,1009.3,10.0,21.0,83.8,CLR
2020-06-09 18:00:00,66975.066279,FST,89.1,12.0,5.61,360.0,13.0,29.96,1009.0,10.0,15.0,83.86,CLR
2020-06-09 19:00:00,65522.095017,FST,89.1,8.1,4.71,360.0,14.0,29.96,1009.1,10.0,15.0,83.75,CLR
2020-06-09 20:00:00,62580.784587,FST,87.1,10.9,5.69,360.0,11.0,29.96,1009.4,10.0,,82.39,CLR
2020-06-09 21:00:00,59354.098829,FST,79.0,12.0,7.76,40.0,9.0,29.98,1010.3,10.0,,,CLR
2020-06-09 22:00:00,56798.378597,FST,77.0,12.9,8.63,120.0,7.0,30.0,1011.1,10.0,,,CLR
2020-06-09 23:00:00,52401.940078,FST,73.0,16.0,11.29,140.0,7.0,30.03,1012.4,10.0,,,CLR
2020-06-10 00:00:00,47975.211,FST,69.1,15.1,12.4,170.0,7.0,30.05,1013.1,10.0,,,CLR
2020-06-10 01:00:00,44230.933551,FST,69.1,15.1,12.4,170.0,8.0,30.05,1013.0,10.0,,,CLR
2020-06-10 02:00:00,41391.146641,FST,64.9,14.0,13.66,180.0,8.0,30.06,1013.4,10.0,,,CLR
2020-06-10 03:00:00,39310.788151,FST,57.0,17.1,20.69,190.0,7.0,30.08,1014.1,10.0,,,CLR
2020-06-10 04:00:00,37943.129628,FST,63.0,17.1,16.71,160.0,6.0,30.08,1013.8,10.0,,,CLR
2020-06-10 05:00:00,37280.597515,FST,63.0,21.9,20.52,160.0,9.0,30.1,1014.7,10.0,,,CLR
2020-06-10 06:00:00,37444.593143,FST,60.1,26.1,27.1,160.0,8.0,30.13,1015.8,10.0,,,CLR
2020-06-10 07:00:00,37901.389714,FST,63.0,30.0,28.7,140.0,9.0,30.16,1016.6,10.0,,,CLR
2020-06-10 08:00:00,38575.985322,FST,63.0,32.0,31.12,150.0,9.0,30.18,1017.7,10.0,,,CLR
2020-06-10 09:00:00,40281.241476,FST,69.1,36.0,29.55,140.0,15.0,30.21,1018.7,10.0,16.0,,CLR
2020-06-10 10:00:00,42390.485565,FST,73.9,35.1,24.23,130.0,19.0,30.22,1018.7,10.0,21.0,,CLR
2020-06-10 11:00:00,44679.542819,FST,77.0,36.0,22.64,140.0,19.0,30.22,1018.6,10.0,23.0,,CLR
2020-06-10 12:00:00,47315.900342,FST,81.0,39.0,22.33,130.0,16.0,30.21,1018.3,10.0,22.0,79.33,CLR
2020-06-10 13:00:00,50042.4927,FST,84.0,45.0,25.54,140.0,17.0,30.2,1017.8,10.0,23.0,81.61,CLR
2020-06-10 14:00:00,52611.154087,FST,87.1,48.0,25.9,130.0,18.0,30.19,1017.1,10.0,21.0,84.27,CLR
2020-06-10 15:00:00,55041.937302,FST,89.1,48.9,25.14,150.0,16.0,30.16,1016.7,10.0,24.0,86.09,CLR
2020-06-10 16:00:00,57258.875927,FST,90.0,48.9,24.44,150.0,15.0,30.15,1015.6,10.0,19.0,86.9,CLR
2020-06-10 17:00:00,58630.214641,FST,91.0,46.9,21.97,160.0,14.0,30.12,1014.7,10.0,19.0,87.55,CLR
2020-06-10 18:00:00,59049.271448,FST,91.9,45.0,19.88,160.0,15.0,30.1,1014.2,10.0,19.0,88.17,CLR
2020-06-10 19:00:00,58027.337085,FST,91.0,46.0,21.24,150.0,16.0,30.08,1013.7,10.0,,87.45,CLR
2020-06-10 20:00:00,55490.84664,FST,88.0,52.0,29.21,140.0,16.0,30.08,1014.1,10.0,23.0,85.6,CLR
2020-06-10 21:00:00,52335.63588,FST,84.9,52.0,32.24,140.0,17.0,30.1,1014.6,10.0,22.0,83.03,CLR
2020-06-10 22:00:00,49989.421804,FST,82.0,52.0,35.41,140.0,15.0,30.13,1015.3,10.0,22.0,80.97,CLR
2020-06-10 23:00:00,46098.748451,FST,80.1,55.0,42.05,150.0,16.0,30.16,1016.4,10.0,22.0,80.17,CLR
2020-06-11 00:00:00,42024.670595,FST,78.1,54.0,43.3,150.0,14.0,30.18,1016.9,10.0,19.0,,CLR
2020-06-11 01:00:00,38648.067826,FST,77.0,54.0,44.9,150.0,15.0,30.18,1016.8,10.0,19.0,,CLR
2020-06-11 02:00:00,36155.719908,FST,75.9,55.0,48.3,140.0,16.0,30.18,1016.6,10.0,22.0,,CLR
2020-06-11 03:00:00,34326.537526,FST,75.0,54.0,47.99,140.0,20.0,30.17,1016.2,10.0,25.0,,CLR
2020-06-11 04:00:00,33295.600171,FST,73.0,53.1,49.66,150.0,16.0,30.18,1016.8,10.0,21.0,,CLR
2020-06-11 05:00:00,32934.064821,FST,72.0,52.0,49.33,150.0,17.0,30.19,1017.0,10.0,24.0,,CLR
2020-06-11 06:00:00,33599.232165,FST,71.1,52.0,50.86,160.0,16.0,30.21,1017.9,10.0,17.0,,CLR
2020-06-11 07:00:00,34699.693654,FST,70.0,52.0,52.8,150.0,14.0,30.24,1019.0,10.0,,,CLR
2020-06-11 08:00:00,36417.385888,FST,71.1,53.1,52.96,150.0,13.0,30.26,1019.8,10.0,18.0,,CLR
2020-06-11 09:00:00,39390.578688,FST,73.9,55.0,51.64,160.0,21.0,30.28,1020.4,10.0,26.0,,CLR
2020-06-11 10:00:00,42741.531189,FST,78.1,57.0,48.28,160.0,19.0,30.29,1020.9,10.0,25.0,,CLR
2020-06-11 11:00:00,46291.198164,FST,82.0,59.0,45.66,160.0,22.0,30.3,1020.8,10.0,29.0,82.15,CLR
2020-06-11 12:00:00,49646.024979,FST,84.0,60.1,44.51,160.0,19.0,30.29,1020.6,10.0,25.0,84.05,CLR
2020-06-11 13:00:00,52819.634028,FST,87.1,61.0,41.62,150.0,20.0,30.29,1020.4,10.0,24.0,87.15,CLR
2020-06-11 14:00:00,55843.68425,FST,88.0,60.1,39.17,150.0,20.0,30.28,1019.8,10.0,25.0,87.69,CLR
2020-06-11 15:00:00,58368.018165,FST,90.0,57.0,32.91,150.0,17.0,30.27,1019.1,10.0,24.0,88.61,CLR
2020-06-11 16:00:00,60347.712617,FST,91.0,55.9,30.65,150.0,19.0,30.25,1018.1,10.0,28.0,89.27,CLR
2020-06-11 17:00:00,61562.28663,FST,91.0,55.0,29.66,140.0,21.0,30.22,1017.4,10.0,24.0,89.03,CLR
2020-06-11 18:00:00,61642.063723,FST,91.0,53.1,27.67,150.0,18.0,30.2,1017.7,10.0,22.0,88.57,CLR
2020-06-11 19:00:00,60265.160687,FST,88.0,54.0,31.43,140.0,18.0,30.21,1017.7,10.0,25.0,85.98,CLR
2020-06-11 20:00:00,57432.350012,FST,86.0,52.0,31.13,150.0,19.0,30.22,1018.5,10.0,24.0,83.91,CLR
2020-06-11 21:00:00,54066.360274,FST,84.0,48.0,28.6,140.0,14.0,30.25,1019.6,10.0,18.0,81.87,CLR
2020-06-11 22:00:00,51596.454467,FST,82.9,46.9,28.43,130.0,11.0,30.28,1020.4,10.0,15.0,81.01,CLR
2020-06-11 23:00:00,47647.195565,FST,81.0,44.1,27.2,140.0,10.0,30.29,1020.6,10.0,,79.62,CLR
2020-06-12 00:00:00,43501.674272,FST,78.1,44.1,29.91,150.0,11.0,30.3,1020.7,10.0,,,CLR
2020-06-12 01:00:00,39855.801525,FST,77.0,45.0,32.1,160.0,11.0,30.29,1020.5,10.0,,,CLR
2020-06-12 02:00:00,37139.443426,FST,75.0,48.0,38.43,160.0,11.0,30.29,1019.7,10.0,,,CLR
2020-06-12 03:00:00,35265.797243,FST,73.9,48.9,41.24,150.0,11.0,30.27,1019.8,10.0,,,CLR
2020-06-12 04:00:00,34043.902229,FST,72.0,50.0,45.81,140.0,9.0,30.27,1019.9,10.0,,,CLR
2020-06-12 05:00:00,33579.173775,FST,68.0,50.0,52.51,160.0,7.0,30.28,1020.3,10.0,,,CLR
2020-06-12 06:00:00,34055.934097,FST,66.9,51.1,56.82,200.0,5.0,30.29,1020.8,10.0,,,CLR
2020-06-12 07:00:00,34828.109748,FST,66.0,51.1,58.62,190.0,7.0,30.29,1021.3,10.0,,,CLR
2020-06-12 08:00:00,36357.866234,FST,68.0,52.0,56.55,170.0,8.0,30.31,1021.7,10.0,,,CLR
2020-06-12 09:00:00,39216.130686,FST,75.0,53.1,46.44,170.0,13.0,30.32,1021.7,10.0,,,CLR
2020-06-12 10:00:00,42517.077194,FST,79.0,51.1,37.78,150.0,14.0,30.33,1021.7,10.0,18.0,,CLR
2020-06-12 11:00:00,45912.271737,FST,82.0,48.0,30.51,150.0,18.0,30.32,1021.4,10.0,24.0,80.53,CLR
2020-06-12 12:00:00,49230.501846,FST,84.9,46.0,25.77,150.0,19.0,30.31,1021.4,10.0,24.0,82.35,CLR
2020-06-12 13:00:00,52063.71686,FST,87.1,46.0,24.02,160.0,15.0,30.31,1021.1,10.0,21.0,84.07,CLR
2020-06-12 14:00:00,54966.239335,FST,89.1,45.0,21.7,150.0,15.0,30.3,1020.5,10.0,18.0,85.66,CLR
2020-06-12 15:00:00,57550.568764,FST,91.0,41.0,17.54,160.0,17.0,30.29,1019.6,10.0,21.0,87.04,CLR
2020-06-12 16:00:00,59582.099923,FST,91.9,39.0,15.77,160.0,16.0,30.26,1018.7,10.0,22.0,87.74,CLR
2020-06-12 17:00:00,60853.778759,FST,93.0,36.0,13.55,150.0,20.0,30.23,1017.7,10.0,27.0,88.59,CLR
2020-06-12 18:00:00,60872.534981,FST,91.9,35.1,13.53,160.0,20.0,30.2,1017.0,10.0,25.0,87.6,CLR
2020-06-12 19:00:00,59308.009648,FST,90.0,37.9,16.04,150.0,20.0,30.18,1016.7,10.0,25.0,86.03,CLR
2020-06-12 20:00:00,56568.444731,FST,89.1,39.0,17.22,140.0,19.0,30.17,1016.7,10.0,24.0,85.3,CLR
2020-06-12 21:00:00,53474.571155,FST,86.0,37.9,18.2,140.0,16.0,30.18,1016.8,10.0,23.0,82.74,CLR
2020-06-12 22:00:00,51342.408723,FST,82.0,41.0,23.37,140.0,11.0,30.19,1017.1,10.0,17.0,80.04,CLR
2020-06-12 23:00:00,47849.957904,FST,80.1,42.1,25.94,140.0,13.0,30.2,1017.6,10.0,18.0,78.99,CLR
2020-06-13 00:00:00,43993.002896,FST,78.1,45.0,30.95,150.0,13.0,30.21,1017.7,10.0,,,CLR
2020-06-13 01:00:00,40681.933017,FST,77.0,46.0,33.34,160.0,13.0,30.2,1017.4,10.0,18.0,,CLR
2020-06-13 02:00:00,38090.760683,FST,75.0,46.0,35.64,160.0,13.0,30.2,1017.1,10.0,18.0,,CLR
2020-06-13 03:00:00,36084.974935,FST,73.0,45.0,36.7,150.0,13.0,30.19,1016.5,10.0,19.0,,CLR
2020-06-13 04:00:00,34672.282601,FST,72.0,45.0,37.96,160.0,13.0,30.17,1015.9,10.0,17.0,,CLR
2020-06-13 05:00:00,33785.223545,FST,70.0,45.0,40.63,170.0,13.0,30.15,1015.8,10.0,,,CLR
2020-06-13 06:00:00,33574.523676,FST,68.0,45.0,43.51,180.0,11.0,30.15,1016.0,10.0,,,CLR
2020-06-13 07:00:00,33443.958553,FST,68.0,45.0,43.51,180.0,13.0,30.16,1016.4,10.0,,,CLR
2020-06-13 08:00:00,34485.382245,FST,70.0,46.0,42.2,160.0,10.0,30.18,1016.9,10.0,,,CLR
2020-06-13 09:00:00,37603.595913,FST,73.9,48.0,39.87,160.0,12.0,30.2,1017.6,10.0,,,CLR
2020-06-13 10:00:00,41639.955721,FST,79.0,48.0,33.66,160.0,16.0,30.2,1017.6,10.0,18.0,,CLR
2020-06-13 11:00:00,45536.899818,FST,82.0,46.0,28.3,160.0,16.0,30.2,1017.4,10.0,19.0,80.36,CLR
2020-06-13 12:00:00,48930.086907,FST,86.0,43.0,22.19,170.0,20.0,30.19,1016.8,10.0,26.0,82.97,CLR
2020-06-13 13:00:00,51825.220621,FST,88.0,42.1,20.11,170.0,18.0,30.18,1016.3,10.0,23.0,84.52,CLR
2020-06-13 14:00:00,54457.803167,FST,89.1,42.1,19.42,170.0,16.0,30.17,1015.8,10.0,22.0,85.45,CLR
2020-06-13 15:00:00,56552.093954,FST,91.0,44.1,19.76,170.0,16.0,30.15,1015.0,10.0,20.0,87.27,CLR
2020-06-13 16:00:00,58341.484305,FST,91.0,44.1,19.76,170.0,17.0,30.12,1014.1,10.0,21.0,87.27,CLR
2020-06-13 17:00:00,59612.177432,FST,91.9,44.1,19.21,150.0,17.0,30.1,1013.2,10.0,22.0,88.09,CLR
2020-06-13 18:00:00,59998.83882,FST,91.0,43.0,18.94,160.0,16.0,30.07,1012.7,10.0,21.0,87.18,CLR
2020-06-13 19:00:00,58965.369324,FST,90.0,43.0,19.55,160.0,17.0,30.05,1012.2,10.0,21.0,86.29,CLR
2020-06-13 20:00:00,56485.663779,FST,87.1,42.1,20.7,150.0,16.0,30.05,1012.5,10.0,21.0,83.79,CLR
2020-06-13 21:00:00,53311.108001,FST,84.0,41.0,21.9,140.0,16.0,30.05,1012.7,10.0,20.0,81.37,CLR
2020-06-13 22:00:00,51166.168046,FST,81.0,42.1,25.19,140.0,13.0,30.07,1013.2,10.0,16.0,79.49,CLR
2020-06-13 23:00:00,47855.542937,FST,79.0,44.1,29.04,140.0,13.0,30.09,1013.8,10.0,18.0,,CLR
2020-06-14 00:00:00,44257.512989,FST,77.0,44.1,31.02,150.0,12.0,30.09,1013.7,10.0,16.0,,CLR
2020-06-14 01:00:00,40928.747126,FST,77.0,44.1,31.02,150.0,16.0,30.09,1013.4,10.0,21.0,,CLR
2020-06-14 02:00:00,38268.453007,FST,75.0,45.0,34.31,160.0,13.0,30.09,1013.5,10.0,16.0,,CLR
2020-06-14 03:00:00,36271.504405,FST,73.9,46.0,36.98,150.0,15.0,30.08,1013.1,10.0,18.0,,CLR
2020-06-14 04:00:00,34752.169333,FST,72.0,45.0,37.96,150.0,16.0,30.08,1013.1,10.0,20.0,,CLR
2020-06-14 05:00:00,33747.647403,FST,71.1,45.0,39.13,150.0,14.0,30.07,1013.1,10.0,19.0,,CLR
2020-06-14 06:00:00,33249.23349,FST,69.1,45.0,41.9,140.0,13.0,30.08,1013.6,10.0,18.0,,CLR
2020-06-14 07:00:00,32735.595675,FST,68.0,45.0,43.51,150.0,11.0,30.1,1014.3,10.0,,,CLR
2020-06-14 08:00:00,33576.184444,FST,69.1,46.0,43.52,150.0,8.0,30.12,1014.9,10.0,,,CLR
2020-06-14 09:00:00,36817.809887,FST,73.9,48.0,39.87,150.0,14.0,30.13,1015.4,10.0,,,CLR
2020-06-14 10:00:00,41028.153795,FST,79.0,45.0,30.05,170.0,17.0,30.14,1015.7,10.0,21.0,,CLR
2020-06-14 11:00:00,45249.483767,FST,82.0,44.1,26.33,170.0,16.0,30.15,1015.5,10.0,22.0,80.22,CLR
2020-06-14 12:00:00,49132.598038,FST,84.9,45.0,24.81,170.0,18.0,30.14,1015.4,10.0,23.0,82.27,CLR
2020-06-14 13:00:00,52478.159564,FST,87.1,45.0,23.12,170.0,16.0,30.14,1015.0,10.0,21.0,83.98,CLR
2020-06-14 14:00:00,55058.117187,FST,88.0,45.0,22.47,150.0,16.0,30.13,1014.4,10.0,16.0,84.72,CLR
2020-06-14 15:00:00,57159.922102,FST,88.0,44.1,21.72,150.0,17.0,30.1,1013.8,10.0,23.0,84.65,CLR
2020-06-14 16:00:00,58698.848246,FST,89.1,43.0,20.11,150.0,19.0,30.09,1013.5,10.0,19.0,85.51,CLR
2020-06-14 17:00:00,59779.006233,FST,89.1,43.0,20.11,120.0,17.0,30.08,1013.0,10.0,18.0,85.51,CLR
2020-06-14 18:00:00,60143.267103,FST,88.0,41.0,19.28,130.0,15.0,30.06,1012.8,10.0,22.0,84.46,CLR
2020-06-14 19:00:00,59282.335916,FST,88.0,41.0,19.28,140.0,15.0,30.05,1012.5,10.0,20.0,84.46,CLR
2020-06-14 20:00:00,57160.533664,FST,86.0,41.0,20.54,130.0,15.0,30.05,1012.7,10.0,,82.86,CLR
2020-06-14 21:00:00,54597.929528,FST,82.9,41.0,22.7,140.0,15.0,30.06,1013.1,10.0,,80.62,CLR
2020-06-14 22:00:00,52694.538862,FST,79.0,42.1,26.89,150.0,11.0,30.09,1013.8,10.0,,,CLR
2020-06-14 23:00:00,49374.980118,FST,75.9,39.9,27.37,160.0,10.0,30.1,1014.3,10.0,,,CLR
2020-06-15 00:00:00,45484.358518,FST,73.0,39.9,30.16,160.0,9.0,30.11,1014.7,10.0,,,CLR
2020-06-15 01:00:00,42213.666494,FST,72.0,42.1,33.97,160.0,9.0,30.12,1015.0,10.0,,,CLR
2020-06-15 02:00:00,39753.416703,FST,69.1,43.0,38.82,160.0,10.0,30.12,1015.1,10.0,,,CLR
2020-06-15 03:00:00,38029.630577,FST,70.0,46.9,43.66,150.0,10.0,30.12,1014.8,10.0,,,CLR
2020-06-15 04:00:00,37036.630491,FST,68.0,46.9,46.76,140.0,11.0,30.12,1014.8,10.0,,,CLR
2020-06-15 05:00:00,36840.860222,FST,66.9,48.0,50.62,140.0,10.0,30.12,1014.7,10.0,,,CLR
2020-06-15 06:00:00,37572.748534,FST,66.9,48.9,52.35,140.0,10.0,30.12,1015.2,10.0,,,CLR
2020-06-15 07:00:00,38619.287889,FST,64.9,48.9,56.12,140.0,9.0,30.15,1016.2,10.0,,,CLR
2020-06-15 08:00:00,40357.608965,FST,66.9,50.0,54.54,140.0,10.0,30.16,1016.8,10.0,,,CLR
2020-06-15 09:00:00,43835.568908,FST,72.0,51.1,47.72,140.0,14.0,30.18,1017.0,10.0,20.0,,CLR
2020-06-15 10:00:00,47716.378398,FST,77.0,51.1,40.36,150.0,17.0,30.18,1017.1,10.0,23.0,,CLR
2020-06-15 11:00:00,51720.665145,FST,79.0,50.0,36.27,160.0,18.0,30.18,1016.9,10.0,,,CLR
2020-06-15 12:00:00,55708.757347,FST,82.0,50.0,32.88,160.0,16.0,30.17,1016.7,10.0,26.0,80.73,CLR
2020-06-15 13:00:00,59157.804957,FST,84.0,48.9,29.58,170.0,14.0,30.17,1016.6,10.0,,81.97,CLR
2020-06-15 14:00:00,61828.872753,FST,87.1,48.0,25.9,160.0,15.0,30.16,1015.8,10.0,19.0,84.27,CLR
2020-06-15 15:00:00,63719.430362,FST,86.0,46.0,24.88,160.0,15.0,30.14,1015.4,10.0,16.0,83.19,CLR
2020-06-15 16:00:00,64944.979116,FST,88.0,44.1,21.72,150.0,15.0,30.13,1014.9,10.0,20.0,84.65,CLR
2020-06-15 17:00:00,65064.280818,FST,88.0,46.9,24.15,150.0,17.0,30.11,1014.3,10.0,18.0,84.9,CLR
2020-06-15 18:00:00,64516.07696,FST,88.0,45.0,22.47,150.0,17.0,30.09,1013.9,10.0,25.0,84.72,CLR
2020-06-15 19:00:00,62978.032262,FST,86.0,46.0,24.88,150.0,17.0,30.08,1013.8,10.0,22.0,83.19,CLR
2020-06-15 20:00:00,60223.353825,FST,84.0,45.0,25.54,140.0,18.0,30.08,1014.1,10.0,20.0,81.61,CLR
2020-06-15 21:00:00,57343.178991,FST,82.0,46.0,28.3,140.0,16.0,30.09,1014.4,10.0,20.0,80.36,CLR
2020-06-15 22:00:00,55341.812294,FST,80.1,48.0,32.46,120.0,13.0,30.11,1014.5,10.0,,79.42,CLR
2020-06-15 23:00:00,51641.547431,FST,78.1,48.0,34.67,130.0,14.0,30.12,1014.9,10.0,19.0,,CLR
2020-06-16 00:00:00,47590.112783,FST,75.9,50.0,40.19,140.0,14.0,30.12,1015.1,10.0,17.0,,CLR
2020-06-16 01:00:00,44136.651182,FST,75.0,51.1,43.14,140.0,11.0,30.12,1014.8,10.0,16.0,,CLR
2020-06-16 02:00:00,41570.610637,FST,73.9,60.1,62.05,140.0,14.0,30.12,1014.3,10.0,18.0,,CLR
2020-06-16 03:00:00,39795.046482,FST,72.0,62.1,71.02,140.0,18.0,30.1,1014.1,10.0,24.0,,CLR
2020-06-16 04:00:00,38562.665434,FST,71.1,63.0,75.58,140.0,15.0,30.09,1013.9,10.0,19.0,,CLR
2020-06-16 05:00:00,38128.697621,FST,70.0,62.1,76.01,150.0,15.0,30.09,1013.9,10.0,21.0,,CLR
2020-06-16 06:00:00,38665.853459,FST,69.1,62.1,78.39,160.0,14.0,30.1,1014.2,10.0,19.0,,CLR
2020-06-16 07:00:00,39746.128551,FST,69.1,62.1,78.39,150.0,13.0,30.11,1014.8,10.0,,,CLR
2020-06-16 08:00:00,41329.497497,FST,70.0,62.1,76.01,150.0,14.0,30.12,1015.1,10.0,18.0,,CLR
2020-06-16 09:00:00,44565.686128,FST,73.0,62.1,68.66,150.0,17.0,30.13,1015.4,10.0,22.0,,CLR
2020-06-16 10:00:00,48330.902635,FST,75.9,61.0,59.92,160.0,17.0,30.14,1015.7,10.0,21.0,,CLR
2020-06-16 11:00:00,52260.447889,FST,80.1,60.1,50.52,160.0,16.0,30.14,1015.2,10.0,22.0,80.94,CLR
2020-06-16 12:00:00,55924.175753,FST,82.9,59.0,44.34,170.0,16.0,30.12,1014.5,10.0,21.0,82.86,CLR
2020-06-16 13:00:00,58943.629561,FST,84.9,57.0,38.69,160.0,15.0,30.1,1013.9,10.0,21.0,83.99,CLR
2020-06-16 14:00:00,61340.344178,FST,89.1,55.9,32.53,150.0,16.0,30.09,1012.8,10.0,22.0,87.44,CLR
2020-06-16 15:00:00,62920.736927,FST,90.0,55.9,31.62,170.0,18.0,30.06,1011.9,10.0,22.0,88.29,CLR
2020-06-16 16:00:00,63918.248674,FST,91.9,55.0,28.84,160.0,14.0,30.03,1010.8,10.0,20.0,89.92,CLR
2020-06-16 17:00:00,64553.925958,FST,91.9,55.0,28.84,150.0,16.0,30.0,1010.0,10.0,24.0,89.92,CLR
2020-06-16 18:00:00,64219.122125,FST,89.1,55.0,31.49,140.0,16.0,29.98,1009.7,10.0,23.0,87.21,CLR
2020-06-16 19:00:00,62833.177539,FST,89.1,57.9,42.63,210.0,18.0,29.98,1010.3,10.0,23.0,87.21,CLR
2020-06-16 20:00:00,60266.669472,FST,82.9,60.1,55.95,200.0,14.0,30.0,1011.1,10.0,,82.41,CLR
2020-06-16 21:00:00,57312.727978,FST,82.0,52.0,35.41,160.0,14.0,29.98,1010.1,10.0,17.0,80.97,CLR
2020-06-16 22:00:00,55038.462252,FST,79.0,57.0,46.87,170.0,15.0,29.99,1010.5,10.0,,,CLR
2020-06-16 23:00:00,51207.608289,FST,80.1,57.9,46.7,150.0,13.0,30.0,1010.7,10.0,19.0,80.58,CLR
2020-06-17 00:00:00,47162.457601,FST,78.1,60.1,53.95,160.0,15.0,30.01,1011.0,10.0,16.0,,CLR
2020-06-17 01:00:00,43653.954411,FST,78.1,60.1,53.95,160.0,16.0,30.01,1010.7,10.0,23.0,,CLR
2020-06-17 02:00:00,41005.449196,FST,75.9,63.0,64.31,160.0,18.0,30.0,1010.4,10.0,24.0,,CLR
2020-06-17 03:00:00,39174.520332,FST,75.0,64.0,68.64,150.0,20.0,30.0,1010.0,10.0,26.0,,CLR
2020-06-17 04:00:00,37952.602445,FST,73.0,64.0,73.4,150.0,18.0,29.98,1009.7,10.0,24.0,,CLR
2020-06-17 05:00:00,37487.330911,FST,72.0,64.0,75.92,180.0,16.0,29.99,1010.2,10.0,,,CLR
2020-06-17 06:00:00,38025.568945,FST,71.1,64.0,78.28,170.0,13.0,29.99,1010.5,10.0,17.0,,CLR
2020-06-17 07:00:00,38967.651234,FST,71.1,64.0,78.28,160.0,11.0,30.0,1011.2,10.0,,,CLR
2020-06-17 08:00:00,40603.638594,FST,71.1,64.0,78.28,160.0,13.0,30.01,1011.7,10.0,16.0,,CLR
2020-06-17 09:00:00,43806.547087,FST,71.1,64.0,78.28,150.0,14.0,30.02,1011.7,10.0,17.0,,CLR
2020-06-17 10:00:00,47382.147532,FST,78.1,64.9,63.9,150.0,18.0,30.02,1011.3,10.0,22.0,,CLR
2020-06-17 11:00:00,50981.790401,FST,82.9,63.0,51.1,170.0,17.0,30.01,1010.6,10.0,21.0,83.98,CLR
2020-06-17 12:00:00,54661.732623,FST,89.1,63.0,41.92,180.0,16.0,30.0,1010.2,10.0,22.0,89.99,CLR
2020-06-17 13:00:00,57886.100019,FST,93.0,59.0,32.19,170.0,16.0,29.99,1009.4,10.0,16.0,92.35,CLR
2020-06-17 14:00:00,60594.369928,FST,95.0,57.0,28.16,190.0,11.0,29.97,1008.5,10.0,17.0,93.75,CLR
2020-06-17 15:00:00,62780.31206,FST,95.0,57.9,29.09,190.0,15.0,29.94,1007.5,10.0,21.0,94.08,CLR
2020-06-17 16:00:00,64385.9293,FST,93.9,64.0,83.78,340.0,26.0,30.04,1012.0,10.0,42.0,93.32,SCT
2020-06-17 17:00:00,65280.139409,FST,73.0,62.1,73.22,320.0,13.0,29.98,1009.8,10.0,,,FEW
2020-06-17 18:00:00,65101.837743,FST,84.9,55.0,44.9,170.0,20.0,29.96,1008.5,10.0,26.0,82.63,FEW
2020-06-17 19:00:00,63638.704705,FST,75.9,57.9,53.64,210.0,16.0,29.95,1008.4,10.0,19.0,,FEW
2020-06-17 20:00:00,60915.026961,FST,75.0,59.0,57.5,200.0,19.0,29.91,1008.4,10.0,,,FEW
2020-06-17 21:00:00,57773.891588,FST,73.9,57.0,55.53,170.0,20.0,29.92,1008.3,10.0,25.0,,CLR
2020-06-17 22:00:00,55499.083167,FST,75.0,55.0,49.78,190.0,22.0,29.91,1007.8,10.0,29.0,,FEW
2020-06-17 23:00:00,51739.971958,FST,73.0,57.9,59.12,180.0,20.0,29.93,1008.6,10.0,22.0,,CLR
2020-06-18 00:00:00,47512.059639,FST,73.0,57.9,59.12,200.0,16.0,29.95,1009.1,10.0,,,CLR
2020-06-18 01:00:00,44007.434655,FST,72.0,57.9,61.15,230.0,13.0,29.97,1009.0,10.0,,,CLR
2020-06-18 02:00:00,41362.822876,FST,70.0,57.9,65.45,230.0,9.0,29.97,1009.5,10.0,,,CLR
2020-06-18 03:00:00,39473.89867,FST,71.1,57.0,61.04,220.0,7.0,29.97,1009.0,10.0,,,CLR
2020-06-18 04:00:00,38331.20675,FST,71.1,57.0,61.04,220.0,13.0,29.95,1009.0,10.0,,,CLR
2020-06-18 05:00:00,38030.581083,FST,68.0,57.0,67.86,230.0,10.0,29.92,1009.0,10.0,,,CLR
2020-06-18 06:00:00,38734.840102,FST,66.0,57.0,72.72,170.0,8.0,29.92,1008.8,10.0,,,CLR
2020-06-18 07:00:00,39780.582163,FST,69.1,57.0,65.35,200.0,8.0,29.92,1008.9,10.0,,,CLR
2020-06-18 08:00:00,41323.908263,FST,72.0,57.9,61.15,210.0,11.0,29.93,1009.0,10.0,,,CLR
2020-06-18 09:00:00,44359.796853,FST,78.1,59.0,51.88,220.0,12.0,29.94,1009.0,10.0,,,CLR
2020-06-18 10:00:00,47874.592605,FST,82.9,59.0,44.34,230.0,16.0,29.94,1008.9,10.0,19.0,82.86,CLR
2020-06-18 11:00:00,51295.466631,FST,87.1,57.0,36.07,240.0,15.0,29.95,1008.9,10.0,,85.89,CLR
2020-06-18 12:00:00,54546.52992,FST,91.0,54.0,28.6,260.0,11.0,29.94,1008.4,10.0,,88.78,CLR
2020-06-18 13:00:00,57602.227485,FST,96.1,41.0,14.97,320.0,12.0,29.93,1007.9,10.0,,91.73,CLR
2020-06-18 14:00:00,60508.736982,FST,98.6,42.8,15.2,360.0,11.0,29.92,1007.3,10.0,,94.3,CLR
2020-06-18 15:00:00,62773.368705,FST,98.1,42.1,14.7,340.0,11.0,29.91,1006.6,10.0,15.0,93.74,FEW
2020-06-18 16:00:00,64208.886844,FST,97.0,42.1,15.2,340.0,15.0,29.89,1006.2,10.0,,92.69,CLR
2020-06-18 17:00:00,65014.057256,FST,98.1,41.0,14.08,290.0,10.0,29.87,1005.6,10.0,,93.62,CLR
2020-06-18 18:00:00,64633.353389,FST,97.0,41.0,14.57,250.0,9.0,29.85,1005.2,10.0,,92.58,CLR
2020-06-18 19:00:00,62985.717057,FST,97.0,42.1,15.2,270.0,11.0,29.84,1004.5,10.0,,92.69,CLR
2020-06-18 20:00:00,60223.085054,FST,93.9,46.0,19.4,290.0,9.0,29.83,1004.6,10.0,,90.17,CLR
2020-06-18 21:00:00,57554.696977,FST,88.0,63.0,43.4,220.0,18.0,29.84,1005.0,10.0,24.0,88.86,CLR
2020-06-18 22:00:00,55637.918505,FST,82.0,66.0,58.43,160.0,21.0,29.86,1005.6,10.0,26.0,84.15,CLR
2020-06-18 23:00:00,52089.06198,FST,79.0,68.0,69.07,160.0,20.0,29.88,1006.5,10.0,25.0,,CLR
2020-06-19 00:00:00,48212.228009,FST,77.0,68.0,73.78,160.0,19.0,29.91,1007.6,10.0,25.0,,CLR
2020-06-19 01:00:00,44719.957788,FST,75.0,62.1,64.2,160.0,21.0,29.92,1007.6,10.0,28.0,,CLR
2020-06-19 02:00:00,42307.795093,FST,75.0,59.0,57.5,160.0,18.0,29.92,1007.4,10.0,23.0,,CLR
2020-06-19 03:00:00,40530.364176,FST,75.0,55.9,51.43,170.0,19.0,29.91,1007.1,10.0,23.0,,CLR
2020-06-19 04:00:00,39462.79467,FST,73.0,55.9,55.0,200.0,13.0,29.93,1007.4,10.0,15.0,,CLR
2020-06-19 05:00:00,39100.367599,FST,71.1,57.9,63.05,160.0,13.0,29.93,1007.6,10.0,,,CLR
2020-06-19 06:00:00,39610.251667,FST,70.0,57.9,65.45,160.0,13.0,29.93,1008.1,10.0,17.0,,CLR
2020-06-19 07:00:00,40375.299572,FST,69.1,60.1,73.03,160.0,14.0,29.94,1008.4,10.0,17.0,,CLR
2020-06-19 08:00:00,41885.637903,FST,69.1,63.0,80.92,150.0,18.0,29.94,1008.7,10.0,23.0,,CLR
2020-06-19 09:00:00,45092.850566,FST,73.0,63.0,70.87,160.0,19.0,29.94,1008.7,10.0,23.0,,CLR
2020-06-19 10:00:00,48763.314799,FST,78.1,64.0,61.92,160.0,19.0,29.96,1009.4,10.0,21.0,,CLR
2020-06-19 11:00:00,52229.629764,FST,82.0,63.0,52.62,160.0,15.0,29.97,1009.3,10.0,19.0,83.17,CLR
2020-06-19 12:00:00,55458.676423,FST,88.0,63.0,43.4,160.0,15.0,29.96,1008.9,10.0,16.0,88.86,CLR
2020-06-19 13:00:00,58198.631826,FST,91.9,62.1,37.19,150.0,14.0,29.95,1008.6,10.0,,92.52,CLR
2020-06-19 14:00:00,60319.954904,FST,90.0,63.0,40.75,130.0,15.0,29.94,1008.0,10.0,,90.93,CLR
2020-06-19 15:00:00,61961.07585,FST,89.1,62.1,40.61,150.0,16.0,29.93,1007.4,10.0,20.0,89.58,CLR
2020-06-19 16:00:00,62819.741103,FST,87.1,50.0,27.91,190.0,26.0,29.93,1007.1,10.0,31.0,84.51,CLR
2020-06-19 17:00:00,62925.24662,FST,87.1,46.9,26.66,180.0,22.0,29.91,1007.5,10.0,32.0,83.98,CLR
2020-06-19 18:00:00,61902.586623,FST,89.1,46.0,22.54,190.0,22.0,29.9,1007.2,10.0,31.0,85.76,CLR
2020-06-19 19:00:00,60111.538752,FST,90.0,46.0,21.91,180.0,22.0,29.89,1005.8,10.0,30.0,86.55,CLR
2020-06-19 20:00:00,57589.94564,FST,84.9,50.0,29.94,170.0,23.0,29.87,1006.6,10.0,31.0,82.76,CLR
2020-06-19 21:00:00,54792.170546,FST,82.9,48.9,30.65,160.0,22.0,29.88,1006.4,10.0,26.0,81.2,CLR
2020-06-19 22:00:00,52126.068122,FST,80.1,55.0,42.05,170.0,20.0,29.89,1007.2,10.0,26.0,80.17,CLR
2020-06-19 23:00:00,48854.613743,FST,78.1,59.0,51.88,170.0,20.0,29.93,1008.2,10.0,27.0,,CLR
2020-06-20 00:00:00,45436.89377,FST,75.9,55.9,49.91,180.0,18.0,29.92,1008.0,10.0,24.0,,CLR
2020-06-20 01:00:00,42448.580027,FST,77.0,55.9,48.12,180.0,16.0,29.93,1007.8,10.0,,,CLR
2020-06-20 02:00:00,40165.702331,FST,77.0,55.0,46.57,220.0,13.0,29.94,1008.6,10.0,,,CLR
2020-06-20 03:00:00,38374.570086,FST,75.9,55.0,48.3,210.0,9.0,29.94,1008.2,10.0,,,CLR
2020-06-20 04:00:00,37013.24668,FST,73.9,57.0,55.53,190.0,7.0,29.95,1008.8,10.0,,,CLR
2020-06-20 05:00:00,36277.677154,FST,73.9,59.0,59.66,140.0,14.0,29.96,1009.4,10.0,,,CLR
2020-06-20 06:00:00,36200.217415,FST,72.0,66.0,81.41,150.0,15.0,29.97,1009.6,10.0,20.0,,CLR
2020-06-20 07:00:00,36215.036388,FST,71.1,66.9,86.59,150.0,18.0,29.98,1009.8,10.0,26.0,,CLR
2020-06-20 08:00:00,36730.398044,FST,72.0,66.9,83.99,150.0,19.0,29.98,1010.3,10.0,22.0,,CLR
2020-06-20 09:00:00,38534.566817,FST,75.9,66.0,71.41,160.0,19.0,29.99,1010.6,10.0,24.0,,CLR
2020-06-20 10:00:00,41250.391738,FST,80.1,66.0,62.17,160.0,18.0,30.0,1010.9,10.0,24.0,82.17,CLR
2020-06-20 11:00:00,44475.717196,FST,84.0,64.9,52.71,170.0,20.0,30.0,1010.6,10.0,24.0,85.72,CLR
2020-06-20 12:00:00,48060.456687,FST,87.1,64.9,47.73,160.0,19.0,30.0,1010.6,10.0,22.0,88.86,CLR
2020-06-20 13:00:00,51546.533885,FST,91.9,64.0,39.76,150.0,16.0,30.0,1010.0,10.0,19.0,93.51,CLR
2020-06-20 14:00:00,54149.013978,FST,88.0,66.0,48.2,140.0,17.0,29.98,1009.9,10.0,23.0,90.41,CLR
2020-06-20 15:00:00,55521.995183,FST,86.0,68.0,55.04,130.0,19.0,29.98,1009.6,10.0,23.0,89.41,FEW
2020-06-20 16:00:00,56681.370212,FST,82.9,71.1,73.97,170.0,16.0,30.01,1009.9,10.0,21.0,86.48,FEW
2020-06-20 17:00:00,57633.068384,FST,84.9,68.0,57.02,150.0,16.0,29.97,1009.0,10.0,19.0,88.18,CLR
2020-06-20 18:00:00,58126.435513,FST,87.1,66.0,49.6,140.0,15.0,29.94,1008.3,10.0,,89.44,CLR
2020-06-20 19:00:00,57844.678976,FST,84.9,64.9,51.21,160.0,17.0,29.92,1007.7,10.0,17.0,86.62,CLR
2020-06-20 20:00:00,56241.749112,FST,84.9,64.9,51.21,150.0,16.0,29.91,1007.8,10.0,21.0,86.62,CLR
2020-06-20 21:00:00,54102.071577,FST,82.0,64.9,56.24,150.0,17.0,29.93,1008.4,10.0,24.0,83.76,CLR
2020-06-20 22:00:00,52786.654429,FST,79.0,66.0,64.45,160.0,16.0,29.95,1008.8,10.0,21.0,,CLR
2020-06-20 23:00:00,50145.038013,FST,77.0,64.0,64.21,160.0,14.0,29.96,1009.4,10.0,18.0,,CLR
2020-06-21 00:00:00,47178.217153,FST,75.0,59.0,57.5,170.0,11.0,29.96,1009.5,10.0,,,CLR
2020-06-21 01:00:00,44287.005485,FST,73.9,57.9,57.36,160.0,11.0,29.98,1009.6,10.0,,,CLR
2020-06-21 02:00:00,41992.788298,FST,72.0,57.0,59.2,170.0,11.0,29.97,1009.5,10.0,,,CLR
2020-06-21 03:00:00,40189.551338,FST,70.0,57.0,63.37,180.0,11.0,29.96,1009.0,10.0,,,CLR
2020-06-21 04:00:00,39076.527433,FST,69.1,55.9,62.8,210.0,10.0,29.94,1009.0,10.0,,,CLR
2020-06-21 05:00:00,38293.802695,FST,73.0,54.0,51.33,220.0,15.0,29.93,1008.3,10.0,,,CLR
2020-06-21 06:00:00,37842.579721,FST,68.0,55.9,65.22,220.0,14.0,29.93,1008.6,10.0,,,CLR
2020-06-21 07:00:00,37381.220277,FST,71.1,55.0,56.77,200.0,11.0,29.93,1008.7,10.0,,,CLR
2020-06-21 08:00:00,38014.735486,FST,73.9,54.0,49.79,220.0,15.0,29.93,1008.4,10.0,,,CLR
2020-06-21 09:00:00,40554.697806,FST,79.0,55.9,45.04,220.0,18.0,29.94,1008.5,10.0,22.0,,CLR
2020-06-21 10:00:00,43655.363435,FST,84.9,55.9,37.18,240.0,17.0,29.94,1008.5,10.0,20.0,83.74,CLR
2020-06-21 11:00:00,46401.630843,FST,91.0,55.0,29.66,250.0,18.0,29.94,1008.2,10.0,19.0,89.03,CLR
2020-06-21 12:00:00,48769.237891,FST,96.1,51.1,21.95,260.0,11.0,29.94,1008.2,10.0,,93.23,CLR
2020-06-21 13:00:00,50156.263966,FST,97.0,48.0,19.02,280.0,8.0,29.94,1008.1,10.0,,93.52,CLR
2020-06-21 14:00:00,51257.763373,FST,97.0,41.0,14.57,180.0,10.0,29.93,1007.9,10.0,,92.58,CLR
2020-06-21 15:00:00,53355.213932,FST,99.0,46.0,19.4,320.0,18.0,29.92,1007.3,10.0,14.0,94.6,CLR
2020-06-21 16:00:00,54687.016496,FST,99.0,42.1,14.3,170.0,5.0,29.9,1006.4,10.0,,94.6,FEW
2020-06-21 17:00:00,55240.402774,FST,98.1,48.0,18.39,300.0,20.0,29.88,1005.2,10.0,22.0,94.63,CLR
2020-06-21 18:00:00,56150.343415,FST,98.1,45.0,16.42,170.0,15.0,29.85,1004.6,10.0,18.0,94.12,CLR
2020-06-21 19:00:00,56178.562504,FST,96.1,52.0,22.69,170.0,20.0,29.82,1004.0,10.0,25.0,93.44,CLR
2020-06-21 20:00:00,54831.207423,FST,93.9,52.0,24.28,160.0,19.0,29.81,1004.0,10.0,23.0,91.19,CLR
2020-06-21 21:00:00,53497.480731,FST,90.0,55.9,31.62,160.0,17.0,29.82,1004.2,10.0,24.0,88.29,CLR
2020-06-21 22:00:00,52824.579644,FST,86.0,59.0,40.14,160.0,17.0,29.83,1004.6,10.0,21.0,85.47,CLR
2020-06-21 23:00:00,50248.37616,FST,82.9,60.1,46.12,160.0,15.0,29.86,1005.4,10.0,19.0,83.13,CLR
2020-06-22 00:00:00,47001.137999,FST,82.0,57.9,43.89,160.0,15.0,29.88,1005.9,10.0,,81.92,CLR
2020-06-22 01:00:00,43981.142007,FST,81.0,57.9,45.34,160.0,16.0,29.89,1006.2,10.0,17.0,81.2,CLR
2020-06-22 02:00:00,41862.294402,FST,79.0,61.0,54.08,170.0,15.0,29.89,1006.3,10.0,19.0,,CLR
2020-06-22 03:00:00,40406.693073,FST,77.0,61.0,57.77,180.0,16.0,29.89,1006.4,10.0,,,CLR
2020-06-22 04:00:00,39529.470323,FST,73.9,57.9,57.36,200.0,11.0,29.88,1005.8,10.0,,,CLR
2020-06-22 05:00:00,39058.241438,FST,71.1,59.0,65.58,200.0,9.0,29.87,1006.1,10.0,,,CLR
2020-06-22 06:00:00,39578.625406,FST,71.1,57.0,61.04,200.0,10.0,29.88,1006.1,10.0,,,CLR
2020-06-22 07:00:00,40732.93643,FST,73.9,54.0,49.79,220.0,14.0,29.89,1006.5,10.0,,,CLR
2020-06-22 08:00:00,41851.537993,FST,77.0,52.0,41.72,220.0,14.0,29.9,1006.9,10.0,,,CLR
2020-06-22 09:00:00,43775.798999,FST,82.9,51.1,33.27,220.0,15.0,29.91,1007.3,10.0,,81.45,CLR
2020-06-22 10:00:00,45912.386277,FST,88.0,51.1,28.25,230.0,16.0,29.92,1007.4,10.0,18.0,85.45,CLR
2020-06-22 11:00:00,47779.289596,FST,95.0,46.9,19.4,250.0,15.0,29.92,1007.0,10.0,16.0,91.36,CLR
2020-06-22 12:00:00,49566.878547,FST,99.0,43.0,14.8,270.0,11.0,29.91,1006.7,10.0,15.0,94.72,CLR
2020-06-22 13:00:00,51724.559873,FST,102.0,37.0,10.71,310.0,15.0,29.91,1006.5,10.0,19.0,96.38,CLR
2020-06-22 14:00:00,54054.824812,FST,102.0,34.0,9.51,330.0,15.0,29.9,1006.4,10.0,18.0,95.87,CLR
2020-06-22 15:00:00,56083.641948,FST,102.9,35.1,9.67,350.0,11.0,29.9,1006.0,10.0,,96.82,CLR
2020-06-22 16:00:00,57503.762904,FST,105.1,35.1,9.06,350.0,10.0,29.88,1005.3,10.0,15.0,98.72,CLR
2020-06-22 17:00:00,58592.253392,FST,105.1,37.9,10.12,360.0,11.0,29.86,1004.7,10.0,15.0,99.25,CLR
2020-06-22 18:00:00,59013.375915,FST,102.9,37.0,10.42,330.0,8.0,29.84,1004.4,10.0,,97.16,CLR
2020-06-22 19:00:00,58394.103037,FST,102.9,39.0,11.28,310.0,6.0,29.83,1003.9,10.0,,97.55,CLR
2020-06-22 20:00:00,56788.296083,FST,100.9,37.9,11.47,170.0,5.0,29.82,1003.7,10.0,,95.6,CLR
2020-06-22 21:00:00,55002.969048,FST,93.9,55.0,27.1,150.0,16.0,29.83,1003.9,10.0,22.0,91.95,CLR
2020-06-22 22:00:00,53714.917634,FST,89.1,57.9,34.97,160.0,15.0,29.85,1004.7,10.0,,88.01,CLR
2020-06-22 23:00:00,50469.613575,FST,88.0,55.9,33.68,340.0,8.0,29.88,1005.7,10.0,,86.42,CLR
2020-06-23 00:00:00,46622.145297,FST,86.0,60.1,41.74,160.0,13.0,29.91,1006.6,10.0,,85.81,CLR
2020-06-23 01:00:00,43337.35973,FST,84.9,61.0,44.65,160.0,16.0,29.92,1006.8,10.0,21.0,85.12,CLR
2020-06-23 02:00:00,40889.218596,FST,84.0,62.1,47.78,130.0,16.0,29.92,1006.7,10.0,21.0,84.67,CLR
2020-06-23 03:00:00,39102.66163,FST,82.9,62.1,49.51,140.0,16.0,29.92,1006.2,10.0,22.0,83.7,CLR
2020-06-23 04:00:00,38066.258038,FST,81.0,62.1,52.66,160.0,19.0,29.91,1006.4,10.0,,82.06,CLR
2020-06-23 05:00:00,37691.091463,FST,82.0,62.1,57.36,80.0,23.0,30.0,1009.9,10.0,33.0,82.91,CLR
2020-06-23 06:00:00,38437.781096,FST,73.0,57.9,59.12,90.0,22.0,30.01,1010.4,10.0,27.0,,BKN
2020-06-23 07:00:00,39742.893028,FST,73.0,55.9,55.0,100.0,20.0,30.01,1010.0,10.0,22.0,,BKN
2020-06-23 08:00:00,40431.312364,FST,73.9,57.0,55.53,130.0,17.0,30.0,1010.1,10.0,,,CLR
2020-06-23 09:00:00,41857.491175,FST,73.9,57.9,57.36,130.0,11.0,30.07,1012.9,10.0,,,CLR
2020-06-23 10:00:00,43559.143856,FST,75.0,57.9,55.28,130.0,11.0,30.1,1014.1,10.0,,,BKN
2020-06-23 11:00:00,45665.423362,FST,77.0,59.0,53.8,170.0,15.0,30.1,1012.9,10.0,,,BKN
2020-06-23 12:00:00,47826.974108,FST,84.0,61.0,45.96,150.0,14.0,30.07,1012.6,10.0,,84.32,SCT
2020-06-23 13:00:00,49858.792759,FST,86.0,60.1,41.74,120.0,16.0,30.06,1012.1,10.0,19.0,85.81,CLR
2020-06-23 14:00:00,51956.166008,FST,90.0,57.9,33.99,150.0,14.0,30.05,1011.2,10.0,18.0,88.89,CLR
2020-06-23 15:00:00,53414.618938,FST,90.0,55.9,31.62,150.0,11.0,30.02,1010.2,10.0,15.0,88.29,CLR
2020-06-23 16:00:00,54441.342293,FST,91.9,55.0,28.84,110.0,9.0,29.99,1009.4,10.0,,89.92,CLR
2020-06-23 17:00:00,54971.764347,FST,93.0,55.0,27.87,200.0,8.0,29.97,1009.1,10.0,16.0,91.03,CLR
2020-06-23 18:00:00,54851.444959,FST,93.9,53.1,25.28,140.0,10.0,29.95,1008.1,10.0,,91.45,CLR
2020-06-23 19:00:00,53749.737776,FST,93.0,53.1,26.0,80.0,11.0,29.93,1007.9,10.0,,90.54,CLR
2020-06-23 20:00:00,52034.824398,FST,91.0,52.0,26.57,90.0,11.0,29.94,1008.3,10.0,,88.35,CLR
2020-06-23 21:00:00,50651.184347,FST,88.0,54.0,31.43,60.0,14.0,29.95,1008.9,10.0,19.0,85.98,CLR
2020-06-23 22:00:00,49492.470634,FST,86.0,55.0,34.74,100.0,16.0,29.98,1009.9,10.0,17.0,84.46,CLR
2020-06-23 23:00:00,46608.612948,FST,84.0,55.0,37.05,100.0,15.0,30.01,1010.9,10.0,,82.85,CLR
2020-06-24 00:00:00,43122.453409,FST,82.0,55.9,40.83,100.0,14.0,30.04,1011.8,10.0,19.0,81.55,CLR
2020-06-24 01:00:00,40160.111796,FST,80.1,57.0,45.21,110.0,14.0,30.05,1012.1,10.0,20.0,80.45,CLR
2020-06-24 02:00:00,37903.108607,FST,69.1,59.0,70.21,330.0,40.0,30.12,1014.7,10.0,49.0,,CLR
2020-06-24 03:00:00,36443.493867,FST,66.0,61.0,93.18,360.0,28.0,30.17,1016.9,10.0,36.0,,SCT
2020-06-24 04:00:00,35490.392281,FST,63.0,62.1,96.88,360.0,18.0,30.19,1016.4,8.0,,,FEW
2020-06-24 05:00:00,35346.27187,FST,64.9,63.0,96.55,50.0,15.0,30.15,1013.2,9.0,,,FEW
2020-06-24 06:00:00,36052.126268,FST,66.0,57.9,75.12,140.0,20.0,30.05,1009.4,10.0,,,FEW
2020-06-24 07:00:00,37137.378938,FST,64.9,59.0,81.19,210.0,12.0,30.0,1011.0,10.0,,,CLR
2020-06-24 08:00:00,38381.294855,FST,66.0,60.1,81.27,350.0,13.0,30.06,1012.7,10.0,,,CLR
2020-06-24 09:00:00,40591.097925,FST,68.0,60.1,75.84,350.0,8.0,30.06,1013.2,10.0,,,CLR
2020-06-24 10:00:00,43056.057146,FST,70.0,60.1,70.81,320.0,7.0,30.07,1013.3,10.0,,,CLR
2020-06-24 11:00:00,45896.786286,FST,72.0,61.0,68.31,350.0,5.0,30.07,1013.3,10.0,,,CLR
2020-06-24 12:00:00,48932.633436,FST,73.9,62.1,66.61,360.0,9.0,30.09,1013.9,10.0,,,CLR
2020-06-24 13:00:00,51785.855979,FST,73.9,62.1,66.61,360.0,8.0,30.09,1013.5,10.0,,,CLR
2020-06-24 14:00:00,54372.73306,FST,78.1,62.1,57.92,150.0,4.0,30.07,1012.9,10.0,,,CLR
2020-06-24 15:00:00,56480.401263,FST,82.0,62.1,50.97,170.0,9.0,30.04,1012.3,10.0,,82.91,CLR
2020-06-24 16:00:00,58059.020174,FST,82.9,61.0,47.62,160.0,9.0,30.02,1011.5,10.0,,83.37,CLR
2020-06-24 17:00:00,59014.79598,FST,84.9,61.0,44.65,170.0,9.0,30.0,1010.7,10.0,,85.12,CLR
2020-06-24 18:00:00,59219.965289,FST,84.9,61.0,44.65,150.0,7.0,29.98,1009.7,10.0,,85.12,CLR
2020-06-24 19:00:00,58055.943043,FST,84.0,62.1,47.78,100.0,7.0,29.95,1008.7,10.0,,84.67,CLR
2020-06-24 20:00:00,55864.699751,FST,84.9,62.1,46.42,70.0,7.0,29.92,1008.5,10.0,,85.49,CLR
2020-06-24 21:00:00,53867.356628,FST,81.0,63.0,54.36,100.0,5.0,29.93,1008.9,10.0,,82.28,CLR
2020-06-24 22:00:00,52416.755572,FST,79.0,61.0,54.08,110.0,5.0,29.95,1009.7,10.0,,,CLR
2020-06-24 23:00:00,49073.307943,FST,73.0,63.0,70.87,180.0,5.0,30.0,1011.4,10.0,,,CLR
2020-06-25 00:00:00,45309.017553,FST,75.0,61.0,61.75,180.0,6.0,30.01,1011.8,10.0,,,CLR
2020-06-25 01:00:00,42100.90922,FST,75.0,55.9,51.43,140.0,8.0,30.01,1011.8,10.0,,,CLR
2020-06-25 02:00:00,39823.522686,FST,71.1,59.0,65.58,150.0,9.0,30.01,1011.7,10.0,,,CLR
2020-06-25 03:00:00,38235.741175,FST,72.0,54.0,53.09,140.0,9.0,30.02,1011.7,10.0,,,CLR
2020-06-25 04:00:00,37167.301451,FST,70.0,57.9,65.45,160.0,11.0,30.02,1011.3,10.0,,,CLR
2020-06-25 05:00:00,36908.018054,FST,69.1,59.0,70.21,180.0,11.0,30.0,1010.8,10.0,,,CLR
2020-06-25 06:00:00,37565.437027,FST,69.1,60.1,73.03,170.0,11.0,30.0,1011.1,10.0,,,CLR
2020-06-25 07:00:00,38629.778013,FST,66.9,60.1,78.77,170.0,10.0,30.01,1011.4,10.0,,,CLR
2020-06-25 08:00:00,39990.886121,FST,68.0,60.1,75.84,160.0,10.0,30.02,1011.9,10.0,,,CLR
2020-06-25 09:00:00,42294.588138,FST,72.0,62.1,71.02,200.0,9.0,30.05,1012.8,10.0,,,CLR
2020-06-25 10:00:00,44874.626744,FST,75.9,63.0,64.31,170.0,11.0,30.05,1012.4,10.0,,,CLR
2020-06-25 11:00:00,47759.877312,FST,80.1,63.0,55.98,160.0,8.0,30.04,1012.4,10.0,,81.5,CLR
2020-06-25 12:00:00,50599.417397,FST,84.0,63.0,49.32,150.0,7.0,30.04,1012.1,10.0,,84.99,CLR
2020-06-25 13:00:00,53289.217831,FST,88.0,55.0,32.6,170.0,7.0,30.04,1011.5,10.0,,86.2,CLR
2020-06-25 14:00:00,56069.188407,FST,90.0,55.0,30.61,130.0,10.0,30.02,1011.1,10.0,,,CLR
2020-06-25 15:00:00,58503.828866,FST,91.0,53.1,27.67,140.0,11.0,30.01,1010.0,10.0,,88.57,CLR
2020-06-25 16:00:00,59996.637101,FST,93.0,55.0,27.87,150.0,11.0,29.98,1009.5,10.0,,91.03,CLR
2020-06-25 17:00:00,60239.727192,FST,93.0,53.1,26.0,140.0,11.0,29.97,1009.0,10.0,,90.54,CLR
2020-06-25 18:00:00,59359.880726,FST,91.9,51.1,24.99,200.0,11.0,29.95,1008.5,10.0,,89.04,CLR
2020-06-25 19:00:00,57785.120673,FST,91.9,51.1,24.99,150.0,13.0,29.93,1008.2,10.0,,89.04,CLR
2020-06-25 20:00:00,55661.90595,FST,91.0,52.0,26.57,150.0,14.0,29.93,1008.3,10.0,17.0,88.35,CLR
2020-06-25 21:00:00,53774.945394,FST,87.1,52.0,30.05,150.0,14.0,29.93,1008.4,10.0,,84.82,CLR
2020-06-25 22:00:00,52534.379362,FST,84.0,54.0,35.72,140.0,9.0,29.96,1009.3,10.0,,82.67,CLR
2020-06-25 23:00:00,49715.509376,FST,80.1,53.1,39.23,150.0,8.0,29.99,1010.3,10.0,,79.94,CLR
2020-06-26 00:00:00,46293.542224,FST,78.1,53.1,41.89,160.0,9.0,30.0,1010.8,10.0,,,CLR
2020-06-26 01:00:00,43214.464837,FST,77.0,55.0,46.57,160.0,9.0,30.02,1011.1,10.0,,,CLR
2020-06-26 02:00:00,40969.707182,FST,75.0,57.0,53.52,150.0,9.0,30.02,1010.9,10.0,,,CLR
2020-06-26 03:00:00,39356.068494,FST,75.0,55.9,51.43,150.0,10.0,30.01,1010.7,10.0,,,CLR
2020-06-26 04:00:00,38511.8765,FST,73.9,57.9,57.36,150.0,11.0,30.0,1010.5,10.0,,,CLR
2020-06-26 05:00:00,38347.700345,FST,73.0,60.1,63.96,150.0,10.0,30.01,1010.8,10.0,,,CLR
2020-06-26 06:00:00,39121.946647,FST,72.0,63.0,73.31,150.0,11.0,30.02,1011.4,10.0,,,CLR
2020-06-26 07:00:00,40348.572488,FST,71.1,64.0,78.28,150.0,11.0,30.04,1012.0,10.0,,,CLR
2020-06-26 08:00:00,41526.11019,FST,72.0,64.9,78.35,150.0,13.0,30.04,1012.1,10.0,19.0,,CLR
2020-06-26 09:00:00,43748.433723,FST,75.0,64.9,70.83,170.0,16.0,30.06,1012.6,10.0,19.0,,CLR
2020-06-26 10:00:00,46374.943155,FST,80.1,64.0,57.98,180.0,14.0,30.06,1012.5,10.0,17.0,81.71,CLR
2020-06-26 11:00:00,48511.489439,FST,84.9,63.0,47.91,160.0,11.0,30.06,1012.1,10.0,19.0,85.83,CLR
2020-06-26 12:00:00,50251.468392,FST,88.0,60.1,39.17,170.0,14.0,30.05,1011.8,10.0,19.0,87.69,CLR
2020-06-26 13:00:00,51981.0066,FST,90.0,57.9,33.99,160.0,13.0,30.03,1011.4,10.0,14.0,88.89,CLR
2020-06-26 14:00:00,53680.81902,FST,91.0,55.9,30.65,150.0,13.0,30.03,1011.2,10.0,17.0,89.27,CLR
2020-06-26 15:00:00,55326.911328,FST,93.0,57.0,29.96,160.0,14.0,30.02,1010.2,10.0,20.0,91.64,CLR
2020-06-26 16:00:00,56465.397673,FST,93.9,55.0,27.1,140.0,14.0,29.99,1009.6,10.0,19.0,91.95,CLR
2020-06-26 17:00:00,56898.084296,FST,93.9,54.0,26.13,150.0,14.0,29.97,1009.1,10.0,19.0,91.68,CLR
2020-06-26 18:00:00,56468.598727,FST,93.0,54.0,26.87,160.0,15.0,29.95,1008.5,10.0,21.0,90.76,CLR
2020-06-26 19:00:00,55374.289447,FST,91.9,55.9,29.8,150.0,18.0,29.94,1008.6,10.0,21.0,90.17,CLR
2020-06-26 20:00:00,53642.679284,FST,90.0,55.9,32.53,150.0,17.0,29.95,1009.1,10.0,19.0,88.29,CLR
2020-06-26 21:00:00,51990.929965,FST,86.0,57.0,37.35,140.0,14.0,29.96,1009.4,10.0,22.0,84.92,CLR
2020-06-26 22:00:00,50865.452635,FST,82.9,59.0,44.34,140.0,13.0,29.98,1010.0,10.0,,82.86,CLR
2020-06-26 23:00:00,48748.842199,FST,81.0,63.0,54.36,140.0,15.0,30.01,1011.0,10.0,19.0,82.28,CLR
2020-06-27 00:00:00,45927.614317,FST,79.0,64.9,62.03,150.0,14.0,30.05,1012.0,10.0,15.0,,CLR
2020-06-27 01:00:00,43410.913043,FST,75.9,66.0,71.41,140.0,15.0,30.04,1012.0,10.0,19.0,,CLR
2020-06-27 02:00:00,41380.681835,FST,75.0,66.0,73.59,150.0,14.0,30.05,1011.5,10.0,,,CLR
2020-06-27 03:00:00,39853.419863,FST,73.9,66.0,76.36,140.0,14.0,30.03,1010.8,10.0,19.0,,CLR
2020-06-27 04:00:00,38956.74696,FST,73.0,66.0,78.7,140.0,14.0,30.01,1010.0,10.0,19.0,,CLR
2020-06-27 05:00:00,38580.513292,FST,72.0,66.0,81.41,150.0,16.0,29.98,1009.3,10.0,22.0,,CLR
2020-06-27 06:00:00,38708.146454,FST,71.1,66.0,83.93,160.0,16.0,29.96,1008.8,10.0,23.0,,CLR
2020-06-27 07:00:00,38864.93256,FST,72.0,66.0,81.41,160.0,16.0,29.95,1008.8,10.0,21.0,,CLR
2020-06-27 08:00:00,39534.70351,FST,73.0,66.0,78.7,160.0,16.0,29.96,1009.5,10.0,22.0,,CLR
2020-06-27 09:00:00,42107.251023,FST,75.9,66.0,71.41,170.0,17.0,29.99,1010.3,10.0,21.0,,CLR
2020-06-27 10:00:00,45633.346404,FST,80.1,66.0,62.17,170.0,16.0,29.99,1010.3,10.0,19.0,82.17,CLR
2020-06-27 11:00:00,48998.452637,FST,84.0,66.0,54.77,180.0,11.0,29.99,1009.8,10.0,,86.2,CLR
2020-06-27 12:00:00,52110.542858,FST,87.1,64.0,46.26,210.0,8.0,29.97,1009.2,10.0,,88.42,CLR
2020-06-27 13:00:00,55056.467311,FST,91.0,62.1,38.26,280.0,8.0,29.96,1008.8,10.0,,,CLR
2020-06-27 14:00:00,57502.946283,FST,93.9,63.0,36.08,320.0,7.0,29.95,1008.0,10.0,,95.19,CLR
2020-06-27 15:00:00,59099.384668,FST,96.1,61.0,31.41,130.0,9.0,29.92,1006.9,10.0,,96.64,CLR
2020-06-27 16:00:00,60300.897355,FST,91.9,64.0,39.76,130.0,15.0,29.9,1006.7,10.0,,93.51,CLR
2020-06-27 17:00:00,60748.721948,FST,89.1,64.0,43.42,130.0,14.0,29.9,1006.9,10.0,,90.49,CLR
2020-06-27 18:00:00,60572.900854,FST,84.0,60.1,44.51,190.0,16.0,29.89,1006.7,10.0,,84.05,CLR
2020-06-27 19:00:00,59441.093118,FST,82.9,55.0,38.38,170.0,22.0,29.86,1005.4,10.0,,82.03,FEW
2020-06-27 20:00:00,57185.331372,FST,86.0,59.0,40.14,150.0,11.0,29.85,1005.4,10.0,,85.47,CLR
2020-06-27 21:00:00,55262.918804,FST,84.0,60.1,44.51,160.0,15.0,29.86,1006.0,10.0,19.0,84.05,CLR
2020-06-27 22:00:00,53781.770837,FST,80.1,64.0,57.98,180.0,18.0,29.89,1007.0,10.0,,81.71,CLR
2020-06-27 23:00:00,51111.595281,FST,80.1,60.1,50.52,230.0,13.0,29.93,1008.1,10.0,18.0,80.94,CLR
2020-06-28 00:00:00,48219.866869,FST,80.1,57.9,46.7,210.0,13.0,29.94,1008.1,10.0,,80.58,CLR
2020-06-28 01:00:00,45651.457807,FST,77.0,55.9,48.12,210.0,13.0,29.94,1007.8,10.0,,,CLR
2020-06-28 02:00:00,43512.337015,FST,77.0,61.0,57.77,230.0,11.0,29.92,1007.0,10.0,,,CLR
2020-06-28 03:00:00,41971.278589,FST,73.9,63.0,68.76,190.0,10.0,29.9,1006.0,10.0,,,CLR
2020-06-28 04:00:00,40823.360914,FST,73.0,59.0,61.5,210.0,11.0,29.87,1005.5,10.0,,,CLR
2020-06-28 05:00:00,40219.321021,FST,73.9,55.0,51.64,220.0,13.0,29.85,1005.4,10.0,,,CLR
2020-06-28 06:00:00,40072.098254,FST,75.0,57.0,53.52,220.0,16.0,29.85,1005.2,10.0,,,CLR
2020-06-28 07:00:00,39862.959614,FST,75.0,57.0,53.52,220.0,16.0,29.84,1005.4,10.0,,,CLR
2020-06-28 08:00:00,40320.344318,FST,75.0,57.0,53.52,230.0,15.0,29.86,1005.9,10.0,19.0,,CLR
2020-06-28 09:00:00,42520.750223,FST,78.1,57.0,48.28,230.0,17.0,29.88,1006.4,10.0,24.0,,CLR
2020-06-28 10:00:00,45825.305587,FST,81.0,57.0,43.9,230.0,19.0,29.87,1006.1,10.0,24.0,81.05,CLR
2020-06-28 11:00:00,49130.12447,FST,82.0,57.0,42.49,230.0,17.0,29.87,1005.7,10.0,21.0,81.75,CLR
2020-06-28 12:00:00,51906.342804,FST,82.9,55.9,39.66,220.0,17.0,29.85,1005.3,10.0,,82.2,CLR
2020-06-28 13:00:00,53920.935783,FST,89.1,53.1,29.37,230.0,15.0,29.84,1004.7,10.0,,86.79,CLR
2020-06-28 14:00:00,55709.923393,FST,89.1,51.1,27.29,230.0,14.0,29.83,1004.1,10.0,,86.42,CLR
2020-06-28 15:00:00,56708.354974,FST,93.9,51.1,23.48,220.0,11.0,29.81,1003.1,10.0,,91.0,CLR
2020-06-28 16:00:00,57505.130719,FST,93.9,50.0,22.55,240.0,11.0,29.78,1002.6,10.0,16.0,90.79,CLR
2020-06-28 17:00:00,57618.409471,FST,93.9,48.0,20.92,230.0,13.0,29.77,1002.3,10.0,,90.45,BKN
2020-06-28 18:00:00,57384.948396,FST,96.1,48.9,20.22,230.0,11.0,29.76,1001.4,10.0,18.0,92.78,CLR
2020-06-28 19:00:00,56457.807512,FST,96.1,46.9,18.76,250.0,13.0,29.74,1000.8,10.0,15.0,92.44,CLR
2020-06-28 20:00:00,54835.260966,FST,93.0,46.0,19.95,230.0,13.0,29.72,1000.9,10.0,17.0,89.31,CLR
2020-06-28 21:00:00,53652.626654,FST,90.0,48.0,23.63,220.0,11.0,29.73,1001.2,10.0,,86.78,CLR
2020-06-28 22:00:00,52993.410597,FST,86.0,51.1,30.11,180.0,10.0,29.74,1001.7,10.0,,83.77,CLR
2020-06-28 23:00:00,50899.935126,FST,84.9,59.0,41.58,160.0,18.0,29.78,1002.9,10.0,22.0,84.51,CLR
2020-06-29 00:00:00,48018.748876,FST,84.0,57.9,41.14,220.0,14.0,29.82,1004.3,10.0,,83.47,CLR
2020-06-29 01:00:00,45480.729883,FST,82.9,59.0,44.34,220.0,11.0,29.83,1004.1,10.0,,82.86,CLR
2020-06-29 02:00:00,43742.209309,FST,80.1,60.1,50.52,170.0,10.0,29.82,1003.8,10.0,,80.94,CLR
2020-06-29 03:00:00,42579.962689,FST,79.0,61.0,54.08,160.0,11.0,29.8,1003.3,10.0,,,CLR
2020-06-29 04:00:00,42032.0452,FST,77.0,60.1,55.95,170.0,10.0,29.8,1003.4,10.0,,,CLR
2020-06-29 05:00:00,42106.402231,FST,75.9,57.0,51.93,200.0,9.0,29.81,1004.0,10.0,,,CLR
2020-06-29 06:00:00,42978.742994,FST,77.0,55.0,46.57,220.0,10.0,29.82,1004.0,10.0,,,CLR
2020-06-29 07:00:00,44165.033291,FST,75.0,55.9,51.43,220.0,11.0,29.84,1004.8,10.0,,,CLR
2020-06-29 08:00:00,45370.210089,FST,75.9,55.9,49.91,230.0,11.0,29.85,1005.3,10.0,,,CLR
2020-06-29 09:00:00,47750.612019,FST,82.0,57.0,42.49,230.0,10.0,29.87,1005.9,10.0,,81.75,CLR
2020-06-29 10:00:00,50633.263465,FST,88.0,54.0,31.43,270.0,10.0,29.88,1006.2,10.0,,85.98,CLR
2020-06-29 11:00:00,53649.002237,FST,90.0,54.0,29.51,290.0,11.0,29.88,1006.1,10.0,,87.82,CLR
2020-06-29 12:00:00,56643.260065,FST,93.0,53.1,26.0,300.0,15.0,29.88,1005.9,10.0,,90.54,CLR
2020-06-29 13:00:00,59553.1827,FST,95.0,51.1,22.7,320.0,11.0,29.88,1005.4,10.0,,92.11,CLR
2020-06-29 14:00:00,61989.890124,FST,96.1,51.1,21.95,280.0,13.0,29.86,1004.9,10.0,18.0,93.23,CLR
2020-06-29 15:00:00,63687.700356,FST,97.0,48.9,19.67,320.0,13.0,29.84,1004.2,10.0,17.0,93.69,CLR
2020-06-29 16:00:00,64577.889862,FST,97.0,50.0,20.49,240.0,15.0,29.82,1003.6,10.0,22.0,93.91,FEW
2020-06-29 17:00:00,65040.415851,FST,98.1,48.9,19.02,250.0,17.0,29.8,1002.8,10.0,22.0,94.81,CLR
2020-06-29 18:00:00,64473.494552,FST,99.0,45.0,15.98,250.0,17.0,29.79,1002.4,10.0,21.0,95.0,FEW
2020-06-29 19:00:00,62883.973536,FST,98.1,44.1,15.87,260.0,15.0,29.77,1002.1,10.0,17.0,93.99,CLR
2020-06-29 20:00:00,60578.990242,FST,97.0,45.0,16.98,260.0,14.0,29.77,1002.4,10.0,,93.04,CLR
2020-06-29 21:00:00,58813.947348,FST,91.9,63.0,38.39,260.0,13.0,29.79,1003.0,10.0,18.0,92.97,CLR
2020-06-29 22:00:00,57445.889661,FST,86.0,62.1,44.81,150.0,22.0,29.81,1003.8,10.0,27.0,86.52,CLR
2020-06-29 23:00:00,54426.529762,FST,84.0,59.0,42.8,160.0,19.0,29.83,1004.4,10.0,26.0,83.75,CLR
2020-06-30 00:00:00,50958.654808,FST,81.0,62.1,52.66,160.0,20.0,29.84,1004.7,10.0,23.0,82.06,CLR
2020-06-30 01:00:00,48145.390592,FST,80.1,62.1,54.23,160.0,17.0,29.84,1004.7,10.0,20.0,81.31,CLR
2020-06-30 02:00:00,46012.781621,FST,79.0,61.0,54.08,160.0,13.0,29.85,1004.7,10.0,19.0,,CLR
2020-06-30 03:00:00,44560.923047,FST,75.9,59.0,55.8,260.0,10.0,29.85,1005.2,10.0,,,CLR
2020-06-30 04:00:00,43611.748156,FST,75.9,57.9,53.64,200.0,9.0,29.85,1004.8,10.0,,,CLR
2020-06-30 05:00:00,43436.178241,FST,78.1,57.9,49.87,220.0,11.0,29.84,1004.7,10.0,,,CLR
2020-06-30 06:00:00,44170.450041,FST,78.1,59.0,51.88,230.0,11.0,29.85,1005.0,10.0,,,CLR
2020-06-30 07:00:00,45360.183318,FST,78.1,59.0,51.88,240.0,11.0,29.88,1006.0,10.0,,,CLR
2020-06-30 08:00:00,46222.631831,FST,78.1,57.9,49.87,240.0,11.0,29.9,1006.7,10.0,,,CLR
2020-06-30 09:00:00,48398.303757,FST,84.0,55.9,38.28,300.0,9.0,29.93,1007.6,10.0,,83.03,CLR
2020-06-30 10:00:00,51278.688854,FST,88.0,54.0,31.43,300.0,19.0,29.93,1007.8,10.0,27.0,85.98,CLR
2020-06-30 11:00:00,54040.108753,FST,,,,290.0,18.0,29.93,,10.0,,,CLR
2020-06-30 12:00:00,56787.56576,,,,,,,,,,,,
2020-06-30 13:00:00,59553.074503,,,,,,,,,,,,
2020-06-30 14:00:00,62356.2232,,,,,,,,,,,,
2020-06-30 15:00:00,64617.220852,,,,,,,,,,,,
2020-06-30 16:00:00,65889.520372,,,,,,,,,,,,
2020-06-30 17:00:00,66396.02954,,,,,,,,,,,,
2020-06-30 18:00:00,65912.805142,,,,,,,,,,,,
2020-06-30 19:00:00,64502.851777,,,,,,,,,,,,
2020-06-30 20:00:00,62234.052509,,,,,,,,,,,,
2020-06-30 21:00:00,60136.912878,,,,,,,,,,,,
2020-06-30 22:00:00,58667.236485,,,,,,,,,,,,
2020-06-30 23:00:00,55560.851202,,,,,,,,,,,,
2020-07-01 00:00:00,51969.480412,,,,,,,,,,,,
2020-07-01 01:00:00,48795.720686,,,,,,,,,,,,
2020-07-01 02:00:00,46531.094371,,,,,,,,,,,,
2020-07-01 03:00:00,44945.072691,FST,82.0,62.6,64.91,350.0,14.0,29.92,1006.7,10.0,19.0,81.75,OVC
2020-07-01 04:00:00,43873.40507,FST,78.1,64.9,68.73,220.0,17.0,29.9,1006.6,10.0,16.0,,FEW
2020-07-01 05:00:00,43435.423284,FST,75.9,64.9,68.73,200.0,16.0,29.89,1006.4,10.0,,,FEW
2020-07-01 06:00:00,43885.616935,FST,75.9,61.0,59.92,220.0,12.0,29.89,1006.2,10.0,,,CLR
2020-07-01 07:00:00,44738.822828,FST,77.0,59.0,53.8,220.0,12.0,29.89,1006.3,10.0,,,CLR
2020-07-01 08:00:00,45673.746751,FST,77.0,59.0,53.8,230.0,11.0,29.9,1006.9,10.0,,,CLR
2020-07-01 09:00:00,48072.430304,FST,79.0,60.1,52.38,230.0,10.0,29.93,1007.9,10.0,,,CLR
2020-07-01 10:00:00,51507.901847,FST,84.0,60.1,44.51,180.0,8.0,29.95,1008.7,10.0,,84.05,CLR
2020-07-01 11:00:00,54997.128775,FST,89.1,60.1,37.83,170.0,7.0,29.95,1008.4,10.0,,88.76,CLR
2020-07-01 12:00:00,58360.730627,FST,90.0,55.9,31.62,330.0,5.0,29.95,1008.3,10.0,,88.29,CLR
2020-07-01 13:00:00,61449.20893,FST,91.9,55.9,29.8,360.0,8.0,29.95,1008.1,10.0,,90.17,CLR
2020-07-01 14:00:00,64178.776802,FST,96.1,51.1,21.95,350.0,9.0,29.94,1007.7,10.0,,93.23,CLR
2020-07-01 15:00:00,66257.102424,FST,95.0,46.0,18.76,350.0,8.0,29.93,1007.5,10.0,,91.23,CLR
2020-07-01 16:00:00,67460.392622,FST,96.1,45.0,17.46,330.0,7.0,29.92,1007.2,10.0,,92.17,FEW
2020-07-01 17:00:00,67904.429867,FST,95.0,48.0,20.22,310.0,14.0,29.91,1007.1,10.0,,91.53,SCT
2020-07-01 18:00:00,67632.423656,FST,95.0,52.0,23.47,190.0,11.0,29.91,1006.3,10.0,,92.31,BKN
2020-07-01 19:00:00,66410.264609,FST,95.0,50.0,21.79,320.0,5.0,29.88,1005.5,10.0,,91.89,CLR
2020-07-01 20:00:00,64004.747431,FST,96.1,50.0,21.07,320.0,8.0,29.88,1006.2,10.0,,93.0,CLR
2020-07-01 21:00:00,61694.454733,FST,87.1,61.0,44.65,330.0,15.0,29.91,1007.5,10.0,23.0,87.15,CLR
2020-07-01 22:00:00,59781.602422,FST,82.9,59.0,44.34,180.0,13.0,29.93,1008.1,10.0,,82.86,CLR
2020-07-01 23:00:00,56304.874365,FST,82.9,59.0,44.34,190.0,14.0,29.98,1009.5,10.0,26.0,82.86,CLR
2020-07-02 00:00:00,52506.926942,FST,82.9,63.0,59.78,120.0,11.0,29.99,1009.9,10.0,,82.86,FEW
2020-07-02 01:00:00,49180.93404,FST,75.0,64.9,70.83,140.0,19.0,30.0,1010.5,10.0,22.0,,CLR
2020-07-02 02:00:00,46534.703784,FST,73.9,61.0,64.07,140.0,15.0,30.0,1010.2,10.0,20.0,,CLR
2020-07-02 03:00:00,44723.097503,FST,73.9,61.0,64.07,140.0,15.0,30.0,1010.1,10.0,20.0,,CLR
2020-07-02 04:00:00,43509.646594,FST,73.0,64.0,73.4,170.0,19.0,29.99,1009.3,10.0,25.0,,CLR
2020-07-02 05:00:00,42989.884347,FST,73.0,64.0,73.4,180.0,21.0,29.97,1008.9,10.0,27.0,,CLR
2020-07-02 06:00:00,43462.925095,FST,72.0,64.0,75.92,180.0,15.0,29.97,1009.4,10.0,,,CLR
2020-07-02 07:00:00,44202.797307,FST,73.0,63.0,70.87,200.0,10.0,29.97,1009.4,10.0,,,CLR
2020-07-02 08:00:00,45169.686417,FST,73.9,64.0,71.21,200.0,8.0,29.98,1009.6,10.0,,,CLR
2020-07-02 09:00:00,47812.500458,FST,77.0,64.9,66.27,160.0,11.0,30.0,1010.8,10.0,,,CLR
2020-07-02 10:00:00,51597.785862,FST,82.9,64.9,54.62,170.0,9.0,30.01,1010.9,10.0,,84.64,CLR
2020-07-02 11:00:00,55754.050878,FST,87.1,61.0,41.62,230.0,5.0,30.02,1011.0,10.0,,87.15,CLR
2020-07-02 12:00:00,59762.714427,FST,89.1,59.0,36.37,270.0,4.0,30.02,1011.0,10.0,,88.37,CLR
2020-07-02 13:00:00,63175.170938,FST,91.9,60.1,34.65,360.0,7.0,30.01,1010.6,10.0,,,CLR
2020-07-02 14:00:00,66003.297751,FST,93.9,60.1,32.56,190.0,10.0,30.0,1009.8,10.0,,93.77,CLR
2020-07-02 15:00:00,67933.343312,FST,93.9,61.0,33.62,130.0,9.0,29.98,1009.3,10.0,,94.18,CLR
2020-07-02 16:00:00,68583.890998,FST,93.9,63.0,36.08,170.0,11.0,29.96,1008.9,10.0,,95.19,SCT
2020-07-02 17:00:00,68353.119486,FST,95.0,64.9,38.56,170.0,17.0,29.95,1008.9,10.0,24.0,97.02,FEW
2020-07-02 18:00:00,67383.347373,FST,93.0,66.0,43.85,150.0,20.0,29.96,1009.4,10.0,27.0,95.98,FEW
2020-07-02 19:00:00,65318.761559,FST,87.1,64.0,46.26,160.0,17.0,29.96,1008.8,10.0,21.0,88.42,CLR
2020-07-02 20:00:00,62384.143364,FST,87.1,64.0,46.26,150.0,15.0,29.95,1008.8,10.0,21.0,88.42,CLR
2020-07-02 21:00:00,59498.91416,FST,84.9,63.0,47.91,150.0,16.0,29.96,1009.2,10.0,21.0,85.83,CLR
2020-07-02 22:00:00,57449.084503,FST,82.0,63.0,52.62,150.0,15.0,29.98,1009.7,10.0,17.0,83.17,CLR
2020-07-02 23:00:00,53964.568452,FST,81.0,63.0,54.36,150.0,13.0,30.0,1010.6,10.0,17.0,82.28,CLR
2020-07-03 00:00:00,50174.57945,FST,79.0,61.0,54.08,160.0,11.0,30.02,1011.3,10.0,,,CLR
2020-07-03 01:00:00,46789.791257,FST,77.0,63.0,62.0,170.0,10.0,30.02,1010.5,10.0,,,CLR
2020-07-03 02:00:00,44130.567822,FST,75.9,64.0,66.6,170.0,10.0,30.0,1010.5,10.0,,,CLR
2020-07-03 03:00:00,42188.416303,FST,75.0,64.0,68.64,170.0,10.0,30.01,1010.5,10.0,,,CLR
2020-07-03 04:00:00,40831.933066,FST,75.0,64.0,68.64,180.0,7.0,30.0,1010.1,10.0,,,CLR
2020-07-03 05:00:00,40134.174832,FST,75.0,64.9,70.83,170.0,8.0,30.0,1010.4,10.0,,,CLR
2020-07-03 06:00:00,40056.834039,FST,75.0,64.9,70.83,160.0,9.0,30.01,1010.9,10.0,,,CLR
2020-07-03 07:00:00,40191.642363,FST,75.0,66.0,73.59,170.0,11.0,30.02,1011.3,10.0,17.0,,FEW
2020-07-03 08:00:00,40641.882907,FST,75.9,64.9,68.73,170.0,14.0,30.03,1011.4,10.0,,,CLR
2020-07-03 09:00:00,43184.565451,FST,79.0,64.9,62.03,160.0,13.0,30.04,1012.1,10.0,,,CLR
2020-07-03 10:00:00,47072.979832,FST,82.9,66.0,56.75,160.0,13.0,30.05,1012.3,10.0,,85.07,CLR
2020-07-03 11:00:00,51440.248991,FST,88.0,64.0,44.95,160.0,10.0,30.05,1012.0,10.0,,89.34,CLR
2020-07-03 12:00:00,55834.791164,FST,90.0,61.0,37.97,190.0,8.0,30.05,1012.0,10.0,,90.03,CLR
2020-07-03 13:00:00,59792.23404,FST,93.0,60.1,33.48,150.0,8.0,30.04,1011.7,10.0,,92.8,CLR
2020-07-03 14:00:00,63242.107327,FST,93.9,61.0,33.62,160.0,10.0,30.04,1011.1,10.0,,94.18,CLR
2020-07-03 15:00:00,65824.249615,FST,96.1,61.0,31.41,150.0,14.0,30.02,1010.3,10.0,19.0,96.64,CLR
2020-07-03 16:00:00,67613.329867,FST,96.1,60.1,30.43,150.0,15.0,29.99,1009.5,10.0,19.0,96.21,CLR
2020-07-03 17:00:00,68440.308118,FST,96.1,61.0,31.41,140.0,15.0,29.98,1009.1,10.0,16.0,96.64,CLR
2020-07-03 18:00:00,68391.748862,FST,96.1,62.1,32.66,150.0,16.0,29.96,1008.8,10.0,22.0,97.2,CLR
2020-07-03 19:00:00,66987.656704,FST,93.9,62.1,34.95,150.0,15.0,29.95,1008.6,10.0,17.0,94.72,CLR
2020-07-03 20:00:00,64096.409901,FST,91.9,61.0,35.77,140.0,15.0,29.96,1009.1,10.0,19.0,92.01,CLR
2020-07-03 21:00:00,60421.513939,FST,90.0,59.0,35.36,140.0,11.0,29.98,1009.5,10.0,15.0,89.26,CLR
2020-07-03 22:00:00,57545.730236,FST,87.1,59.0,38.75,140.0,13.0,30.0,1010.5,10.0,17.0,86.47,CLR
2020-07-03 23:00:00,53571.453413,FST,84.9,61.0,44.65,140.0,13.0,30.03,1011.3,10.0,17.0,85.12,CLR
2020-07-04 00:00:00,49705.584459,FST,82.9,60.1,46.12,140.0,11.0,30.04,1011.7,10.0,,83.13,CLR
2020-07-04 01:00:00,46058.865453,FST,81.0,59.0,47.17,140.0,8.0,30.05,1011.8,10.0,,81.4,CLR
2020-07-04 02:00:00,43185.267975,FST,79.0,60.1,52.38,150.0,8.0,30.04,1011.3,10.0,,,CLR
2020-07-04 03:00:00,40886.938911,FST,77.0,60.1,55.95,150.0,8.0,30.03,1010.8,10.0,,,CLR
2020-07-04 04:00:00,39260.669961,FST,75.9,59.0,55.8,170.0,10.0,30.02,1010.4,10.0,,,CLR
2020-07-04 05:00:00,38130.960087,FST,75.0,57.9,55.28,170.0,9.0,30.02,1010.9,10.0,,,CLR
2020-07-04 06:00:00,37678.339306,FST,73.9,57.9,57.36,150.0,8.0,30.02,1011.2,10.0,,,CLR
2020-07-04 07:00:00,37271.913324,FST,73.0,57.9,59.12,210.0,7.0,30.03,1011.6,10.0,,,CLR
2020-07-04 08:00:00,37577.845513,FST,75.0,59.0,57.5,170.0,9.0,30.04,1011.3,10.0,,,CLR
2020-07-04 09:00:00,40503.895842,FST,80.1,60.1,50.52,170.0,8.0,30.03,1011.4,10.0,,80.94,CLR
2020-07-04 10:00:00,44713.872736,FST,84.9,60.1,43.24,160.0,7.0,30.04,1011.7,10.0,,84.83,CLR
2020-07-04 11:00:00,49510.000044,FST,90.0,60.1,36.77,350.0,7.0,30.04,1011.2,10.0,,89.66,CLR
2020-07-04 12:00:00,54343.320897,FST,91.9,59.0,33.31,330.0,10.0,30.04,1011.5,10.0,,91.2,CLR
2020-07-04 13:00:00,58601.37662,FST,93.0,57.9,30.95,80.0,11.0,30.04,1011.5,10.0,14.0,91.94,CLR
2020-07-04 14:00:00,61678.164069,FST,93.9,57.0,29.14,130.0,11.0,30.04,1011.0,10.0,16.0,92.58,CLR
2020-07-04 15:00:00,63927.514927,FST,96.1,57.0,27.23,110.0,10.0,30.02,1010.4,10.0,15.0,94.94,CLR
2020-07-04 16:00:00,65481.682959,FST,98.1,55.9,24.61,180.0,11.0,30.0,1009.4,10.0,,96.72,CLR
2020-07-04 17:00:00,66540.822912,FST,97.0,55.0,24.63,360.0,10.0,29.97,1008.6,10.0,,95.23,CLR
2020-07-04 18:00:00,66810.639586,FST,97.0,55.0,24.63,140.0,13.0,29.94,1007.6,10.0,,95.23,CLR
2020-07-04 19:00:00,65755.061333,FST,96.1,55.0,25.32,140.0,11.0,29.92,1007.3,10.0,17.0,94.27,CLR
2020-07-04 20:00:00,63247.60754,FST,95.0,55.0,26.19,130.0,11.0,29.92,1007.7,10.0,,93.1,CLR
2020-07-04 21:00:00,59989.685356,FST,93.0,54.0,26.87,140.0,13.0,29.93,1007.9,10.0,,90.76,CLR
2020-07-04 22:00:00,57242.210679,FST,89.1,52.0,28.21,140.0,10.0,29.95,1008.4,10.0,,86.58,CLR
2020-07-04 23:00:00,54319.409025,FST,86.0,51.1,30.11,150.0,10.0,29.98,1009.3,10.0,,83.77,CLR
2020-07-05 00:00:00,51473.475472,FST,82.9,52.0,34.39,160.0,9.0,29.98,1009.2,10.0,,81.57,CLR
2020-07-05 01:00:00,48376.534181,FST,82.0,53.1,36.87,170.0,9.0,29.97,1008.8,10.0,,81.11,CLR
2020-07-05 02:00:00,45508.23063,FST,81.0,55.0,40.83,170.0,10.0,29.96,1008.5,10.0,,80.73,CLR
2020-07-05 03:00:00,43248.678594,FST,80.1,55.0,42.05,170.0,8.0,29.95,1008.3,10.0,,80.17,CLR
2020-07-05 04:00:00,41508.357778,FST,78.1,54.0,43.3,200.0,8.0,29.95,1008.3,10.0,,,CLR
2020-07-05 05:00:00,40263.205943,FST,75.0,54.0,47.99,180.0,8.0,29.95,1008.5,10.0,,,CLR
2020-07-05 06:00:00,39603.174823,FST,75.0,54.0,47.99,170.0,7.0,29.96,1009.1,10.0,,,CLR
2020-07-05 07:00:00,38924.051603,FST,73.9,54.0,49.79,170.0,8.0,29.97,1009.4,10.0,,,CLR
2020-07-05 08:00:00,39111.649649,FST,75.9,55.0,48.3,170.0,9.0,29.98,1009.4,10.0,,,CLR
2020-07-05 09:00:00,41444.178513,FST,79.0,57.0,46.87,160.0,10.0,30.01,1010.4,10.0,,,CLR
2020-07-05 10:00:00,44733.524071,FST,81.0,55.9,42.19,140.0,11.0,30.0,1010.3,10.0,,80.87,CLR
2020-07-05 11:00:00,48474.40349,FST,86.0,57.0,37.35,140.0,7.0,29.99,1009.8,10.0,,84.92,CLR
2020-07-05 12:00:00,51764.961631,FST,90.0,57.0,32.91,180.0,4.0,29.99,1009.5,10.0,,88.61,CLR
2020-07-05 13:00:00,55378.58011,FST,95.0,57.0,28.16,180.0,5.0,29.98,1008.7,10.0,,93.75,CLR
2020-07-05 14:00:00,59152.553704,FST,97.0,55.9,25.45,140.0,7.0,29.96,1007.8,10.0,,95.53,CLR
2020-07-05 15:00:00,62120.20478,FST,97.0,54.0,23.75,190.0,7.0,29.93,1007.0,10.0,,94.92,CLR
2020-07-05 16:00:00,64161.933733,FST,100.0,53.1,20.98,270.0,5.0,29.91,1006.0,10.0,,,CLR
2020-07-05 17:00:00,65028.104354,FST,102.0,53.1,19.75,230.0,13.0,29.88,1005.3,10.0,,100.0,CLR
2020-07-05 18:00:00,64432.342373,FST,91.0,59.0,34.27,210.0,20.0,29.88,1006.3,10.0,27.0,90.27,SCT
2020-07-05 19:00:00,62775.306301,FST,87.1,60.1,40.31,200.0,22.0,29.89,1006.5,10.0,27.0,86.83,FEW
2020-07-05 20:00:00,60557.857378,FST,88.0,55.9,33.68,220.0,19.0,29.88,1006.0,10.0,23.0,86.42,SCT
2020-07-05 21:00:00,58360.268942,FST,87.1,55.0,33.55,230.0,15.0,29.89,1006.8,10.0,18.0,85.4,CLR
2020-07-05 22:00:00,56675.084341,FST,75.9,64.9,68.73,310.0,17.0,29.98,1010.1,10.0,,,CLR
2020-07-05 23:00:00,53306.372382,FST,78.1,64.9,66.27,310.0,11.0,29.99,1009.0,10.0,,,FEW
2020-07-06 00:00:00,49479.497161,FST,78.1,63.0,59.78,150.0,11.0,29.95,1008.7,10.0,,,CLR
2020-07-06 01:00:00,46402.180842,FST,78.1,62.1,57.92,130.0,9.0,29.95,1008.3,10.0,,,CLR
2020-07-06 02:00:00,44032.84048,FST,78.1,60.1,53.95,130.0,11.0,30.0,1010.2,10.0,,,CLR
2020-07-06 03:00:00,42487.795589,FST,75.9,60.1,58.04,100.0,16.0,30.01,1009.7,10.0,,,CLR
2020-07-06 04:00:00,41525.224126,FST,75.0,60.1,59.81,170.0,13.0,29.96,1008.4,10.0,,,FEW
2020-07-06 05:00:00,41277.872282,FST,72.0,60.1,66.16,350.0,8.0,29.99,1009.8,10.0,,,CLR
2020-07-06 06:00:00,42039.405712,FST,71.1,60.1,68.21,300.0,6.0,29.99,1010.0,10.0,,,CLR
2020-07-06 07:00:00,43110.295283,FST,69.1,60.1,73.03,270.0,7.0,30.0,1011.0,10.0,,,CLR
2020-07-06 08:00:00,43925.952717,FST,71.1,61.0,70.42,330.0,4.0,30.02,1011.4,10.0,,,CLR
2020-07-06 09:00:00,45764.136978,FST,73.9,62.1,66.61,340.0,4.0,30.03,1011.8,10.0,,,CLR
2020-07-06 10:00:00,48416.656199,FST,78.1,60.1,53.95,100.0,7.0,30.03,1012.2,10.0,,,CLR
2020-07-06 11:00:00,51411.111839,FST,81.0,59.0,47.17,120.0,5.0,30.03,1011.9,10.0,,81.4,CLR
2020-07-06 12:00:00,54425.39421,FST,84.9,59.0,41.58,110.0,7.0,30.04,1011.8,10.0,,84.51,CLR
2020-07-06 13:00:00,57354.077537,FST,87.1,59.0,38.75,100.0,9.0,30.04,1011.7,10.0,,86.47,CLR
2020-07-06 14:00:00,60084.457376,FST,91.0,57.0,31.89,120.0,9.0,30.03,1011.1,10.0,,89.59,CLR
2020-07-06 15:00:00,62206.552317,FST,93.0,57.0,29.96,350.0,11.0,30.02,1010.6,10.0,17.0,91.64,CLR
2020-07-06 16:00:00,63778.792296,FST,93.9,55.9,28.0,150.0,11.0,30.0,1009.6,10.0,,92.22,CLR
2020-07-06 17:00:00,63962.135212,FST,96.1,55.9,26.16,110.0,10.0,29.97,1009.0,10.0,,94.55,CLR
2020-07-06 18:00:00,63228.068007,FST,96.1,55.0,25.32,90.0,11.0,29.95,1008.4,10.0,,94.27,CLR
2020-07-06 19:00:00,61766.733048,FST,96.1,55.0,25.32,90.0,9.0,29.94,1008.1,10.0,,94.27,CLR
2020-07-06 20:00:00,59349.170329,FST,95.0,54.0,25.26,140.0,10.0,29.93,1007.7,10.0,,92.82,CLR
2020-07-06 21:00:00,57214.602266,FST,91.0,54.0,28.6,70.0,7.0,29.93,1007.9,10.0,,88.78,CLR
2020-07-06 22:00:00,55716.346232,FST,87.1,54.0,32.34,80.0,5.0,29.95,1008.8,10.0,,85.19,CLR
2020-07-06 23:00:00,52580.476907,FST,88.0,57.9,36.21,180.0,9.0,29.98,1009.7,10.0,,86.96,CLR
2020-07-07 00:00:00,49019.424547,FST,82.9,57.9,42.63,200.0,5.0,30.0,1010.7,10.0,,82.6,OVC
2020-07-07 01:00:00,45845.302293,FST,82.9,60.1,46.12,110.0,5.0,30.01,1010.7,10.0,,83.13,CLR
2020-07-07 02:00:00,43461.624019,FST,81.0,59.0,47.17,100.0,5.0,30.01,1010.4,10.0,,81.4,SCT
2020-07-07 03:00:00,41837.755199,FST,78.1,60.1,53.95,90.0,7.0,30.0,1010.4,10.0,,,CLR
2020-07-07 04:00:00,40883.753108,FST,80.1,57.9,46.7,140.0,9.0,30.0,1010.0,10.0,,80.58,CLR
2020-07-07 05:00:00,40604.169703,FST,78.1,60.1,53.95,130.0,8.0,29.99,1010.0,10.0,,,CLR
2020-07-07 06:00:00,41418.883406,FST,75.9,62.1,62.3,140.0,7.0,29.99,1010.0,10.0,,,CLR
2020-07-07 07:00:00,42646.732181,FST,75.0,62.1,64.2,150.0,10.0,29.99,1009.9,10.0,,,CLR
2020-07-07 08:00:00,43826.458033,FST,75.9,63.0,64.31,150.0,9.0,30.0,1010.4,10.0,,,CLR
2020-07-07 09:00:00,46187.345402,FST,79.0,63.0,58.04,160.0,9.0,30.02,1011.3,10.0,,,CLR
2020-07-07 10:00:00,49184.974903,FST,84.0,61.0,45.96,240.0,6.0,30.02,1011.1,10.0,,84.32,CLR
2020-07-07 11:00:00,52270.24116,FST,87.1,60.1,40.31,,5.0,30.03,1011.1,10.0,,86.83,SCT
2020-07-07 12:00:00,55382.959549,FST,91.0,61.0,36.8,330.0,5.0,30.03,1011.3,10.0,,91.06,SCT
2020-07-07 13:00:00,58161.84925,FST,93.9,61.0,33.62,90.0,5.0,30.03,1010.8,10.0,,94.18,FEW
2020-07-07 14:00:00,60846.670463,FST,96.1,60.1,30.43,10.0,6.0,30.0,1010.0,10.0,,96.21,CLR
2020-07-07 15:00:00,63081.815387,FST,96.1,59.0,29.25,310.0,10.0,30.0,1009.2,10.0,,95.72,CLR
2020-07-07 16:00:00,64381.037141,FST,95.0,57.0,28.16,140.0,9.0,29.97,1008.2,10.0,,93.75,SCT
2020-07-07 17:00:00,64980.958714,FST,95.0,57.9,29.09,150.0,13.0,29.94,1007.6,10.0,,94.08,SCT
2020-07-07 18:00:00,64551.280775,FST,95.0,60.1,31.47,200.0,14.0,29.92,1007.5,10.0,20.0,94.98,FEW
2020-07-07 19:00:00,62903.75947,FST,93.9,59.0,31.31,210.0,14.0,29.91,1007.4,10.0,22.0,93.32,SCT
2020-07-07 20:00:00,60501.205752,FST,91.9,59.0,33.31,220.0,14.0,29.92,1007.4,10.0,,91.2,FEW
2020-07-07 21:00:00,58162.820877,FST,86.0,60.1,41.74,210.0,17.0,29.94,1008.3,10.0,19.0,85.81,CLR
2020-07-07 22:00:00,56461.857099,FST,82.9,63.0,51.1,160.0,15.0,29.95,1008.7,10.0,19.0,83.98,CLR
2020-07-07 23:00:00,53189.035322,FST,82.0,62.1,50.97,160.0,11.0,29.97,1009.4,10.0,,82.91,CLR
2020-07-08 00:00:00,49460.177149,FST,81.0,62.1,52.66,160.0,10.0,29.97,1009.3,10.0,,82.06,CLR
2020-07-08 01:00:00,46277.554321,FST,80.1,62.1,54.23,160.0,12.0,29.97,1008.8,10.0,,81.31,CLR
2020-07-08 02:00:00,43942.732566,FST,79.0,61.0,54.08,160.0,14.0,29.96,1008.6,10.0,,,CLR
2020-07-08 03:00:00,42456.071552,FST,78.1,61.0,55.71,160.0,10.0,29.96,1008.6,10.0,,,CLR
2020-07-08 04:00:00,41524.656109,FST,75.9,61.0,59.92,160.0,11.0,29.95,1008.3,10.0,,,CLR
2020-07-08 05:00:00,41256.271285,FST,75.9,61.0,59.92,180.0,9.0,29.95,1008.5,10.0,,,CLR
2020-07-08 06:00:00,42015.833708,FST,73.9,61.0,64.07,190.0,8.0,29.95,1008.8,10.0,,,CLR
2020-07-08 07:00:00,42989.636482,FST,73.0,61.0,66.04,180.0,9.0,29.96,1009.2,10.0,,,CLR
2020-07-08 08:00:00,44142.210531,FST,75.0,62.1,64.2,170.0,7.0,29.96,1009.1,10.0,,,CLR
2020-07-08 09:00:00,46978.346759,FST,81.0,63.0,54.36,170.0,7.0,29.97,1009.4,10.0,,82.28,CLR
2020-07-08 10:00:00,50729.400223,FST,86.0,63.0,46.25,180.0,7.0,29.97,1009.3,10.0,,86.88,CLR
2020-07-08 11:00:00,54736.908924,FST,90.0,60.1,36.77,280.0,6.0,29.97,1009.1,10.0,,89.66,CLR
2020-07-08 12:00:00,58709.654996,FST,93.0,57.0,29.96,320.0,5.0,29.96,1008.9,10.0,,91.64,CLR
2020-07-08 13:00:00,62475.06627,FST,96.1,57.9,28.12,350.0,9.0,29.96,1008.5,10.0,,95.27,CLR
2020-07-08 14:00:00,65659.082712,FST,98.1,55.0,23.82,120.0,8.0,29.95,1007.7,10.0,,96.41,CLR
2020-07-08 15:00:00,68024.561384,FST,99.0,55.0,23.18,110.0,7.0,29.93,1007.0,10.0,,97.39,CLR
2020-07-08 16:00:00,69290.914639,FST,100.0,54.0,21.68,210.0,9.0,29.91,1006.3,10.0,,98.14,CLR
2020-07-08 17:00:00,69764.90915,FST,100.9,55.0,21.89,180.0,13.0,29.88,1005.3,10.0,,99.46,CLR
2020-07-08 18:00:00,69522.979214,FST,100.0,55.0,22.49,120.0,12.0,29.86,1005.1,10.0,17.0,98.48,CLR
2020-07-08 19:00:00,68242.778091,FST,99.0,55.9,23.95,140.0,15.0,29.85,1004.8,10.0,19.0,97.71,CLR
2020-07-08 20:00:00,65733.504314,FST,97.0,55.9,25.45,140.0,14.0,29.85,1005.0,10.0,19.0,95.53,CLR
2020-07-08 21:00:00,62995.201217,FST,93.0,60.1,33.48,140.0,14.0,29.86,1005.5,10.0,20.0,92.8,CLR
2020-07-08 22:00:00,61071.775786,FST,90.0,60.1,36.77,140.0,15.0,29.89,1006.2,10.0,,89.66,CLR
2020-07-08 23:00:00,57432.689678,FST,88.0,60.1,39.17,140.0,15.0,29.91,1007.0,10.0,20.0,87.69,CLR
2020-07-09 00:00:00,53457.105194,FST,86.0,61.0,43.1,150.0,15.0,29.92,1007.2,10.0,21.0,86.12,CLR
2020-07-09 01:00:00,50050.09383,FST,84.9,59.0,41.58,160.0,16.0,29.92,1007.0,10.0,18.0,84.51,CLR
2020-07-09 02:00:00,47568.408799,FST,82.9,57.0,41.27,160.0,15.0,29.92,1006.5,10.0,22.0,82.41,CLR
2020-07-09 03:00:00,45772.736664,FST,81.0,57.9,45.34,160.0,15.0,29.9,1006.5,10.0,18.0,81.2,CLR
2020-07-09 04:00:00,44552.793002,FST,80.1,59.0,48.58,170.0,13.0,29.9,1006.3,10.0,,80.76,CLR
2020-07-09 05:00:00,44093.225635,FST,79.0,59.0,50.36,170.0,14.0,29.89,1006.1,10.0,,,CLR
2020-07-09 06:00:00,44472.553802,FST,78.1,60.1,53.95,160.0,13.0,29.9,1006.7,10.0,,,CLR
2020-07-09 07:00:00,45261.390041,FST,77.0,60.1,55.95,170.0,11.0,29.92,1007.3,10.0,,,CLR
2020-07-09 08:00:00,46373.469476,FST,78.1,62.1,57.92,170.0,11.0,29.92,1007.2,10.0,,,CLR
2020-07-09 09:00:00,49162.169313,FST,81.0,62.1,52.66,170.0,13.0,29.93,1007.8,10.0,,82.06,CLR
2020-07-09 10:00:00,52912.382843,FST,88.0,63.0,43.4,220.0,11.0,29.93,1007.3,10.0,,88.86,CLR
2020-07-09 11:00:00,56825.62647,FST,93.0,62.1,35.94,230.0,13.0,29.92,1006.8,10.0,19.0,93.72,CLR
2020-07-09 12:00:00,60737.545201,FST,97.0,59.0,28.46,310.0,10.0,29.92,1007.0,10.0,,96.72,CLR
2020-07-09 13:00:00,64207.068924,FST,100.0,55.9,23.23,170.0,7.0,29.91,1006.6,10.0,,98.81,CLR
2020-07-09 14:00:00,67254.460327,FST,102.0,54.0,20.42,180.0,8.0,29.91,1006.4,10.0,,100.3,CLR
2020-07-09 15:00:00,69429.611064,FST,104.0,55.0,19.95,350.0,8.0,29.9,1005.7,10.0,,102.85,CLR
2020-07-09 16:00:00,70267.769384,FST,105.1,51.1,16.73,360.0,11.0,29.88,1005.3,10.0,16.0,102.61,CLR
2020-07-09 17:00:00,70675.297499,FST,106.0,50.0,15.64,350.0,10.0,29.87,1005.0,10.0,,103.18,CLR
2020-07-09 18:00:00,70361.773321,FST,104.0,52.0,17.87,130.0,13.0,29.86,1004.8,10.0,14.0,101.76,CLR
2020-07-09 19:00:00,69163.03091,FST,102.0,53.1,19.75,140.0,15.0,29.85,1004.6,10.0,19.0,100.0,CLR
2020-07-09 20:00:00,66776.790501,FST,99.0,54.0,22.35,140.0,17.0,29.86,1005.2,10.0,22.0,97.06,CLR
2020-07-09 21:00:00,63933.763382,FST,93.9,60.1,32.56,150.0,17.0,29.88,1006.0,10.0,24.0,93.77,CLR
2020-07-09 22:00:00,61842.612724,FST,90.0,61.0,37.97,150.0,18.0,29.9,1006.6,10.0,26.0,90.03,CLR
2020-07-09 23:00:00,57973.267197,FST,88.0,62.1,42.05,150.0,17.0,29.93,1007.5,10.0,22.0,88.47,CLR
2020-07-10 00:00:00,53996.867888,FST,86.0,63.0,46.25,160.0,16.0,29.95,1008.2,10.0,23.0,86.88,CLR
2020-07-10 01:00:00,50360.732286,FST,84.9,63.0,47.91,160.0,19.0,29.97,1008.6,10.0,26.0,85.83,CLR
2020-07-10 02:00:00,47540.163757,,,,,,,,,,,,
2020-07-10 03:00:00,45423.002551,FST,82.0,63.0,52.62,170.0,16.0,29.96,1008.2,10.0,,83.17,CLR
2020-07-10 04:00:00,44000.86775,FST,80.1,63.0,55.98,180.0,14.0,29.95,1008.1,10.0,19.0,81.5,CLR
2020-07-10 05:00:00,43401.119816,FST,79.0,63.0,58.04,170.0,9.0,29.97,1008.7,10.0,,,CLR
2020-07-10 06:00:00,43711.04684,FST,77.0,63.0,62.0,150.0,10.0,29.98,1009.2,10.0,,,CLR
2020-07-10 07:00:00,44212.255713,FST,77.0,64.0,64.21,150.0,10.0,30.0,1010.1,10.0,,,CLR
2020-07-10 08:00:00,45223.681473,FST,75.9,64.9,68.73,160.0,11.0,30.02,1010.8,10.0,,,CLR
2020-07-10 09:00:00,48279.242614,FST,79.0,68.0,69.07,160.0,14.0,30.04,1011.6,10.0,,,CLR
2020-07-10 10:00:00,52129.611277,FST,82.9,68.0,60.81,160.0,14.0,30.05,1011.9,10.0,17.0,85.94,CLR
2020-07-10 11:00:00,56345.316479,FST,89.1,66.9,48.03,180.0,14.0,30.05,1011.7,10.0,,92.16,CLR
2020-07-10 12:00:00,60506.13578,FST,93.9,64.0,37.37,180.0,11.0,30.05,1011.6,10.0,,95.76,CLR
2020-07-10 13:00:00,64385.732735,FST,97.0,60.1,29.6,180.0,11.0,30.04,1011.1,10.0,16.0,97.22,CLR
2020-07-10 14:00:00,67731.879472,FST,99.0,55.9,23.95,190.0,11.0,30.03,1010.5,10.0,,97.71,CLR
2020-07-10 15:00:00,70069.039873,FST,100.9,59.0,25.28,190.0,11.0,30.02,1010.1,10.0,15.0,101.14,CLR
2020-07-10 16:00:00,71030.190104,FST,102.9,57.9,22.89,180.0,14.0,30.0,1010.0,10.0,20.0,102.89,CLR
2020-07-10 17:00:00,71364.372097,FST,102.9,53.1,19.23,160.0,14.0,30.0,1009.8,10.0,,100.96,CLR
2020-07-10 18:00:00,70876.146554,FST,102.0,55.9,21.88,160.0,17.0,30.0,1009.4,10.0,,101.01,CLR
2020-07-10 19:00:00,69466.415833,FST,102.0,55.9,21.88,130.0,16.0,29.98,1009.4,10.0,21.0,101.01,CLR
2020-07-10 20:00:00,67077.087363,FST,99.0,57.9,25.74,150.0,17.0,29.99,1009.9,10.0,20.0,98.49,CLR
2020-07-10 21:00:00,64216.817871,FST,95.0,61.0,32.5,140.0,16.0,30.02,1010.7,10.0,21.0,95.4,CLR
2020-07-10 22:00:00,61939.625983,FST,91.9,61.0,35.77,140.0,16.0,30.04,1011.7,10.0,21.0,92.01,CLR
2020-07-10 23:00:00,58410.03466,FST,89.1,59.0,36.37,150.0,16.0,30.05,1011.8,10.0,21.0,88.37,CLR
2020-07-11 00:00:00,54511.256521,FST,88.0,60.1,39.17,150.0,15.0,30.06,1011.8,10.0,19.0,87.69,CLR
2020-07-11 01:00:00,50785.757182,FST,86.0,60.1,41.74,150.0,13.0,30.06,1011.8,10.0,18.0,85.81,CLR
2020-07-11 02:00:00,47816.119056,FST,84.0,60.1,44.51,160.0,9.0,30.06,1011.5,10.0,,84.05,CLR
2020-07-11 03:00:00,45524.905922,FST,82.0,59.0,45.66,150.0,9.0,30.04,1011.2,10.0,,82.15,CLR
2020-07-11 04:00:00,43878.584325,FST,80.1,60.1,50.52,170.0,9.0,30.04,1010.9,10.0,,80.94,CLR
2020-07-11 05:00:00,42829.14666,FST,79.0,60.1,52.38,180.0,9.0,30.03,1010.9,10.0,,,CLR
2020-07-11 06:00:00,42440.914573,FST,78.1,60.1,53.95,170.0,9.0,30.05,1011.7,10.0,,,CLR
2020-07-11 07:00:00,42111.082125,FST,77.0,62.1,60.06,160.0,11.0,30.06,1011.8,10.0,,,CLR
2020-07-11 08:00:00,42618.564272,FST,78.1,64.9,63.9,160.0,11.0,30.08,1012.8,10.0,,,CLR
2020-07-11 09:00:00,45662.838549,FST,82.0,64.9,56.24,170.0,11.0,30.1,1013.5,10.0,,83.76,CLR
2020-07-11 10:00:00,50065.120594,FST,87.1,64.0,46.26,170.0,9.0,30.11,1013.8,10.0,,88.42,CLR
2020-07-11 11:00:00,54601.467822,FST,91.9,62.1,37.19,200.0,7.0,30.11,1013.1,10.0,,92.52,CLR
2020-07-11 12:00:00,59143.111336,FST,96.1,59.0,29.25,290.0,5.0,30.1,1013.2,10.0,,95.72,CLR
2020-07-11 13:00:00,63128.816386,FST,99.0,55.0,23.18,200.0,8.0,30.09,1012.7,10.0,,97.39,CLR
2020-07-11 14:00:00,66351.003357,FST,102.0,48.9,16.91,220.0,11.0,30.08,1012.1,10.0,,98.79,CLR
2020-07-11 15:00:00,68777.024744,FST,104.0,46.9,14.78,160.0,13.0,30.06,1011.3,10.0,16.0,100.33,CLR
2020-07-11 16:00:00,70479.408642,FST,104.0,48.9,15.93,200.0,15.0,30.04,1010.8,10.0,23.0,100.83,CLR
2020-07-11 17:00:00,71312.050662,FST,104.0,46.9,14.78,160.0,15.0,30.02,1010.3,10.0,18.0,100.33,CLR
2020-07-11 18:00:00,71400.273739,FST,102.9,48.9,16.46,160.0,16.0,30.01,1010.1,10.0,17.0,99.71,CLR
2020-07-11 19:00:00,70648.088267,FST,100.9,45.0,15.09,150.0,15.0,30.0,1010.1,10.0,17.0,96.87,CLR
2020-07-11 20:00:00,68543.407118,FST,99.0,48.0,17.9,150.0,14.0,30.0,1010.2,10.0,17.0,95.54,CLR
2020-07-11 21:00:00,65365.249654,FST,95.0,50.0,21.79,150.0,15.0,30.02,1010.7,10.0,18.0,91.89,CLR
2020-07-11 22:00:00,62872.128565,FST,91.0,51.1,25.7,160.0,11.0,30.03,1011.1,10.0,,88.18,CLR
2020-07-11 23:00:00,59075.612669,FST,88.0,52.0,29.21,160.0,11.0,30.04,1011.5,10.0,,85.6,CLR
2020-07-12 00:00:00,55061.808546,FST,84.9,53.1,33.57,170.0,11.0,30.04,1011.2,10.0,,83.21,CLR
2020-07-12 01:00:00,51343.424441,FST,82.9,52.0,34.39,170.0,12.0,30.04,1010.6,10.0,,81.57,CLR
2020-07-12 02:00:00,48328.911341,FST,82.9,50.0,31.93,170.0,11.0,30.02,1010.0,10.0,,81.32,CLR
2020-07-12 03:00:00,45934.663661,FST,80.1,50.0,34.98,200.0,11.0,30.01,1010.3,10.0,,79.6,CLR
2020-07-12 04:00:00,44023.411203,FST,75.9,51.1,41.86,270.0,7.0,30.02,1010.4,10.0,,,CLR
2020-07-12 05:00:00,42309.69765,FST,75.9,51.1,41.86,200.0,8.0,30.01,1010.0,10.0,,,CLR
2020-07-12 06:00:00,41386.381287,FST,75.9,50.0,40.19,200.0,10.0,30.0,1010.0,10.0,,,CLR
2020-07-12 07:00:00,40592.60424,FST,72.0,50.0,45.81,190.0,8.0,30.02,1010.8,10.0,,,CLR
2020-07-12 08:00:00,40292.387901,FST,75.0,51.1,43.14,170.0,8.0,30.06,1012.1,10.0,,,CLR
2020-07-12 09:00:00,42229.80381,FST,81.0,51.1,35.38,170.0,8.0,30.07,1012.6,10.0,,80.23,CLR
2020-07-12 10:00:00,46074.593947,FST,88.0,51.1,28.25,160.0,8.0,30.08,1012.4,10.0,,85.45,CLR
2020-07-12 11:00:00,50401.664595,FST,93.9,46.9,20.07,180.0,12.0,30.07,1012.3,10.0,,90.29,CLR
2020-07-12 12:00:00,55040.977726,FST,99.0,45.0,15.98,160.0,13.0,30.07,1012.2,10.0,17.0,95.0,CLR
2020-07-12 13:00:00,59400.37956,FST,100.9,42.1,13.5,170.0,15.0,30.06,1011.4,10.0,21.0,96.42,CLR
2020-07-12 14:00:00,63303.609708,FST,102.9,35.1,9.67,180.0,16.0,30.04,1010.4,10.0,21.0,96.82,CLR
2020-07-12 15:00:00,66244.964236,FST,102.9,36.0,10.02,170.0,15.0,30.01,1009.4,10.0,19.0,96.97,CLR
2020-07-12 16:00:00,68286.271191,FST,102.9,36.0,10.02,190.0,16.0,29.98,1009.0,10.0,21.0,96.97,CLR
2020-07-12 17:00:00,69890.819939,FST,102.9,36.0,10.02,170.0,14.0,29.97,1008.2,10.0,19.0,96.97,CLR
2020-07-12 18:00:00,70699.696606,FST,102.9,37.9,10.8,170.0,15.0,29.95,1007.7,10.0,17.0,97.33,CLR
2020-07-12 19:00:00,70114.105535,FST,102.0,37.0,10.71,160.0,14.0,29.93,1007.5,10.0,17.0,96.38,CLR
2020-07-12 20:00:00,68202.472653,FST,100.0,37.9,11.78,150.0,13.0,29.93,1007.6,10.0,18.0,94.83,CLR
2020-07-12 21:00:00,65389.404943,FST,96.1,46.0,18.13,150.0,11.0,29.93,1007.5,10.0,,92.3,CLR
2020-07-12 22:00:00,63124.491701,FST,91.9,50.0,23.99,150.0,11.0,29.95,1008.1,10.0,,88.84,CLR
2020-07-12 23:00:00,59326.986945,FST,89.1,50.0,26.19,150.0,11.0,29.96,1008.6,10.0,,86.25,CLR
2020-07-13 00:00:00,55232.188483,FST,87.1,48.9,26.79,160.0,14.0,29.97,1008.5,10.0,,84.37,CLR
2020-07-13 01:00:00,51699.946628,FST,82.9,48.9,30.65,160.0,11.0,29.97,1008.8,10.0,,81.2,CLR
2020-07-13 02:00:00,48864.813686,FST,82.0,48.9,31.56,160.0,11.0,29.97,1008.6,10.0,,80.61,CLR
2020-07-13 03:00:00,46771.218888,FST,81.0,50.0,33.97,160.0,10.0,29.96,1008.3,10.0,,80.12,CLR
2020-07-13 04:00:00,45415.067456,FST,81.0,48.9,32.6,160.0,12.0,29.96,1008.3,10.0,,80.01,CLR
2020-07-13 05:00:00,44929.170885,FST,79.0,46.0,31.21,170.0,11.0,29.95,1008.0,10.0,,,CLR
2020-07-13 06:00:00,45269.702601,FST,78.1,45.0,30.95,180.0,9.0,29.96,1008.5,10.0,,,CLR
2020-07-13 07:00:00,45951.159344,FST,78.1,44.1,29.91,200.0,10.0,29.97,1008.8,10.0,,,CLR
2020-07-13 08:00:00,46934.201387,FST,79.0,46.0,31.21,200.0,9.0,29.98,1009.3,10.0,,,CLR
2020-07-13 09:00:00,49831.635045,FST,86.0,48.9,27.74,200.0,10.0,29.99,1009.6,10.0,,83.48,CLR
2020-07-13 10:00:00,54064.73155,FST,93.0,48.9,22.25,200.0,13.0,30.0,1009.7,10.0,,89.72,CLR
2020-07-13 11:00:00,58916.438722,FST,97.0,43.0,15.73,190.0,15.0,30.0,1009.5,10.0,,92.79,CLR
2020-07-13 12:00:00,63728.886221,FST,100.0,39.9,12.74,210.0,14.0,29.99,1009.0,10.0,20.0,95.23,CLR
2020-07-13 13:00:00,68108.743228,FST,102.0,44.1,14.1,250.0,13.0,29.98,1008.7,10.0,16.0,97.79,CLR
2020-07-13 14:00:00,71700.110279,FST,104.0,43.0,12.74,280.0,13.0,29.97,1008.0,10.0,19.0,99.47,CLR
2020-07-13 15:00:00,73668.148732,FST,105.1,42.1,11.91,300.0,11.0,29.94,1007.2,10.0,,100.21,CLR
2020-07-13 16:00:00,74225.484525,FST,107.1,39.9,10.31,280.0,11.0,29.92,1006.4,10.0,16.0,101.45,CLR
2020-07-13 17:00:00,74311.17311,FST,106.0,42.1,11.6,220.0,16.0,29.9,1005.9,10.0,,101.01,CLR
2020-07-13 18:00:00,74001.129493,FST,106.0,41.0,11.12,210.0,11.0,29.88,1005.2,10.0,17.0,100.73,CLR
2020-07-13 19:00:00,72956.891519,FST,106.0,39.0,10.28,170.0,14.0,29.86,1004.8,10.0,18.0,100.27,CLR
2020-07-13 20:00:00,70611.453964,FST,102.9,35.1,9.67,160.0,15.0,29.85,1004.9,10.0,,96.82,CLR
2020-07-13 21:00:00,67530.363643,FST,99.0,39.0,12.68,160.0,14.0,29.86,1004.9,10.0,20.0,94.19,CLR
2020-07-13 22:00:00,65139.049961,FST,95.0,43.0,16.73,160.0,11.0,29.87,1005.4,10.0,,90.88,CLR
2020-07-13 23:00:00,60954.355605,FST,93.0,43.0,17.8,150.0,17.0,29.89,1006.0,10.0,,89.0,CLR
2020-07-14 00:00:00,56643.483303,FST,90.0,45.0,21.1,150.0,14.0,29.9,1006.2,10.0,18.0,86.45,CLR
2020-07-14 01:00:00,52774.708891,FST,88.0,44.1,21.72,160.0,15.0,29.9,1006.3,10.0,18.0,84.65,CLR
2020-07-14 02:00:00,49856.599515,FST,87.1,42.1,20.7,170.0,15.0,29.91,1006.4,10.0,17.0,83.79,CLR
2020-07-14 03:00:00,47568.473654,FST,86.0,41.0,20.54,170.0,14.0,29.91,1006.5,10.0,16.0,82.86,CLR
2020-07-14 04:00:00,45893.930279,FST,84.9,39.9,20.39,170.0,11.0,29.91,1006.1,10.0,,81.98,CLR
2020-07-14 05:00:00,44916.34745,FST,87.1,41.0,19.83,180.0,14.0,29.9,1005.9,10.0,,83.73,CLR
2020-07-14 06:00:00,45007.406104,FST,82.9,42.1,23.68,320.0,11.0,29.94,1007.3,10.0,,80.68,CLR
2020-07-14 07:00:00,45462.77838,FST,87.1,41.0,19.83,260.0,11.0,29.95,1007.8,10.0,,83.73,SCT
2020-07-14 08:00:00,46300.103878,FST,86.0,41.0,20.54,200.0,13.0,29.95,1007.6,10.0,,82.86,CLR
2020-07-14 09:00:00,49084.415064,FST,89.1,45.0,21.7,190.0,10.0,29.95,1007.9,10.0,,85.66,CLR
2020-07-14 10:00:00,52891.99047,FST,95.0,46.0,18.76,160.0,11.0,29.95,1008.1,10.0,,91.23,CLR
2020-07-14 11:00:00,57082.339434,FST,99.0,46.0,16.6,230.0,9.0,29.96,1008.2,10.0,,95.17,CLR
2020-07-14 12:00:00,61359.099983,FST,102.0,46.0,15.16,180.0,5.0,29.96,1008.1,10.0,,98.15,CLR
2020-07-14 13:00:00,65262.71149,FST,104.0,45.0,13.75,250.0,7.0,29.96,1007.8,10.0,,99.9,CLR
2020-07-14 14:00:00,68792.717446,FST,105.1,44.1,12.86,330.0,8.0,29.94,1007.3,10.0,,100.75,CLR
2020-07-14 15:00:00,71351.857187,FST,108.0,45.0,12.22,230.0,7.0,29.93,1006.7,10.0,,103.63,CLR
2020-07-14 16:00:00,72790.997462,FST,108.0,43.0,11.32,180.0,9.0,29.91,1005.9,10.0,,103.04,CLR
2020-07-14 17:00:00,73383.705395,FST,107.1,44.1,12.12,360.0,17.0,29.89,1005.3,10.0,23.0,102.55,CLR
2020-07-14 18:00:00,72922.274474,FST,107.1,44.1,12.12,150.0,16.0,29.87,1005.0,10.0,21.0,102.55,CLR
2020-07-14 19:00:00,71337.633053,FST,105.1,42.1,11.91,160.0,18.0,29.86,1004.5,10.0,22.0,100.21,CLR
2020-07-14 20:00:00,68724.381563,FST,102.0,39.9,12.0,150.0,18.0,29.86,1004.9,10.0,23.0,96.96,CLR
2020-07-14 21:00:00,65772.660998,FST,98.1,39.0,13.03,150.0,18.0,29.88,1005.5,10.0,22.0,93.42,CLR
2020-07-14 22:00:00,63740.990689,FST,93.9,43.0,17.31,150.0,13.0,29.89,1005.9,10.0,,89.84,CLR
2020-07-14 23:00:00,59856.039096,FST,91.9,43.0,18.42,160.0,15.0,29.91,1006.5,10.0,21.0,87.99,CLR
2020-07-15 00:00:00,55673.941231,FST,91.0,42.1,18.3,160.0,17.0,29.91,1006.6,10.0,23.0,87.11,CLR
2020-07-15 01:00:00,52019.089657,FST,89.1,42.1,19.42,160.0,16.0,29.93,1007.2,10.0,23.0,85.45,CLR
2020-07-15 02:00:00,49351.816293,FST,87.1,42.1,20.7,160.0,15.0,29.94,1007.3,10.0,19.0,83.79,CLR
2020-07-15 03:00:00,47294.000969,FST,84.0,42.1,22.85,190.0,15.0,29.94,1007.4,10.0,16.0,81.43,CLR
2020-07-15 04:00:00,45713.445397,FST,82.9,42.1,23.68,220.0,13.0,29.94,1007.2,10.0,,80.68,CLR
2020-07-15 05:00:00,45079.95956,FST,84.0,39.9,20.99,200.0,14.0,29.94,1007.5,10.0,,81.33,CLR
2020-07-15 06:00:00,45505.153855,FST,79.0,41.0,25.78,260.0,13.0,29.96,1008.5,10.0,,,CLR
2020-07-15 07:00:00,46378.535203,FST,77.0,41.0,27.53,240.0,8.0,29.98,1009.0,10.0,,,CLR
2020-07-15 08:00:00,47024.282131,FST,79.0,42.1,26.89,190.0,10.0,29.99,1009.4,10.0,,,CLR
2020-07-15 09:00:00,48959.606132,FST,87.1,44.1,22.34,180.0,10.0,30.0,1009.8,10.0,,83.91,CLR
2020-07-15 10:00:00,51997.525529,FST,89.1,44.1,20.97,230.0,9.0,30.01,1010.1,10.0,,85.59,CLR
2020-07-15 11:00:00,55791.808355,FST,91.9,46.0,20.65,290.0,7.0,30.01,1010.0,10.0,,88.28,CLR
2020-07-15 12:00:00,59911.152477,FST,95.0,46.9,19.4,350.0,4.0,30.0,1009.6,10.0,,91.36,CLR
2020-07-15 13:00:00,63525.512087,FST,99.0,46.0,16.6,140.0,5.0,30.0,1009.3,10.0,,95.17,CLR
2020-07-15 14:00:00,66481.665375,FST,102.0,46.0,15.16,150.0,10.0,29.99,1008.9,10.0,,98.15,CLR
2020-07-15 15:00:00,68810.612515,FST,102.9,48.0,15.91,150.0,15.0,29.97,1008.3,10.0,25.0,99.49,CLR
2020-07-15 16:00:00,70683.487524,FST,104.0,46.0,14.28,140.0,14.0,29.96,1007.9,10.0,19.0,100.12,CLR
2020-07-15 17:00:00,71972.712013,FST,102.9,48.0,15.91,150.0,17.0,29.95,1007.3,10.0,21.0,99.49,CLR
2020-07-15 18:00:00,71988.64648,FST,102.0,44.1,14.1,140.0,20.0,29.93,1007.3,10.0,23.0,97.79,CLR
2020-07-15 19:00:00,70578.823881,FST,99.0,46.9,17.17,140.0,19.0,29.92,1007.1,10.0,25.0,95.33,CLR
2020-07-15 20:00:00,67781.911317,FST,96.1,48.9,20.22,140.0,19.0,29.92,1007.5,10.0,26.0,92.78,CLR
2020-07-15 21:00:00,64742.837254,FST,91.9,52.0,25.84,150.0,20.0,29.95,1008.1,10.0,26.0,89.21,CLR
2020-07-15 22:00:00,62380.699814,FST,90.0,52.0,27.42,140.0,17.0,29.98,1009.1,10.0,22.0,87.4,CLR
2020-07-15 23:00:00,58304.078847,FST,87.1,53.1,31.3,140.0,16.0,30.0,1009.9,10.0,22.0,85.01,CLR
2020-07-16 00:00:00,54043.274236,FST,86.0,54.0,33.5,150.0,18.0,30.01,1010.0,10.0,25.0,84.26,CLR
2020-07-16 01:00:00,50509.968719,FST,84.9,53.1,33.57,160.0,17.0,30.01,1010.2,10.0,23.0,83.21,CLR
2020-07-16 02:00:00,47819.387728,FST,84.0,50.0,30.82,170.0,18.0,30.01,1010.0,10.0,24.0,82.09,CLR
2020-07-16 03:00:00,45803.043664,FST,81.0,48.9,32.6,170.0,16.0,30.01,1010.0,10.0,16.0,80.01,CLR
2020-07-16 04:00:00,44359.17543,FST,79.0,48.0,33.66,160.0,11.0,30.0,1009.8,10.0,,,CLR
2020-07-16 05:00:00,43761.269812,FST,73.9,48.0,39.87,160.0,5.0,30.01,1010.6,10.0,,,CLR
2020-07-16 06:00:00,44275.210157,FST,72.0,48.0,42.51,330.0,7.0,30.04,1011.4,10.0,,,CLR
2020-07-16 07:00:00,45265.40634,FST,72.0,50.0,45.81,150.0,7.0,30.05,1012.2,10.0,,,CLR
2020-07-16 08:00:00,45927.992668,FST,72.0,52.0,49.33,120.0,7.0,30.07,1012.9,10.0,,,CLR
2020-07-16 09:00:00,48427.800373,FST,78.1,55.9,46.4,110.0,10.0,30.09,1013.6,10.0,,,CLR
2020-07-16 10:00:00,52259.384646,FST,81.0,57.0,43.9,140.0,15.0,30.1,1013.6,10.0,,81.05,CLR
2020-07-16 11:00:00,56761.458656,FST,84.0,60.1,44.51,120.0,15.0,30.11,1014.1,10.0,,84.05,CLR
2020-07-16 12:00:00,61267.200039,FST,87.1,61.0,41.62,120.0,16.0,30.11,1013.8,10.0,21.0,87.15,CLR
2020-07-16 13:00:00,65281.24725,FST,88.0,60.1,39.17,120.0,18.0,30.1,1013.5,10.0,26.0,87.69,CLR
2020-07-16 14:00:00,68734.626579,FST,91.0,57.0,31.89,150.0,15.0,30.09,1012.8,10.0,18.0,89.59,CLR
2020-07-16 15:00:00,71300.768995,FST,93.9,57.9,30.1,150.0,18.0,30.07,1011.9,10.0,24.0,92.9,CLR
2020-07-16 16:00:00,72970.524813,FST,93.0,55.9,28.79,160.0,15.0,30.05,1011.7,10.0,22.0,91.29,CLR
2020-07-16 17:00:00,73698.945437,FST,95.0,54.0,25.26,160.0,16.0,30.04,1011.2,10.0,20.0,92.82,CLR
2020-07-16 18:00:00,73322.818473,FST,95.0,55.0,26.19,150.0,19.0,30.02,1010.7,10.0,23.0,93.1,CLR
2020-07-16 19:00:00,71570.459022,FST,95.0,55.0,27.1,140.0,19.0,30.0,1010.3,10.0,22.0,92.82,CLR
2020-07-16 20:00:00,68701.423054,FST,91.0,57.0,31.89,140.0,16.0,30.0,1010.4,10.0,22.0,89.59,CLR
2020-07-16 21:00:00,65832.446082,FST,89.1,55.0,31.49,140.0,15.0,30.02,1011.0,10.0,22.0,87.21,CLR
2020-07-16 22:00:00,63550.957055,FST,87.1,57.0,36.07,140.0,16.0,30.04,1011.7,10.0,22.0,85.89,CLR
2020-07-16 23:00:00,59870.747973,FST,86.0,57.0,37.35,140.0,17.0,30.06,1012.4,10.0,24.0,84.92,CLR
2020-07-17 00:00:00,55639.690321,FST,84.9,57.9,39.97,140.0,17.0,30.08,1013.1,10.0,22.0,84.21,CLR
2020-07-17 01:00:00,51841.009778,FST,84.0,57.9,41.14,140.0,15.0,30.09,1013.4,10.0,19.0,83.47,CLR
2020-07-17 02:00:00,48738.209908,FST,82.9,57.9,42.63,150.0,13.0,30.09,1013.2,10.0,,82.6,CLR
2020-07-17 03:00:00,46384.312973,FST,82.0,57.9,43.89,160.0,14.0,30.08,1012.8,10.0,17.0,81.92,CLR
2020-07-17 04:00:00,44735.297346,FST,80.1,59.0,48.58,160.0,15.0,30.07,1012.6,10.0,20.0,80.76,CLR
2020-07-17 05:00:00,43952.640148,FST,79.0,59.0,50.36,160.0,13.0,30.08,1012.6,10.0,,,CLR
2020-07-17 06:00:00,44201.757178,FST,78.1,60.1,53.95,170.0,13.0,30.07,1012.6,10.0,,,CLR
2020-07-17 07:00:00,44805.61015,FST,75.9,60.1,58.04,170.0,11.0,30.08,1013.3,10.0,,,CLR
2020-07-17 08:00:00,45671.479536,FST,77.0,60.1,55.95,180.0,9.0,30.09,1013.6,10.0,,,CLR
2020-07-17 09:00:00,48643.338406,FST,80.1,61.0,52.16,180.0,7.0,30.11,1014.1,10.0,,81.1,CLR
2020-07-17 10:00:00,52315.214582,FST,87.1,60.1,40.31,170.0,8.0,30.11,1013.9,10.0,,86.83,CLR
2020-07-17 11:00:00,56104.48238,FST,91.0,59.0,34.27,230.0,9.0,30.1,1013.4,10.0,,90.27,CLR
2020-07-17 12:00:00,59633.686831,FST,93.9,57.0,29.14,240.0,5.0,30.1,1013.0,10.0,,,CLR
2020-07-17 13:00:00,62911.882751,FST,96.1,57.0,27.23,360.0,8.0,30.09,1012.6,10.0,,94.94,CLR
2020-07-17 14:00:00,65845.248992,FST,98.1,55.9,24.61,300.0,10.0,30.07,1011.7,10.0,,96.72,CLR
2020-07-17 15:00:00,68237.517265,FST,100.0,55.0,22.49,360.0,9.0,30.05,1010.9,10.0,,98.48,CLR
2020-07-17 16:00:00,69633.096442,FST,100.0,55.9,23.23,140.0,16.0,30.03,1010.2,10.0,23.0,98.81,CLR
2020-07-17 17:00:00,70078.021849,FST,100.0,53.1,20.98,140.0,16.0,30.0,1009.5,10.0,25.0,97.85,CLR
2020-07-17 18:00:00,69395.024938,FST,99.0,50.0,19.28,150.0,19.0,29.98,1009.0,10.0,21.0,95.97,CLR
2020-07-17 19:00:00,67177.4932,FST,98.1,50.0,19.82,140.0,18.0,29.97,1008.8,10.0,22.0,95.04,CLR
2020-07-17 20:00:00,64307.519946,FST,93.9,52.0,24.28,150.0,17.0,29.98,1009.5,10.0,22.0,91.19,CLR
2020-07-17 21:00:00,61486.987867,FST,91.9,52.0,25.84,140.0,15.0,30.0,1010.3,10.0,19.0,89.21,CLR
2020-07-17 22:00:00,59387.991936,FST,89.1,54.0,30.36,150.0,15.0,30.01,1010.4,10.0,20.0,86.98,CLR
2020-07-17 23:00:00,55929.584139,FST,87.1,55.0,33.55,150.0,14.0,30.04,1011.3,10.0,19.0,85.4,CLR
2020-07-18 00:00:00,52199.63343,FST,86.0,57.9,38.58,150.0,16.0,30.05,1011.7,10.0,21.0,85.16,CLR
2020-07-18 01:00:00,48801.06072,FST,84.0,59.0,42.8,150.0,16.0,30.05,1011.8,10.0,22.0,83.75,CLR
2020-07-18 02:00:00,46044.508633,FST,82.9,59.0,44.34,150.0,16.0,30.06,1011.7,10.0,19.0,82.86,CLR
2020-07-18 03:00:00,43926.233188,FST,82.0,59.0,45.66,170.0,13.0,30.05,1011.6,10.0,17.0,82.15,CLR
2020-07-18 04:00:00,42387.194689,FST,80.1,60.1,50.52,160.0,13.0,30.05,1011.5,10.0,20.0,80.94,CLR
2020-07-18 05:00:00,41375.433007,FST,77.0,61.0,57.77,160.0,11.0,30.05,1011.4,10.0,15.0,,CLR
2020-07-18 06:00:00,40834.296937,FST,75.0,63.0,66.27,170.0,12.0,30.04,1011.5,10.0,,,CLR
2020-07-18 07:00:00,40538.58956,FST,73.9,63.0,68.76,180.0,11.0,30.05,1012.0,10.0,,,CLR
2020-07-18 08:00:00,40880.601604,FST,73.9,64.0,71.21,160.0,11.0,30.06,1012.4,10.0,,,CLR
2020-07-18 09:00:00,43743.775567,FST,78.1,64.0,61.92,160.0,13.0,30.05,1012.3,10.0,,,CLR
2020-07-18 10:00:00,47681.822287,FST,82.9,64.0,52.93,160.0,11.0,30.06,1012.4,10.0,,84.32,CLR
2020-07-18 11:00:00,51589.346366,FST,89.1,61.0,39.06,160.0,11.0,30.06,1011.9,10.0,,89.11,CLR
2020-07-18 12:00:00,55171.196993,FST,91.0,61.0,36.8,200.0,9.0,30.05,1011.6,10.0,,91.06,CLR
2020-07-18 13:00:00,58168.066448,FST,93.9,61.0,33.62,150.0,15.0,30.05,1011.4,10.0,19.0,94.18,CLR
2020-07-18 14:00:00,60746.413816,FST,95.0,57.9,29.09,150.0,15.0,30.04,1010.9,10.0,21.0,94.08,CLR
2020-07-18 15:00:00,62874.135882,FST,97.0,57.0,26.49,140.0,13.0,30.02,1010.0,10.0,19.0,95.92,CLR
2020-07-18 16:00:00,64259.694026,FST,98.1,55.0,23.82,130.0,14.0,30.0,1009.3,10.0,17.0,96.41,CLR
2020-07-18 17:00:00,64932.478239,FST,97.0,55.0,24.63,150.0,15.0,29.97,1008.7,10.0,21.0,95.23,CLR
2020-07-18 18:00:00,64996.59271,FST,96.1,53.1,23.62,140.0,18.0,29.96,1008.5,10.0,22.0,93.72,CLR
2020-07-18 19:00:00,64155.967611,FST,95.0,53.1,24.44,140.0,17.0,29.94,1008.5,10.0,22.0,92.58,CLR
2020-07-18 20:00:00,61870.664024,FST,93.9,55.0,28.84,140.0,17.0,29.95,1009.0,10.0,22.0,91.95,CLR
2020-07-18 21:00:00,59219.359945,FST,89.1,57.9,34.97,140.0,17.0,29.97,1009.4,10.0,22.0,88.01,FEW
2020-07-18 22:00:00,57387.636183,FST,86.0,59.0,40.14,150.0,17.0,29.99,1010.1,10.0,22.0,85.47,CLR
2020-07-18 23:00:00,54275.965598,FST,84.0,59.0,42.8,150.0,17.0,30.01,1010.6,10.0,21.0,83.75,CLR
2020-07-19 00:00:00,51016.439974,FST,82.0,59.0,45.66,150.0,13.0,30.04,1011.5,10.0,18.0,82.15,CLR
2020-07-19 01:00:00,47979.565098,FST,78.1,62.1,57.92,150.0,17.0,30.05,1012.0,10.0,22.0,,CLR
2020-07-19 02:00:00,45393.333078,FST,75.9,63.0,64.31,160.0,14.0,30.05,1012.0,10.0,,,CLR
2020-07-19 03:00:00,43194.583591,FST,73.9,63.0,68.76,160.0,11.0,30.05,1011.7,10.0,16.0,,CLR
2020-07-19 04:00:00,41486.491552,FST,73.0,64.0,73.4,150.0,9.0,30.04,1011.3,10.0,,,CLR
2020-07-19 05:00:00,40375.16256,FST,72.0,64.0,75.92,150.0,10.0,30.02,1010.9,10.0,15.0,,CLR
2020-07-19 06:00:00,39683.635108,FST,71.1,64.0,78.28,150.0,11.0,30.02,1011.2,10.0,,,CLR
2020-07-19 07:00:00,39118.231021,FST,70.0,63.0,78.46,170.0,10.0,30.03,1011.7,10.0,,,CLR
2020-07-19 08:00:00,39407.200821,FST,71.1,64.0,78.28,160.0,19.0,30.03,1011.6,10.0,21.0,,CLR
2020-07-19 09:00:00,42624.328961,FST,73.0,64.0,73.4,160.0,18.0,30.04,1012.1,10.0,21.0,,CLR
2020-07-19 10:00:00,46998.335329,FST,78.1,64.0,61.92,160.0,16.0,30.05,1012.3,10.0,22.0,,CLR
2020-07-19 11:00:00,51260.440187,FST,81.0,63.0,54.36,160.0,14.0,30.06,1012.3,10.0,,82.28,CLR
2020-07-19 12:00:00,55334.588504,FST,84.9,62.1,46.42,160.0,11.0,30.06,1012.3,10.0,,85.49,CLR
2020-07-19 13:00:00,58838.342089,FST,87.1,61.0,41.62,150.0,11.0,30.05,1011.9,10.0,15.0,87.15,CLR
2020-07-19 14:00:00,61664.089599,FST,91.0,59.0,34.27,170.0,11.0,30.04,1011.2,10.0,16.0,90.27,CLR
2020-07-19 15:00:00,63790.524493,FST,91.9,57.9,32.03,150.0,16.0,30.02,1010.6,10.0,,90.8,CLR
2020-07-19 16:00:00,65392.236574,FST,93.0,57.0,29.96,150.0,16.0,30.0,1010.1,10.0,22.0,91.64,CLR
2020-07-19 17:00:00,66562.754432,FST,93.9,57.9,30.1,150.0,18.0,29.98,1009.5,10.0,20.0,92.9,CLR
2020-07-19 18:00:00,66879.22203,FST,91.9,57.9,32.03,140.0,16.0,29.97,1008.8,10.0,21.0,90.8,FEW
2020-07-19 19:00:00,65812.903332,FST,91.9,57.9,32.03,150.0,17.0,29.95,1008.7,10.0,23.0,90.8,CLR
2020-07-19 20:00:00,63472.917738,FST,89.1,57.9,34.97,140.0,16.0,29.95,1009.0,10.0,20.0,88.01,CLR
2020-07-19 21:00:00,60888.180416,FST,89.1,59.0,38.58,130.0,19.0,29.97,1009.8,10.0,22.0,88.37,FEW
2020-07-19 22:00:00,58951.761222,FST,84.0,59.0,42.8,140.0,16.0,29.99,1010.3,10.0,21.0,83.75,CLR
2020-07-19 23:00:00,55419.64571,FST,82.9,59.0,44.34,140.0,15.0,30.01,1011.0,10.0,19.0,82.86,CLR
2020-07-20 00:00:00,51618.866138,FST,82.0,60.1,47.49,140.0,15.0,30.02,1010.9,10.0,17.0,82.4,CLR
2020-07-20 01:00:00,48199.862176,FST,81.0,60.1,49.06,140.0,15.0,30.01,1010.9,10.0,20.0,81.62,CLR
2020-07-20 02:00:00,45436.715978,FST,,,,140.0,13.0,30.02,,10.0,,,CLR
2020-07-20 03:00:00,43522.592683,,,,,,,,,,,,
2020-07-20 04:00:00,42237.606032,,,,,,,,,,,,
2020-07-20 05:00:00,41762.702318,FST,75.9,59.0,55.8,160.0,10.0,30.02,1010.8,10.0,,,CLR
2020-07-20 06:00:00,42229.116891,FST,75.0,59.0,57.5,170.0,10.0,30.01,1010.9,10.0,,,CLR
2020-07-20 07:00:00,43082.055389,FST,73.9,59.0,59.66,170.0,10.0,30.02,1011.3,10.0,,,CLR
2020-07-20 08:00:00,44237.297065,FST,73.9,60.1,62.05,180.0,11.0,30.03,1011.7,10.0,,,CLR
2020-07-20 09:00:00,47223.867092,FST,75.9,60.1,58.04,170.0,9.0,30.04,1012.0,10.0,,,CLR
2020-07-20 10:00:00,50925.863595,FST,80.1,60.1,50.52,160.0,9.0,30.04,1011.9,10.0,,80.94,CLR
2020-07-20 11:00:00,55056.227171,FST,84.0,60.1,44.51,150.0,10.0,30.04,1011.2,10.0,,84.05,CLR
2020-07-20 12:00:00,59118.929967,FST,87.1,60.1,40.31,180.0,10.0,30.02,1010.6,10.0,,86.83,CLR
2020-07-20 13:00:00,62387.589517,FST,90.0,60.1,36.77,190.0,9.0,30.0,1009.7,10.0,,89.66,CLR
2020-07-20 14:00:00,64827.775708,FST,93.0,59.0,32.19,190.0,9.0,29.98,1009.0,10.0,,92.35,CLR
2020-07-20 15:00:00,66412.366966,FST,93.0,57.9,30.95,150.0,12.0,29.96,1008.3,10.0,17.0,91.94,FEW
2020-07-20 16:00:00,67245.7848,FST,96.1,55.9,26.16,150.0,15.0,29.94,1007.6,10.0,,94.55,CLR
2020-07-20 17:00:00,67544.342975,FST,95.0,57.0,28.16,130.0,16.0,29.92,1006.8,10.0,21.0,93.75,CLR
2020-07-20 18:00:00,66985.654538,FST,93.9,55.0,27.1,130.0,20.0,29.9,1006.6,10.0,28.0,91.95,CLR
2020-07-20 19:00:00,65190.158742,FST,93.0,55.0,27.87,140.0,19.0,29.89,1006.2,10.0,24.0,91.03,CLR
2020-07-20 20:00:00,62934.426865,FST,91.0,55.9,30.65,140.0,16.0,29.88,1006.6,10.0,22.0,89.27,CLR
2020-07-20 21:00:00,60610.006337,FST,89.1,54.0,30.36,140.0,16.0,29.9,1007.2,10.0,16.0,86.98,CLR
2020-07-20 22:00:00,58830.223855,FST,86.0,53.1,32.41,150.0,14.0,29.91,1007.4,10.0,,84.09,CLR
2020-07-20 23:00:00,55104.84199,FST,84.0,53.1,34.56,150.0,11.0,29.94,1008.4,10.0,,82.52,CLR
2020-07-21 00:00:00,51072.237258,FST,82.9,53.1,35.81,140.0,9.0,29.96,1009.0,10.0,,81.73,CLR
2020-07-21 01:00:00,47594.973419,FST,82.0,55.0,39.52,140.0,6.0,29.97,1009.3,10.0,,81.4,CLR
2020-07-21 02:00:00,44977.545449,FST,81.0,55.0,40.83,140.0,8.0,29.97,1009.1,10.0,,80.73,CLR
2020-07-21 03:00:00,42996.697718,FST,80.1,55.0,42.05,150.0,8.0,29.96,1008.8,10.0,,80.17,CLR
2020-07-21 04:00:00,41713.862405,FST,77.0,55.0,46.57,140.0,5.0,29.96,1008.9,10.0,,,CLR
2020-07-21 05:00:00,41154.337046,FST,75.9,55.9,49.91,160.0,7.0,29.96,1009.1,10.0,,,CLR
2020-07-21 06:00:00,41720.999389,FST,73.9,55.9,53.36,150.0,7.0,29.96,1009.3,10.0,,,CLR
2020-07-21 07:00:00,42874.110321,FST,73.0,55.9,55.0,170.0,7.0,29.98,1009.9,10.0,,,CLR
2020-07-21 08:00:00,43861.244448,FST,73.9,57.0,55.53,170.0,10.0,29.98,1009.7,10.0,,,CLR
2020-07-21 09:00:00,45749.351579,FST,78.1,57.9,49.87,170.0,13.0,29.99,1010.2,10.0,,,CLR
2020-07-21 10:00:00,47999.82536,FST,82.0,59.0,45.66,160.0,13.0,30.0,1010.5,10.0,15.0,82.15,CLR
2020-07-21 11:00:00,50576.663709,FST,87.1,59.0,38.75,160.0,11.0,30.0,1010.4,10.0,,86.47,CLR
2020-07-21 12:00:00,53529.728742,FST,89.1,59.0,36.37,160.0,8.0,30.01,1010.6,10.0,,88.37,CLR
2020-07-21 13:00:00,56693.607745,FST,91.9,55.9,29.8,140.0,13.0,30.0,1009.8,10.0,18.0,90.17,CLR
2020-07-21 14:00:00,59699.632004,FST,95.0,55.0,26.19,150.0,16.0,29.99,1009.3,10.0,24.0,93.1,CLR
2020-07-21 15:00:00,62020.912252,FST,93.9,55.0,27.1,150.0,20.0,29.97,1008.4,10.0,19.0,91.95,CLR
2020-07-21 16:00:00,63804.993841,FST,95.0,55.0,26.19,150.0,17.0,29.94,1007.8,10.0,24.0,93.1,FEW
2020-07-21 17:00:00,64962.113193,FST,96.1,54.0,24.42,160.0,15.0,29.93,1007.1,10.0,18.0,93.97,CLR
2020-07-21 18:00:00,65075.699073,FST,96.1,54.0,24.42,150.0,18.0,29.9,1006.9,10.0,22.0,93.97,CLR
2020-07-21 19:00:00,64004.293763,FST,95.0,54.0,25.26,140.0,15.0,29.9,1006.9,10.0,19.0,92.82,CLR
2020-07-21 20:00:00,61836.31586,FST,93.0,55.0,27.87,140.0,15.0,29.9,1007.2,10.0,,91.03,CLR
2020-07-21 21:00:00,59510.514874,FST,91.0,55.0,29.66,140.0,14.0,29.93,1008.0,10.0,,89.03,CLR
2020-07-21 22:00:00,57689.512498,FST,89.1,55.0,31.49,140.0,11.0,29.94,1008.2,10.0,,87.21,CLR
2020-07-21 23:00:00,54233.618782,FST,84.9,60.1,43.24,160.0,17.0,29.97,1009.2,10.0,24.0,84.83,CLR
2020-07-22 00:00:00,50442.56317,FST,82.0,62.1,50.97,140.0,17.0,30.0,1010.4,10.0,22.0,82.91,BKN
2020-07-22 01:00:00,47255.628562,FST,81.0,61.0,50.65,120.0,11.0,30.0,1010.2,10.0,,81.81,OVC
2020-07-22 02:00:00,44770.260561,FST,77.0,62.1,60.06,110.0,7.0,30.0,1010.4,10.0,,,CLR
2020-07-22 03:00:00,42978.166978,FST,79.0,61.0,54.08,120.0,7.0,30.0,1010.3,10.0,,,CLR
2020-07-22 04:00:00,41822.129864,FST,78.1,61.0,55.71,130.0,9.0,30.0,1010.0,10.0,,,CLR
2020-07-22 05:00:00,41527.988207,FST,77.0,61.0,57.77,130.0,7.0,29.99,1010.1,10.0,,,CLR
2020-07-22 06:00:00,42182.316109,FST,73.9,61.0,64.07,160.0,7.0,30.0,1010.4,10.0,,,CLR
2020-07-22 07:00:00,43355.523685,FST,73.0,61.0,66.04,170.0,5.0,30.01,1010.9,10.0,,,CLR
2020-07-22 08:00:00,44310.546934,FST,73.0,60.1,63.96,210.0,3.0,30.03,1011.4,10.0,,,CLR
2020-07-22 09:00:00,46552.978087,FST,77.0,62.1,60.06,180.0,6.0,30.04,1011.9,10.0,,,CLR
2020-07-22 10:00:00,49896.269505,FST,82.9,63.0,51.1,150.0,11.0,30.05,1012.0,10.0,,83.98,CLR
2020-07-22 11:00:00,53983.91522,FST,86.0,62.1,44.81,160.0,11.0,30.05,1012.0,10.0,17.0,86.52,CLR
2020-07-22 12:00:00,57832.512596,FST,89.1,60.1,37.83,160.0,11.0,30.05,1011.7,10.0,16.0,88.76,CLR
2020-07-22 13:00:00,60738.103328,FST,91.9,59.0,33.31,160.0,14.0,30.04,1011.3,10.0,21.0,91.2,CLR
2020-07-22 14:00:00,63213.504217,FST,93.0,57.9,30.95,150.0,16.0,30.03,1010.8,10.0,18.0,91.94,FEW
2020-07-22 15:00:00,65250.453824,FST,93.9,57.0,29.14,170.0,17.0,30.01,1009.5,10.0,21.0,92.58,SCT
2020-07-22 16:00:00,66608.534972,FST,93.9,55.9,28.0,170.0,14.0,29.97,1008.9,10.0,18.0,92.22,CLR
2020-07-22 17:00:00,67120.804078,FST,96.1,55.0,25.32,150.0,15.0,29.95,1008.1,10.0,18.0,94.27,FEW
2020-07-22 18:00:00,66852.783576,FST,96.1,54.0,24.42,160.0,16.0,29.93,1007.6,10.0,17.0,93.97,FEW
2020-07-22 19:00:00,65650.532077,FST,96.1,55.0,25.32,150.0,16.0,29.92,1007.3,10.0,21.0,94.27,CLR
2020-07-22 20:00:00,63375.087041,FST,93.9,55.0,27.1,150.0,17.0,29.91,1007.4,10.0,,91.95,CLR
2020-07-22 21:00:00,61078.499728,FST,90.0,59.0,35.36,140.0,15.0,29.94,1008.5,10.0,22.0,89.26,CLR
2020-07-22 22:00:00,59088.341967,FST,87.1,59.0,38.75,150.0,18.0,29.97,1009.4,10.0,18.0,86.47,CLR
2020-07-22 23:00:00,55483.968642,FST,84.9,60.1,43.24,150.0,14.0,29.98,1009.7,10.0,19.0,84.83,CLR
2020-07-23 00:00:00,51609.619449,FST,84.0,60.1,44.51,150.0,15.0,30.01,1010.4,10.0,19.0,84.05,CLR
2020-07-23 01:00:00,48266.5559,FST,82.9,59.0,44.34,140.0,11.0,30.02,1010.7,10.0,,82.86,CLR
2020-07-23 02:00:00,45647.456204,FST,81.0,59.0,47.17,130.0,12.0,30.02,1010.8,10.0,19.0,81.4,CLR
2020-07-23 03:00:00,43706.731059,FST,80.1,61.0,52.16,140.0,11.0,30.02,1011.0,10.0,15.0,81.1,CLR
2020-07-23 04:00:00,42367.385411,FST,78.1,61.0,55.71,150.0,11.0,30.02,1010.6,10.0,,,CLR
2020-07-23 05:00:00,41908.482142,FST,77.0,62.1,60.06,140.0,9.0,30.01,1010.7,10.0,,,CLR
2020-07-23 06:00:00,42505.226064,FST,75.9,62.1,62.3,140.0,10.0,30.02,1010.8,10.0,,,CLR
2020-07-23 07:00:00,43606.42522,FST,75.9,62.1,62.3,150.0,10.0,30.01,1010.8,10.0,,,CLR
2020-07-23 08:00:00,44792.387209,FST,75.9,63.0,64.31,170.0,11.0,30.03,1011.4,10.0,,,CLR
2020-07-23 09:00:00,47801.41138,FST,79.0,64.9,62.03,160.0,14.0,30.04,1011.7,10.0,16.0,,CLR
2020-07-23 10:00:00,51759.829159,FST,82.9,64.0,52.93,170.0,14.0,30.05,1011.9,10.0,,84.32,CLR
2020-07-23 11:00:00,55865.370971,FST,87.1,63.0,44.66,160.0,11.0,30.05,1012.0,10.0,,87.96,CLR
2020-07-23 12:00:00,60018.82241,FST,89.1,62.1,40.61,180.0,11.0,30.05,1011.8,10.0,,89.58,CLR
2020-07-23 13:00:00,63639.705905,FST,93.0,60.1,33.48,150.0,13.0,30.04,1011.3,10.0,19.0,92.8,CLR
2020-07-23 14:00:00,66708.802829,FST,93.0,61.0,35.77,160.0,15.0,30.03,1010.9,10.0,21.0,92.8,FEW
2020-07-23 15:00:00,68929.342407,FST,93.9,57.9,30.1,150.0,15.0,30.01,1009.9,10.0,22.0,92.9,FEW
2020-07-23 16:00:00,70365.797905,FST,96.1,57.9,29.14,160.0,18.0,29.99,1008.8,10.0,22.0,95.27,FEW
2020-07-23 17:00:00,70945.341555,FST,96.1,55.0,25.32,150.0,18.0,29.96,1008.0,10.0,20.0,94.27,FEW
2020-07-23 18:00:00,70657.092221,FST,96.1,55.0,25.32,150.0,15.0,29.93,1007.7,10.0,22.0,94.27,FEW
2020-07-23 19:00:00,69176.399678,FST,95.0,55.0,26.19,150.0,20.0,29.93,1007.8,10.0,21.0,93.1,CLR
2020-07-23 20:00:00,66581.101221,FST,93.0,55.9,28.79,140.0,18.0,29.93,1008.0,10.0,22.0,91.29,CLR
2020-07-23 21:00:00,63857.554196,FST,90.0,55.9,31.62,150.0,15.0,29.94,1008.4,10.0,20.0,88.29,FEW
2020-07-23 22:00:00,61604.637427,FST,88.0,57.0,35.05,150.0,14.0,29.97,1009.1,10.0,19.0,86.71,CLR
2020-07-23 23:00:00,57825.255273,FST,87.1,57.9,37.25,150.0,10.0,30.0,1010.1,10.0,,86.14,CLR
2020-07-24 00:00:00,53868.886206,FST,84.9,59.0,41.58,140.0,9.0,30.01,1010.6,10.0,,84.51,CLR
2020-07-24 01:00:00,50274.939406,FST,82.9,59.0,44.34,140.0,8.0,30.02,1010.7,10.0,,82.86,CLR
2020-07-24 02:00:00,47482.151851,FST,81.0,59.0,47.17,150.0,6.0,30.02,1010.7,10.0,,81.4,CLR
2020-07-24 03:00:00,45335.480475,FST,79.0,59.0,50.36,160.0,5.0,30.02,1010.5,10.0,,,CLR
2020-07-24 04:00:00,43704.485029,FST,77.0,59.0,53.8,180.0,5.0,30.02,1010.8,10.0,,,CLR
2020-07-24 05:00:00,42934.907767,FST,75.0,59.0,57.5,170.0,7.0,30.01,1010.7,10.0,,,CLR
2020-07-24 06:00:00,43191.628698,FST,73.9,60.1,62.05,150.0,8.0,30.02,1010.9,10.0,,,CLR
2020-07-24 07:00:00,43884.904415,FST,73.0,60.1,63.96,160.0,8.0,30.03,1011.4,10.0,,,CLR
2020-07-24 08:00:00,44905.82284,FST,75.0,63.0,66.27,150.0,10.0,30.04,1011.9,10.0,,,CLR
2020-07-24 09:00:00,48087.155145,FST,79.0,64.0,60.11,150.0,13.0,30.06,1012.3,10.0,,,CLR
2020-07-24 10:00:00,52077.711293,FST,82.9,64.0,52.93,160.0,13.0,30.07,1012.6,10.0,,84.32,CLR
2020-07-24 11:00:00,56301.49843,FST,87.1,63.0,44.66,160.0,13.0,30.07,1012.4,10.0,,87.96,CLR
2020-07-24 12:00:00,60180.963659,FST,90.0,62.1,39.47,190.0,11.0,30.06,1012.1,10.0,,90.51,CLR
2020-07-24 13:00:00,63394.57328,FST,91.0,61.0,36.8,150.0,13.0,30.06,1011.7,10.0,16.0,91.06,CLR
2020-07-24 14:00:00,66034.88704,FST,91.9,57.9,32.03,130.0,11.0,30.04,1010.9,10.0,17.0,90.8,SCT
2020-07-24 15:00:00,67870.574803,FST,91.9,59.0,33.31,150.0,13.0,30.02,1010.0,10.0,,91.2,FEW
2020-07-24 16:00:00,68878.58988,FST,95.0,60.1,31.47,150.0,19.0,29.99,1009.3,10.0,19.0,94.98,FEW
2020-07-24 17:00:00,68983.660774,FST,96.1,57.9,28.12,140.0,17.0,29.97,1008.3,10.0,21.0,95.27,SCT
2020-07-24 18:00:00,68319.92885,FST,93.9,55.9,28.0,130.0,17.0,29.94,1007.9,10.0,18.0,92.22,FEW
2020-07-24 19:00:00,66510.751286,FST,95.0,55.9,27.06,150.0,17.0,29.93,1008.2,10.0,22.0,93.38,CLR
2020-07-24 20:00:00,63798.430993,FST,93.9,55.0,27.1,140.0,16.0,29.93,1007.8,10.0,20.0,91.95,CLR
2020-07-24 21:00:00,61259.12199,FST,91.0,55.0,29.66,140.0,15.0,29.94,1008.2,10.0,21.0,89.03,CLR
2020-07-24 22:00:00,59400.563417,FST,89.1,57.0,33.85,130.0,11.0,29.95,1008.6,10.0,,87.74,CLR
2020-07-24 23:00:00,56268.471324,FST,88.0,57.0,35.05,140.0,9.0,29.97,1009.2,10.0,,86.71,CLR
2020-07-25 00:00:00,52873.15563,FST,84.9,57.0,38.69,150.0,9.0,30.0,1010.2,10.0,,83.99,CLR
2020-07-25 01:00:00,49636.714344,FST,84.9,59.0,41.58,140.0,7.0,30.01,1010.5,10.0,,84.51,CLR
2020-07-25 02:00:00,46974.568274,FST,82.0,57.9,43.89,170.0,5.0,30.01,1010.5,10.0,,81.92,BKN
2020-07-25 03:00:00,44754.060664,FST,80.1,57.9,46.7,180.0,5.0,30.01,1010.4,10.0,,80.58,CLR
2020-07-25 04:00:00,43103.033062,FST,79.0,59.0,50.36,160.0,6.0,30.0,1010.1,10.0,,,CLR
2020-07-25 05:00:00,42107.684576,FST,79.0,61.0,54.08,150.0,9.0,29.99,1010.0,10.0,,,CLR
2020-07-25 06:00:00,41839.81943,FST,75.9,60.1,58.04,200.0,7.0,30.0,1010.5,10.0,,,CLR
2020-07-25 07:00:00,41908.493991,FST,75.9,60.1,58.04,190.0,7.0,30.02,1011.1,10.0,,,CLR
2020-07-25 08:00:00,42202.534447,FST,78.1,63.0,59.78,180.0,5.0,30.03,1011.5,10.0,,,CLR
2020-07-25 09:00:00,43984.71591,FST,79.0,64.0,60.11,180.0,9.0,30.04,1011.8,10.0,,,CLR
2020-07-25 10:00:00,46443.580867,FST,82.0,64.9,56.24,180.0,10.0,30.04,1011.6,10.0,,83.76,CLR
2020-07-25 11:00:00,48846.687071,FST,86.0,64.0,47.91,170.0,10.0,30.04,1011.4,10.0,,87.31,CLR
2020-07-25 12:00:00,51205.550095,FST,90.0,62.1,39.47,340.0,8.0,30.03,1011.2,10.0,,90.51,CLR
2020-07-25 13:00:00,53710.492051,FST,91.0,62.1,38.26,230.0,9.0,30.03,1010.7,10.0,,91.56,CLR
2020-07-25 14:00:00,55571.11102,FST,91.9,61.0,35.77,160.0,10.0,30.02,1010.4,10.0,,92.01,SCT
2020-07-25 15:00:00,56505.657837,FST,93.9,61.0,33.62,110.0,15.0,30.0,1009.6,10.0,16.0,94.18,FEW
2020-07-25 16:00:00,56720.384956,FST,93.9,57.9,30.1,110.0,14.0,29.98,1008.6,10.0,,92.9,SCT
2020-07-25 17:00:00,56852.337146,FST,96.1,60.1,30.43,120.0,17.0,29.95,1008.0,10.0,21.0,96.21,CLR
2020-07-25 18:00:00,56515.468528,FST,95.0,57.9,29.09,110.0,15.0,29.94,1007.8,10.0,22.0,94.08,SCT
2020-07-25 19:00:00,55261.894946,FST,93.9,57.9,30.1,110.0,17.0,29.93,1007.8,10.0,,92.9,FEW
2020-07-25 20:00:00,53508.403876,FST,93.0,59.0,32.19,120.0,15.0,29.93,1007.8,10.0,,92.35,FEW
2020-07-25 21:00:00,51918.515366,FST,90.0,61.0,37.97,130.0,17.0,29.94,1008.5,10.0,19.0,90.03,FEW
2020-07-25 22:00:00,50735.450877,FST,88.0,61.0,40.44,120.0,19.0,29.96,1009.2,10.0,,88.02,CLR
2020-07-25 23:00:00,48393.39303,FST,86.0,62.1,44.81,130.0,18.0,29.99,1009.9,10.0,22.0,86.52,CLR
2020-07-26 00:00:00,45692.759578,FST,84.0,61.0,45.96,130.0,13.0,30.02,1010.8,10.0,16.0,84.32,CLR
2020-07-26 01:00:00,43238.853123,FST,82.0,64.0,54.5,130.0,17.0,30.04,1011.4,10.0,22.0,83.47,CLR
2020-07-26 02:00:00,41322.390225,FST,80.1,64.9,59.83,130.0,19.0,30.04,1011.6,10.0,16.0,81.91,CLR
2020-07-26 03:00:00,39846.49187,FST,78.1,64.0,61.92,130.0,11.0,30.04,1011.6,10.0,,,CLR
2020-07-26 04:00:00,38897.526287,FST,77.0,63.0,62.0,130.0,11.0,30.05,1011.9,10.0,,,CLR
2020-07-26 05:00:00,38304.395299,FST,75.9,62.1,62.3,120.0,11.0,30.05,1012.2,10.0,,,CLR
2020-07-26 06:00:00,38142.970515,FST,75.0,62.1,64.2,130.0,10.0,30.06,1012.5,10.0,,,CLR
2020-07-26 07:00:00,38165.23989,FST,73.0,62.1,68.66,140.0,10.0,30.08,1013.2,10.0,,,CLR
2020-07-26 08:00:00,38258.093028,FST,73.0,62.1,68.66,140.0,7.0,30.1,1014.1,10.0,,,CLR
2020-07-26 09:00:00,40028.942036,FST,75.0,62.1,64.2,140.0,11.0,30.12,1014.6,10.0,,,CLR
2020-07-26 10:00:00,43280.197208,FST,78.1,62.1,57.92,150.0,13.0,30.13,1015.1,10.0,,,CLR
2020-07-26 11:00:00,46927.716599,FST,79.0,61.0,54.08,130.0,17.0,30.14,1015.1,10.0,,,CLR
2020-07-26 12:00:00,50122.10883,FST,82.9,62.1,49.51,150.0,17.0,30.13,1015.1,10.0,24.0,83.7,CLR
2020-07-26 13:00:00,52758.881127,FST,84.0,62.1,47.78,130.0,17.0,30.13,1014.7,10.0,19.0,84.67,FEW
2020-07-26 14:00:00,54827.094029,FST,87.1,61.0,41.62,130.0,15.0,30.12,1013.9,10.0,21.0,87.15,BKN
2020-07-26 15:00:00,56079.557097,FST,89.1,62.1,40.61,120.0,17.0,30.1,1013.5,10.0,24.0,89.58,SCT
2020-07-26 16:00:00,56828.691826,FST,90.0,62.1,39.47,140.0,19.0,30.09,1013.0,10.0,25.0,90.51,SCT
2020-07-26 17:00:00,57201.083829,FST,90.0,62.1,39.47,140.0,17.0,30.07,1012.3,10.0,22.0,90.51,FEW
2020-07-26 18:00:00,57438.921041,FST,89.1,60.1,37.83,130.0,17.0,30.05,1011.8,10.0,21.0,88.76,SCT
2020-07-26 19:00:00,56741.374601,FST,90.0,57.9,33.99,130.0,18.0,30.03,1011.1,10.0,20.0,88.89,CLR
2020-07-26 20:00:00,55355.993766,FST,88.0,57.9,36.21,140.0,17.0,30.01,1011.2,10.0,20.0,86.96,CLR
2020-07-26 21:00:00,53726.857993,FST,86.0,57.9,38.58,130.0,14.0,30.02,1011.3,10.0,19.0,85.16,CLR
2020-07-26 22:00:00,52524.967295,FST,84.0,57.9,41.14,140.0,10.0,30.04,1012.1,10.0,15.0,83.47,CLR
2020-07-26 23:00:00,49633.570734,FST,80.1,62.1,54.23,170.0,14.0,30.09,1014.0,10.0,18.0,81.31,CLR
2020-07-27 00:00:00,46164.437256,FST,78.1,61.0,55.71,170.0,11.0,30.1,1013.8,10.0,,,CLR
2020-07-27 01:00:00,43252.712535,FST,77.0,61.0,57.77,170.0,13.0,30.11,1014.5,10.0,16.0,,CLR
2020-07-27 02:00:00,41079.574465,FST,75.9,60.1,58.04,170.0,15.0,30.12,1014.7,10.0,19.0,,CLR
2020-07-27 03:00:00,39629.017154,FST,73.9,61.0,64.07,170.0,9.0,30.13,1014.9,10.0,,,CLR
2020-07-27 04:00:00,38808.707512,FST,73.0,60.1,63.96,160.0,11.0,30.12,1014.5,10.0,16.0,,CLR
2020-07-27 05:00:00,38800.896221,FST,71.1,61.0,70.42,170.0,11.0,30.12,1014.1,10.0,,,CLR
2020-07-27 06:00:00,39729.54097,FST,70.0,62.1,76.01,170.0,11.0,30.1,1014.3,10.0,,,CLR
2020-07-27 07:00:00,41250.616902,FST,70.0,63.0,78.46,160.0,11.0,30.11,1014.5,10.0,,,CLR
2020-07-27 08:00:00,42349.052537,FST,71.1,64.0,78.28,160.0,9.0,30.13,1015.1,10.0,,,CLR
2020-07-27 09:00:00,44134.159962,FST,75.0,64.9,70.83,160.0,14.0,30.14,1015.6,10.0,,,CLR
2020-07-27 10:00:00,46484.728261,FST,78.1,63.0,59.78,170.0,17.0,30.15,1015.9,10.0,20.0,,CLR
2020-07-27 11:00:00,49810.439438,FST,81.0,63.0,54.36,160.0,16.0,30.15,1015.6,10.0,19.0,82.28,CLR
2020-07-27 12:00:00,53809.090477,FST,84.0,62.1,47.78,160.0,17.0,30.14,1015.2,10.0,20.0,84.67,CLR
2020-07-27 13:00:00,57516.832985,FST,86.0,62.1,44.81,150.0,17.0,30.13,1014.4,10.0,21.0,86.52,CLR
2020-07-27 14:00:00,60713.86637,FST,89.1,60.1,37.83,150.0,14.0,30.11,1013.7,10.0,17.0,88.76,CLR
2020-07-27 15:00:00,63174.480362,FST,90.0,59.0,35.36,170.0,13.0,30.09,1013.1,10.0,19.0,89.26,CLR
2020-07-27 16:00:00,64978.563685,FST,91.9,57.9,32.03,160.0,15.0,30.07,1012.1,10.0,20.0,90.8,FEW
2020-07-27 17:00:00,65395.912017,FST,93.0,57.9,30.95,140.0,13.0,30.04,1011.4,10.0,17.0,91.94,FEW
2020-07-27 18:00:00,64776.586175,FST,91.9,54.0,27.8,150.0,13.0,30.02,1010.6,10.0,,89.66,FEW
2020-07-27 19:00:00,62978.944455,FST,91.0,55.9,30.65,160.0,11.0,30.0,1010.2,10.0,,89.27,CLR
2020-07-27 20:00:00,60463.791876,FST,90.0,55.0,30.61,140.0,11.0,29.99,1010.3,10.0,,88.06,CLR
2020-07-27 21:00:00,58403.233549,FST,88.0,55.9,33.68,150.0,11.0,30.0,1010.6,10.0,17.0,86.42,CLR
2020-07-27 22:00:00,56365.227623,FST,86.0,57.0,37.35,150.0,10.0,30.02,1011.2,10.0,,84.92,CLR
2020-07-27 23:00:00,52849.455085,FST,84.0,57.9,41.14,160.0,9.0,30.03,1011.7,10.0,,83.47,CLR
2020-07-28 00:00:00,49212.678294,FST,82.0,57.0,42.49,170.0,10.0,30.05,1012.1,10.0,,81.75,CLR
2020-07-28 01:00:00,46034.119632,FST,80.1,57.9,46.7,170.0,10.0,30.05,1012.3,10.0,,80.58,CLR
2020-07-28 02:00:00,43617.734266,FST,79.0,55.9,45.04,160.0,8.0,30.05,1012.1,10.0,,,CLR
2020-07-28 03:00:00,41886.902685,FST,75.9,55.9,49.91,170.0,8.0,30.05,1011.5,10.0,,,CLR
2020-07-28 04:00:00,40810.973214,FST,75.0,57.9,55.28,160.0,8.0,30.03,1011.4,10.0,,,CLR
2020-07-28 05:00:00,40609.306902,FST,73.0,59.0,61.5,180.0,8.0,30.03,1011.4,10.0,,,CLR
2020-07-28 06:00:00,41316.392021,FST,72.0,57.9,61.15,180.0,7.0,30.03,1011.6,10.0,,,CLR
2020-07-28 07:00:00,42807.120858,FST,70.0,57.9,65.45,180.0,8.0,30.04,1011.9,10.0,,,CLR
2020-07-28 08:00:00,43697.40982,FST,71.1,57.9,63.05,180.0,8.0,30.05,1012.5,10.0,,,CLR
2020-07-28 09:00:00,45855.164559,FST,78.1,60.1,53.95,180.0,9.0,30.06,1012.6,10.0,,,CLR
2020-07-28 10:00:00,48689.814714,FST,82.0,61.0,49.03,170.0,11.0,30.07,1013.1,10.0,,82.62,CLR
2020-07-28 11:00:00,51229.800036,FST,86.0,60.1,41.74,170.0,10.0,30.07,1012.8,10.0,,85.81,CLR
2020-07-28 12:00:00,52923.030544,FST,89.1,57.9,34.97,160.0,11.0,30.07,1012.4,10.0,14.0,88.01,CLR
2020-07-28 13:00:00,54375.748075,FST,91.0,55.0,29.66,160.0,11.0,30.06,1011.8,10.0,14.0,89.03,CLR
2020-07-28 14:00:00,55826.679903,FST,93.9,55.0,27.1,150.0,11.0,30.04,1010.9,10.0,18.0,91.95,CLR
2020-07-28 15:00:00,56715.817442,FST,95.0,54.0,25.26,180.0,14.0,30.01,1010.1,10.0,18.0,92.82,CLR
2020-07-28 16:00:00,57010.89644,FST,95.0,54.0,25.26,210.0,9.0,29.99,1009.2,10.0,14.0,92.82,CLR
2020-07-28 17:00:00,57102.644193,FST,95.0,53.1,24.44,170.0,14.0,29.96,1008.7,10.0,18.0,92.58,SCT
2020-07-28 18:00:00,56869.480391,FST,96.1,53.1,23.62,160.0,16.0,29.95,1008.3,10.0,20.0,93.72,SCT
2020-07-28 19:00:00,55597.80697,FST,96.1,53.1,25.28,140.0,13.0,29.93,1008.3,10.0,20.0,93.72,CLR
2020-07-28 20:00:00,53751.6501,FST,91.9,55.0,28.84,130.0,17.0,29.94,1008.4,10.0,20.0,89.92,CLR
2020-07-28 21:00:00,52672.116139,FST,89.1,55.0,31.49,140.0,17.0,29.95,1008.9,10.0,23.0,87.21,CLR
2020-07-28 22:00:00,51453.406824,FST,86.0,57.0,37.35,150.0,15.0,29.96,1009.2,10.0,19.0,84.92,CLR
2020-07-28 23:00:00,48537.959999,FST,84.0,57.0,39.83,150.0,15.0,29.97,1009.5,10.0,16.0,83.26,CLR
2020-07-29 00:00:00,45362.121153,FST,82.0,59.0,45.66,140.0,14.0,29.99,1010.1,10.0,,82.15,CLR
2020-07-29 01:00:00,42747.241064,FST,80.1,60.1,50.52,150.0,13.0,29.99,1009.7,10.0,17.0,80.94,CLR
2020-07-29 02:00:00,40750.485705,FST,78.1,60.1,53.95,160.0,11.0,29.99,1010.0,10.0,14.0,,CLR
2020-07-29 03:00:00,39502.369995,FST,75.9,62.1,62.3,160.0,10.0,29.99,1009.6,10.0,,,CLR
2020-07-29 04:00:00,38772.233864,FST,75.9,63.0,64.31,170.0,11.0,29.98,1009.4,10.0,,,CLR
2020-07-29 05:00:00,38726.806909,FST,73.9,63.0,68.76,180.0,10.0,29.98,1009.6,10.0,,,CLR
2020-07-29 06:00:00,39697.167986,FST,73.0,62.1,68.66,170.0,10.0,29.98,1009.7,10.0,,,CLR
2020-07-29 07:00:00,41154.311961,FST,73.0,62.1,68.66,180.0,11.0,29.99,1010.1,10.0,,,CLR
2020-07-29 08:00:00,42363.983531,FST,73.0,62.1,68.66,180.0,9.0,30.0,1010.4,10.0,,,CLR
2020-07-29 09:00:00,44747.863348,FST,75.9,62.1,62.3,180.0,13.0,30.02,1011.1,10.0,,,CLR
2020-07-29 10:00:00,47886.463102,FST,82.0,60.1,47.49,190.0,11.0,30.02,1011.3,10.0,,82.4,CLR
2020-07-29 11:00:00,51420.202121,FST,88.0,59.0,37.66,200.0,11.0,30.02,1011.1,10.0,,87.31,CLR
2020-07-29 12:00:00,54702.105648,FST,91.9,57.9,32.03,200.0,8.0,30.02,1010.7,10.0,,90.8,CLR
2020-07-29 13:00:00,56739.188196,FST,95.0,52.0,23.47,180.0,9.0,30.01,1010.2,10.0,,92.31,CLR
2020-07-29 14:00:00,58103.83441,FST,96.1,54.0,24.42,170.0,13.0,30.0,1009.5,10.0,16.0,93.97,CLR
2020-07-29 15:00:00,59403.330396,FST,,,,120.0,13.0,29.98,,10.0,,,CLR
2020-07-29 16:00:00,59641.148678,,,,,,,,,,,,
2020-07-29 17:00:00,59400.443352,,,,,,,,,,,,
2020-07-29 18:00:00,59365.595383,,,,,,,,,,,,
2020-07-29 19:00:00,58545.64741,,,,,,,,,,,,
2020-07-29 20:00:00,56784.478036,FST,93.0,57.0,29.96,150.0,17.0,29.92,1007.9,10.0,23.0,91.64,FEW
2020-07-29 21:00:00,55373.394426,FST,88.0,57.0,35.05,140.0,18.0,29.94,1008.6,10.0,23.0,86.71,CLR
2020-07-29 22:00:00,54098.149793,FST,86.0,59.0,40.14,140.0,17.0,29.97,1009.4,10.0,22.0,85.47,CLR
2020-07-29 23:00:00,51242.410903,FST,82.9,60.1,46.12,140.0,16.0,29.99,1009.8,10.0,21.0,83.13,CLR
2020-07-30 00:00:00,47946.010549,FST,82.0,61.0,49.03,160.0,14.0,30.0,1009.8,10.0,17.0,82.62,CLR
2020-07-30 01:00:00,45243.752302,FST,80.1,62.1,54.23,160.0,16.0,29.99,1009.7,10.0,19.0,81.31,CLR
2020-07-30 02:00:00,43254.431937,FST,79.0,63.0,58.04,160.0,16.0,29.99,1009.5,10.0,19.0,,CLR
2020-07-30 03:00:00,41961.828381,FST,77.0,63.0,62.0,160.0,18.0,29.98,1009.4,10.0,22.0,,CLR
2020-07-30 04:00:00,41254.721124,FST,75.9,64.9,68.73,160.0,17.0,29.97,1009.0,10.0,22.0,,CLR
2020-07-30 05:00:00,41128.425865,FST,73.9,64.0,71.21,160.0,16.0,29.97,1009.3,10.0,22.0,,CLR
2020-07-30 06:00:00,41712.991218,FST,73.9,63.0,68.76,170.0,17.0,29.98,1009.5,10.0,22.0,,CLR
2020-07-30 07:00:00,42947.327612,FST,73.0,63.0,70.87,170.0,14.0,29.98,1009.9,10.0,19.0,,CLR
2020-07-30 08:00:00,43848.48407,FST,73.0,64.0,73.4,160.0,14.0,30.0,1010.3,10.0,,,CLR
2020-07-30 09:00:00,46796.783896,FST,77.0,64.0,64.21,160.0,14.0,30.0,1010.6,10.0,18.0,,CLR
2020-07-30 10:00:00,50617.418273,FST,82.9,63.0,51.1,160.0,11.0,30.01,1010.8,10.0,,83.98,CLR
2020-07-30 11:00:00,54597.52518,FST,89.1,62.1,40.61,150.0,10.0,30.01,1010.6,10.0,,89.58,CLR
2020-07-30 12:00:00,58364.349429,FST,91.9,60.1,34.65,150.0,10.0,30.0,1010.2,10.0,,91.63,CLR
2020-07-30 13:00:00,61955.302763,FST,93.9,57.0,29.14,150.0,9.0,30.0,1010.0,10.0,,92.58,CLR
2020-07-30 14:00:00,65006.783115,FST,96.1,57.0,27.23,180.0,11.0,29.99,1009.3,10.0,17.0,94.94,CLR
2020-07-30 15:00:00,67407.505546,FST,99.0,57.0,24.92,130.0,15.0,29.98,1008.9,10.0,17.0,98.12,CLR
2020-07-30 16:00:00,69029.469205,FST,98.1,57.0,25.61,140.0,16.0,29.96,1008.5,10.0,20.0,97.13,CLR
2020-07-30 17:00:00,69859.2787,FST,99.0,57.0,24.92,150.0,15.0,29.95,1008.0,10.0,19.0,98.12,CLR
2020-07-30 18:00:00,69673.725005,FST,98.1,55.9,24.61,120.0,14.0,29.94,1007.9,10.0,19.0,96.72,CLR
2020-07-30 19:00:00,68077.31548,FST,97.0,57.9,27.36,130.0,17.0,29.93,1007.7,10.0,21.0,96.26,CLR
2020-07-30 20:00:00,65251.292599,FST,91.9,60.1,34.65,150.0,17.0,29.93,1008.1,10.0,23.0,91.63,CLR
2020-07-30 21:00:00,62399.57751,FST,87.1,62.1,43.27,150.0,17.0,29.96,1009.1,10.0,21.0,87.58,CLR
2020-07-30 22:00:00,59959.94224,FST,84.0,62.1,47.78,150.0,14.0,30.0,1010.4,10.0,19.0,84.67,CLR
2020-07-30 23:00:00,55708.205449,FST,82.0,64.0,54.5,150.0,13.0,30.01,1010.7,10.0,19.0,83.47,CLR
2020-07-31 00:00:00,51190.914428,FST,80.1,64.0,57.98,150.0,13.0,30.03,1011.2,10.0,17.0,81.71,CLR
2020-07-31 01:00:00,47581.027197,FST,80.1,64.9,59.83,140.0,15.0,30.06,1012.2,10.0,17.0,81.91,CLR
2020-07-31 02:00:00,44751.58425,FST,79.0,66.0,64.45,140.0,18.0,30.06,1011.1,10.0,27.0,,BKN
2020-07-31 03:00:00,42721.971334,FST,77.0,64.9,66.27,150.0,17.0,30.02,1010.6,10.0,22.0,,CLR
2020-07-31 04:00:00,41528.767818,FST,75.0,64.9,70.83,170.0,15.0,30.01,1010.2,10.0,18.0,,CLR
2020-07-31 05:00:00,41133.137937,FST,75.0,66.0,73.59,180.0,11.0,30.02,1011.0,10.0,,,CLR
2020-07-31 06:00:00,41647.99751,FST,73.9,64.9,73.49,140.0,7.0,30.09,1013.3,10.0,,,CLR
2020-07-31 07:00:00,42711.579755,FST,75.9,64.9,68.73,60.0,21.0,30.17,1015.9,10.0,30.0,,CLR
2020-07-31 08:00:00,43609.04196,FST,72.0,60.1,66.16,70.0,17.0,30.17,1016.2,10.0,,,FEW
2020-07-31 09:00:00,46115.849418,FST,73.9,60.1,62.05,360.0,7.0,30.17,1016.3,10.0,,,CLR
2020-07-31 10:00:00,49069.70012,FST,75.9,57.0,51.93,280.0,15.0,30.16,1014.9,10.0,,,CLR
2020-07-31 11:00:00,52366.674104,FST,79.0,57.0,46.87,360.0,11.0,30.16,1016.3,10.0,,,CLR
2020-07-31 12:00:00,55913.908749,FST,82.0,57.0,42.49,360.0,8.0,30.17,1016.2,10.0,,81.75,CLR
2020-07-31 13:00:00,59306.026094,FST,87.1,59.0,38.75,360.0,13.0,30.16,1015.8,10.0,20.0,86.47,CLR
2020-07-31 14:00:00,62388.169317,FST,88.0,60.1,39.17,360.0,14.0,30.15,1015.1,10.0,17.0,87.69,CLR
2020-07-31 15:00:00,64543.166048,FST,88.0,60.1,39.17,360.0,13.0,30.13,1014.8,10.0,,87.69,FEW
2020-07-31 16:00:00,65721.125426,FST,91.0,59.0,34.27,360.0,11.0,30.12,1014.1,10.0,17.0,90.27,CLR
2020-07-31 17:00:00,65901.293211,FST,91.9,59.0,33.31,360.0,13.0,30.1,1013.1,10.0,,91.2,CLR
2020-07-31 18:00:00,65146.998944,FST,91.0,57.9,32.94,350.0,10.0,30.07,1012.3,10.0,,89.88,CLR
2020-07-31 19:00:00,63177.203625,FST,91.0,57.0,31.89,350.0,11.0,30.05,1011.7,10.0,,89.59,CLR
2020-07-31 20:00:00,60156.718303,FST,90.0,55.9,31.62,50.0,11.0,30.04,1011.9,10.0,,88.29,CLR
2020-07-31 21:00:00,57318.292818,FST,87.1,55.9,34.66,70.0,8.0,30.06,1012.7,10.0,,85.61,CLR
2020-07-31 22:00:00,54902.224432,FST,84.9,55.9,37.18,70.0,7.0,30.07,1013.3,10.0,,83.74,BKN
2020-07-31 23:00:00,51455.398888,FST,82.0,55.9,40.83,90.0,5.0,30.09,1013.7,10.0,,81.55,CLR
2020-08-01 00:00:00,47942.438867,FST,81.0,57.0,43.9,110.0,8.0,30.11,1014.2,10.0,,81.05,CLR
2020-08-01 01:00:00,44762.209222,FST,81.0,57.9,45.34,130.0,10.0,30.11,1014.3,10.0,,81.2,CLR
2020-08-01 02:00:00,42280.283732,FST,79.0,59.0,50.36,150.0,7.0,30.12,1014.3,10.0,,,CLR
2020-08-01 03:00:00,40371.224545,FST,77.0,59.0,53.8,160.0,5.0,30.11,1014.2,10.0,,,CLR
2020-08-01 04:00:00,38703.558779,FST,77.0,59.0,53.8,140.0,5.0,30.11,1014.0,10.0,,,CLR
2020-08-01 05:00:00,37576.274879,FST,73.9,57.9,57.36,170.0,7.0,30.1,1013.7,10.0,,,CLR
2020-08-01 06:00:00,37069.318369,FST,73.9,59.0,59.66,180.0,8.0,30.09,1013.1,10.0,,,CLR
2020-08-01 07:00:00,37038.485902,FST,73.0,60.1,63.96,210.0,7.0,30.09,1013.6,10.0,,,CLR
2020-08-01 08:00:00,37301.147222,FST,72.0,60.1,66.16,340.0,4.0,30.11,1014.4,10.0,,,CLR
2020-08-01 09:00:00,39524.548568,FST,81.0,62.1,52.66,240.0,7.0,30.12,1014.8,10.0,,82.06,CLR
2020-08-01 10:00:00,42646.062073,FST,84.0,60.1,44.51,260.0,5.0,30.14,1015.1,10.0,,84.05,CLR
2020-08-01 11:00:00,45809.036653,FST,87.1,59.0,38.75,210.0,5.0,30.14,1015.1,10.0,,86.47,CLR
2020-08-01 12:00:00,49108.422749,FST,90.0,59.0,35.36,340.0,8.0,30.14,1015.1,10.0,,89.26,CLR
2020-08-01 13:00:00,52226.83238,FST,91.0,55.0,29.66,360.0,9.0,30.14,1014.8,10.0,,,CLR
2020-08-01 14:00:00,55051.948131,FST,93.9,52.0,24.28,110.0,11.0,30.13,1014.2,10.0,14.0,91.19,CLR
2020-08-01 15:00:00,57471.419126,FST,93.9,50.0,22.55,360.0,10.0,30.11,1013.5,10.0,,90.79,CLR
2020-08-01 16:00:00,58797.264009,FST,95.0,50.0,21.79,180.0,11.0,30.09,1012.5,10.0,,91.89,SCT
2020-08-01 17:00:00,59450.642002,FST,95.0,50.0,21.79,130.0,11.0,30.06,1011.8,10.0,,91.89,FEW
2020-08-01 18:00:00,59540.123291,FST,97.0,50.0,20.49,120.0,10.0,30.04,1011.0,10.0,,93.91,SCT
2020-08-01 19:00:00,58827.422708,FST,93.9,50.0,22.55,110.0,10.0,30.02,1010.8,10.0,,90.79,FEW
2020-08-01 20:00:00,56773.168784,FST,93.0,48.9,22.25,130.0,9.0,30.01,1010.9,10.0,,89.72,SCT
2020-08-01 21:00:00,54347.099396,FST,90.0,48.0,23.63,110.0,8.0,30.02,1011.1,10.0,,86.78,CLR
2020-08-01 22:00:00,52175.227853,FST,87.1,48.0,25.9,140.0,6.0,30.04,1011.5,10.0,,84.27,CLR
2020-08-01 23:00:00,48852.361792,FST,82.9,48.0,29.64,160.0,6.0,30.05,1012.1,10.0,,81.11,CLR
2020-08-02 00:00:00,45631.137868,FST,81.0,46.9,30.24,170.0,8.0,30.06,1012.3,10.0,,79.83,CLR
2020-08-02 01:00:00,42622.077824,FST,78.1,48.0,34.67,170.0,7.0,30.07,1012.7,10.0,,,CLR
2020-08-02 02:00:00,40179.983542,FST,77.0,48.9,37.19,170.0,9.0,30.07,1012.6,10.0,,,CLR
2020-08-02 03:00:00,38244.695885,FST,75.9,50.0,40.19,180.0,9.0,30.07,1012.8,10.0,,,CLR
2020-08-02 04:00:00,36832.621079,FST,73.9,50.0,42.97,170.0,8.0,30.07,1012.5,10.0,,,CLR
2020-08-02 05:00:00,36003.16818,FST,73.0,51.1,46.13,180.0,8.0,30.06,1012.6,10.0,,,CLR
2020-08-02 06:00:00,35638.052995,FST,70.0,51.1,51.07,170.0,7.0,30.07,1012.9,10.0,,,CLR
2020-08-02 07:00:00,35464.961012,FST,71.1,51.1,49.2,170.0,8.0,30.08,1013.4,10.0,,,CLR
2020-08-02 08:00:00,35724.179797,FST,73.0,52.0,47.69,180.0,10.0,30.09,1013.6,10.0,,,CLR
2020-08-02 09:00:00,38685.554925,FST,82.0,50.0,32.88,210.0,10.0,30.11,1014.0,10.0,,80.73,CLR
2020-08-02 10:00:00,43133.010702,FST,86.0,52.0,31.13,240.0,9.0,30.11,1013.9,10.0,,83.91,CLR
2020-08-02 11:00:00,48051.55387,FST,90.0,52.0,27.42,270.0,7.0,30.12,1014.3,10.0,,87.4,CLR
2020-08-02 12:00:00,52758.479272,FST,93.0,48.0,21.51,330.0,6.0,30.12,1014.4,10.0,,89.58,CLR
2020-08-02 13:00:00,56737.3458,FST,96.1,46.9,18.76,350.0,8.0,30.12,1013.9,10.0,,92.44,CLR
2020-08-02 14:00:00,59639.757977,FST,96.1,48.0,19.55,310.0,7.0,30.1,1013.2,10.0,,92.62,CLR
2020-08-02 15:00:00,61777.295934,FST,96.1,46.0,18.13,350.0,9.0,30.08,1012.5,10.0,,92.3,CLR
2020-08-02 16:00:00,62891.738667,FST,98.1,46.9,17.65,210.0,13.0,30.06,1011.7,10.0,16.0,94.43,FEW
2020-08-02 17:00:00,63489.226725,FST,97.0,46.0,17.64,120.0,12.0,30.04,1011.1,10.0,,93.19,SCT
2020-08-02 18:00:00,62845.431461,FST,98.1,46.9,17.65,170.0,11.0,30.01,1010.4,10.0,,94.43,CLR
2020-08-02 19:00:00,61457.768114,FST,98.1,46.9,17.65,100.0,9.0,29.99,1009.6,10.0,,94.43,CLR
2020-08-02 20:00:00,58950.13721,FST,96.1,46.0,18.13,140.0,11.0,29.98,1009.4,10.0,,92.3,CLR
2020-08-02 21:00:00,56338.776629,FST,91.9,48.0,22.26,120.0,11.0,29.99,1010.0,10.0,,88.53,CLR
2020-08-02 22:00:00,54050.727872,FST,90.0,48.9,24.44,140.0,10.0,30.02,1010.8,10.0,,86.9,CLR
2020-08-02 23:00:00,50275.120231,FST,87.1,50.0,27.91,170.0,9.0,30.03,1011.3,10.0,,84.51,CLR
2020-08-03 00:00:00,46462.939768,FST,84.0,51.1,32.1,170.0,10.0,30.05,1011.9,10.0,,82.23,CLR
2020-08-03 01:00:00,43122.704311,FST,82.9,52.0,34.39,170.0,10.0,30.06,1012.0,10.0,,81.57,CLR
2020-08-03 02:00:00,40581.017564,FST,82.0,53.1,36.87,170.0,11.0,30.06,1011.6,10.0,,81.11,CLR
2020-08-03 03:00:00,38745.001732,FST,81.0,54.0,39.37,300.0,10.0,30.09,1012.9,10.0,,80.59,CLR
2020-08-03 04:00:00,37731.313451,FST,80.1,54.0,40.54,350.0,13.0,30.11,1013.5,10.0,,80.04,SCT
2020-08-03 05:00:00,37577.385448,FST,75.9,55.9,49.91,50.0,14.0,30.12,1014.5,10.0,19.0,,SCT
2020-08-03 06:00:00,38324.710536,FST,73.0,59.0,61.5,70.0,14.0,30.13,1014.6,10.0,,,FEW
2020-08-03 07:00:00,39822.243877,FST,73.0,57.9,59.12,110.0,10.0,30.12,1014.0,10.0,,,CLR
2020-08-03 08:00:00,41051.498141,FST,73.4,59.0,61.5,260.0,5.0,30.13,1014.6,10.0,,,CLR
2020-08-03 09:00:00,43988.240909,FST,73.9,59.0,59.66,320.0,8.0,30.15,1015.4,10.0,,,BKN
2020-08-03 10:00:00,47649.012183,FST,75.0,59.0,57.5,360.0,6.0,30.15,1015.7,10.0,,,BKN
2020-08-03 11:00:00,51896.228869,FST,75.0,60.1,59.81,350.0,6.0,30.17,1016.4,10.0,,,BKN
2020-08-03 12:00:00,56104.284983,FST,77.0,60.1,55.95,360.0,5.0,30.17,1016.6,10.0,,,BKN
2020-08-03 13:00:00,59993.625875,FST,80.1,60.1,50.52,130.0,5.0,30.17,1016.5,10.0,,80.94,SCT
2020-08-03 14:00:00,63355.2526,FST,82.9,59.0,44.34,350.0,6.0,30.17,1015.8,10.0,,82.86,CLR
2020-08-03 15:00:00,65923.811759,FST,86.0,59.0,40.14,190.0,7.0,30.15,1014.8,10.0,,85.47,CLR
2020-08-03 16:00:00,67443.507,FST,89.1,57.9,34.97,190.0,9.0,30.12,1013.6,10.0,,88.01,CLR
2020-08-03 17:00:00,67695.088401,FST,91.9,57.0,31.0,170.0,9.0,30.09,1012.7,10.0,,90.5,CLR
2020-08-03 18:00:00,66427.243944,FST,93.0,55.9,28.79,220.0,8.0,30.06,1011.8,10.0,,91.29,FEW
2020-08-03 19:00:00,63743.084551,FST,91.9,55.9,29.8,170.0,9.0,30.03,1011.3,10.0,,90.17,CLR
2020-08-03 20:00:00,60567.424344,FST,91.9,55.0,28.84,130.0,8.0,30.02,1011.0,10.0,,89.92,CLR
2020-08-03 21:00:00,58223.11641,FST,89.1,53.1,29.37,160.0,13.0,30.02,1011.4,10.0,,86.79,CLR
2020-08-03 22:00:00,55980.633441,FST,86.0,52.0,31.13,160.0,11.0,30.04,1012.1,10.0,,83.91,CLR
2020-08-03 23:00:00,52245.062019,FST,82.9,54.0,37.01,160.0,11.0,30.07,1013.2,10.0,,81.87,CLR
2020-08-04 00:00:00,48197.834692,FST,81.0,54.0,39.37,160.0,10.0,30.07,1013.2,10.0,,80.59,CLR
2020-08-04 01:00:00,44810.31674,FST,79.0,54.0,42.03,160.0,11.0,30.08,1013.6,10.0,,,CLR
2020-08-04 02:00:00,42312.280967,FST,78.1,55.0,44.9,160.0,13.0,30.08,1013.1,10.0,,,CLR
2020-08-04 03:00:00,40623.478659,FST,77.0,55.9,48.12,140.0,11.0,30.07,1012.6,10.0,,,CLR
2020-08-04 04:00:00,39603.106539,FST,75.0,57.9,55.28,150.0,12.0,30.05,1012.3,10.0,,,CLR
2020-08-04 05:00:00,39336.945682,FST,73.0,57.9,59.12,160.0,11.0,30.05,1012.4,10.0,,,CLR
2020-08-04 06:00:00,40087.757892,FST,72.0,57.0,59.2,170.0,10.0,30.06,1012.2,10.0,,,CLR
2020-08-04 07:00:00,41487.512562,FST,70.0,57.9,65.45,160.0,8.0,30.07,1013.1,10.0,,,CLR
2020-08-04 08:00:00,42233.180143,FST,70.0,57.0,63.37,170.0,9.0,30.08,1013.3,10.0,,,CLR
2020-08-04 09:00:00,44327.036402,FST,78.1,57.0,48.28,180.0,10.0,30.08,1012.9,10.0,,,CLR
2020-08-04 10:00:00,47659.710937,FST,88.0,53.1,30.41,200.0,13.0,30.07,1012.4,10.0,,85.8,CLR
2020-08-04 11:00:00,51677.349575,FST,91.9,53.1,26.9,270.0,11.0,30.08,1012.9,10.0,,89.45,CLR
2020-08-04 12:00:00,55826.641526,FST,93.9,52.0,24.28,330.0,8.0,30.08,1012.8,10.0,,91.19,CLR
2020-08-04 13:00:00,59727.714891,FST,96.1,53.1,23.62,250.0,9.0,30.08,1012.4,10.0,,93.72,CLR
2020-08-04 14:00:00,63283.932183,FST,97.0,50.0,20.49,220.0,10.0,30.06,1011.5,10.0,,93.91,CLR
2020-08-04 15:00:00,66103.839094,FST,100.0,50.0,18.71,190.0,9.0,30.04,1010.7,10.0,,97.0,CLR
2020-08-04 16:00:00,67925.706908,FST,102.0,48.9,16.91,180.0,11.0,30.01,1009.8,10.0,,98.79,CLR
2020-08-04 17:00:00,68851.578333,FST,100.0,48.9,17.96,250.0,11.0,29.99,1009.4,10.0,,96.75,CLR
2020-08-04 18:00:00,68514.58469,FST,100.0,48.0,17.36,160.0,19.0,29.97,1008.9,10.0,28.0,96.55,FEW
2020-08-04 19:00:00,66743.91536,FST,99.0,46.9,17.17,150.0,18.0,29.96,1008.7,10.0,23.0,95.33,FEW
2020-08-04 20:00:00,63856.631866,FST,97.0,46.0,17.64,150.0,15.0,29.96,1009.2,10.0,19.0,93.19,CLR
2020-08-04 21:00:00,61186.287604,FST,93.0,46.9,20.64,150.0,15.0,29.98,1009.5,10.0,21.0,89.43,CLR
2020-08-04 22:00:00,58552.781861,FST,90.0,46.9,22.67,150.0,15.0,29.99,1009.8,10.0,21.0,86.65,CLR
2020-08-04 23:00:00,54485.355012,FST,87.1,52.0,30.05,140.0,16.0,30.01,1010.3,10.0,22.0,84.82,CLR
2020-08-05 00:00:00,50375.84579,FST,84.9,54.0,34.7,150.0,19.0,30.01,1010.2,10.0,24.0,83.37,CLR
2020-08-05 01:00:00,46926.487774,FST,84.0,55.0,37.05,150.0,19.0,30.01,1010.3,10.0,23.0,82.85,CLR
2020-08-05 02:00:00,44326.059687,FST,82.0,55.0,39.52,160.0,17.0,30.01,1009.9,10.0,23.0,81.4,CLR
2020-08-05 03:00:00,42389.60726,FST,80.1,55.0,42.05,170.0,18.0,30.0,1009.7,10.0,21.0,80.17,CLR
2020-08-05 04:00:00,41137.419017,FST,79.0,55.0,43.59,170.0,15.0,29.99,1009.5,10.0,19.0,,CLR
2020-08-05 05:00:00,40686.610981,FST,78.1,55.0,44.9,170.0,15.0,29.99,1009.5,10.0,19.0,,CLR
2020-08-05 06:00:00,41318.867839,FST,75.0,55.0,49.78,170.0,13.0,30.0,1010.0,10.0,,,CLR
2020-08-05 07:00:00,42554.66403,FST,75.0,55.0,49.78,180.0,11.0,30.01,1010.6,10.0,,,CLR
2020-08-05 08:00:00,43516.922748,FST,75.0,55.9,51.43,170.0,9.0,30.03,1011.4,10.0,,,CLR
2020-08-05 09:00:00,45967.357299,FST,79.0,55.9,45.04,160.0,11.0,30.04,1011.6,10.0,,,CLR
2020-08-05 10:00:00,49252.026911,FST,84.9,55.9,37.18,170.0,11.0,30.04,1011.5,10.0,,83.74,CLR
2020-08-05 11:00:00,52659.729514,FST,91.9,53.1,26.9,160.0,10.0,30.04,1011.0,10.0,15.0,89.45,CLR
2020-08-05 12:00:00,56360.591607,FST,96.1,50.0,21.07,200.0,10.0,30.03,1010.5,10.0,,93.0,CLR
2020-08-05 13:00:00,59703.608704,FST,99.0,48.9,18.51,210.0,11.0,30.02,1010.3,10.0,,95.72,CLR
2020-08-05 14:00:00,62573.921959,FST,100.9,50.0,18.21,240.0,11.0,30.01,1009.6,10.0,14.0,97.94,CLR
2020-08-05 15:00:00,64969.118851,FST,102.0,52.0,18.97,160.0,15.0,29.99,1009.0,10.0,21.0,99.65,CLR
2020-08-05 16:00:00,66238.43508,FST,100.9,51.1,18.97,170.0,16.0,29.97,1008.3,10.0,21.0,98.23,CLR
2020-08-05 17:00:00,66806.305401,FST,100.9,51.1,18.97,150.0,17.0,29.95,1007.8,10.0,21.0,98.23,CLR
2020-08-05 18:00:00,66526.022675,FST,100.0,50.0,18.71,150.0,20.0,29.94,1007.3,10.0,27.0,97.0,CLR
2020-08-05 19:00:00,65403.06427,FST,97.0,50.0,20.49,160.0,19.0,29.92,1007.0,10.0,26.0,93.91,CLR
2020-08-05 20:00:00,63037.172018,FST,95.0,48.9,20.92,150.0,18.0,29.91,1007.3,10.0,23.0,91.68,CLR
2020-08-05 21:00:00,60714.143908,FST,91.0,51.1,25.7,150.0,18.0,29.92,1007.8,10.0,22.0,88.18,CLR
2020-08-05 22:00:00,58490.969814,FST,88.0,53.1,30.41,150.0,15.0,29.95,1008.5,10.0,19.0,85.8,CLR
2020-08-05 23:00:00,54788.810706,FST,84.9,53.1,33.57,150.0,14.0,29.96,1008.8,10.0,19.0,83.21,CLR
2020-08-06 00:00:00,50786.872895,FST,82.9,55.0,38.38,150.0,15.0,29.97,1008.9,10.0,,82.03,CLR
2020-08-06 01:00:00,47432.28453,FST,,,,150.0,16.0,29.97,,10.0,18.0,,CLR
2020-08-06 02:00:00,44863.018799,,,,,,,,,,,,
2020-08-06 03:00:00,42915.675682,FST,80.1,59.0,48.58,160.0,16.0,29.98,1008.9,10.0,24.0,80.76,CLR
2020-08-06 04:00:00,41748.682413,FST,79.0,60.1,52.38,160.0,17.0,29.97,1008.7,10.0,24.0,,CLR
2020-08-06 05:00:00,41419.264851,FST,77.0,60.1,55.95,160.0,18.0,29.97,1009.0,10.0,21.0,,CLR
2020-08-06 06:00:00,42082.787836,FST,75.9,60.1,58.04,180.0,14.0,29.98,1009.5,10.0,,,CLR
2020-08-06 07:00:00,43469.744253,FST,75.0,60.1,59.81,180.0,11.0,29.99,1010.0,10.0,,,CLR
2020-08-06 08:00:00,44387.030777,FST,75.0,60.1,59.81,180.0,15.0,30.01,1010.6,10.0,,,CLR
2020-08-06 09:00:00,46907.707363,FST,78.1,61.0,55.71,180.0,14.0,30.02,1011.2,10.0,17.0,,CLR
2020-08-06 10:00:00,50459.512279,FST,82.0,61.0,49.03,160.0,15.0,30.02,1011.2,10.0,,82.62,CLR
2020-08-06 11:00:00,54495.326744,FST,87.1,60.1,40.31,160.0,13.0,30.03,1011.2,10.0,18.0,86.83,CLR
2020-08-06 12:00:00,58738.188083,FST,91.9,57.9,32.03,170.0,11.0,30.03,1010.7,10.0,17.0,90.8,CLR
2020-08-06 13:00:00,62658.080109,FST,96.1,55.9,26.16,160.0,11.0,30.02,1010.2,10.0,,94.55,CLR
2020-08-06 14:00:00,65950.337537,FST,98.1,55.0,23.82,150.0,14.0,30.0,1009.3,10.0,19.0,96.41,CLR
2020-08-06 15:00:00,68600.156075,FST,100.9,50.0,18.21,160.0,14.0,29.98,1008.6,10.0,19.0,97.94,CLR
2020-08-06 16:00:00,69819.683392,FST,99.0,48.9,18.51,160.0,18.0,29.96,1008.3,10.0,23.0,95.72,CLR
2020-08-06 17:00:00,70224.785869,FST,100.0,52.0,20.15,160.0,21.0,29.95,1007.7,10.0,25.0,97.53,CLR
2020-08-06 18:00:00,69844.730164,FST,98.1,55.9,24.61,150.0,18.0,29.93,1007.5,10.0,26.0,96.72,CLR
2020-08-06 19:00:00,68605.976001,FST,96.1,55.0,25.32,150.0,19.0,29.92,1007.4,10.0,26.0,94.27,CLR
2020-08-06 20:00:00,65940.667807,FST,93.0,54.0,26.87,140.0,19.0,29.93,1008.1,10.0,25.0,90.76,CLR
2020-08-06 21:00:00,63424.389146,FST,90.0,55.9,31.62,150.0,17.0,29.95,1008.9,10.0,22.0,88.29,CLR
2020-08-06 22:00:00,61245.879096,FST,87.1,60.1,40.31,140.0,17.0,29.98,1009.6,10.0,22.0,86.83,CLR
2020-08-06 23:00:00,57248.497132,FST,84.9,59.0,41.58,140.0,16.0,30.0,1010.2,10.0,23.0,84.51,CLR
2020-08-07 00:00:00,53267.675134,FST,82.9,60.1,46.12,150.0,17.0,30.0,1010.0,10.0,23.0,83.13,CLR
2020-08-07 01:00:00,49900.368268,FST,82.0,60.1,47.49,150.0,18.0,30.0,1009.9,10.0,24.0,82.4,CLR
2020-08-07 02:00:00,47217.398595,FST,81.0,60.1,49.06,160.0,18.0,30.0,1010.0,10.0,24.0,81.62,CLR
2020-08-07 03:00:00,45383.374291,FST,79.0,60.1,52.38,160.0,18.0,30.0,1009.6,10.0,22.0,,CLR
2020-08-07 04:00:00,44112.177946,FST,78.1,60.1,53.95,170.0,17.0,29.99,1009.8,10.0,22.0,,CLR
2020-08-07 05:00:00,43505.823917,FST,77.0,61.0,57.77,160.0,14.0,29.99,1009.8,10.0,19.0,,CLR
2020-08-07 06:00:00,43972.312368,FST,75.9,61.0,59.92,180.0,14.0,30.0,1010.3,10.0,18.0,,CLR
2020-08-07 07:00:00,44871.61159,FST,75.0,61.0,61.75,170.0,14.0,30.01,1010.8,10.0,,,CLR
2020-08-07 08:00:00,45552.884703,FST,73.9,62.1,66.61,180.0,13.0,30.03,1011.7,10.0,17.0,,CLR
2020-08-07 09:00:00,48458.353231,FST,77.0,62.1,60.06,170.0,16.0,30.05,1012.2,10.0,,,CLR
2020-08-07 10:00:00,52409.100949,FST,82.0,62.1,50.97,180.0,16.0,30.05,1012.3,10.0,,82.91,CLR
2020-08-07 11:00:00,56613.001885,FST,88.0,60.1,39.17,170.0,17.0,30.05,1012.1,10.0,18.0,87.69,CLR
2020-08-07 12:00:00,60618.070901,FST,91.9,57.9,32.03,190.0,14.0,30.05,1011.9,10.0,,90.8,CLR
2020-08-07 13:00:00,64067.717525,FST,93.9,57.0,29.14,180.0,14.0,30.05,1011.5,10.0,,92.58,CLR
2020-08-07 14:00:00,66986.265339,FST,95.0,55.9,27.06,160.0,15.0,30.03,1010.8,10.0,21.0,93.38,CLR
2020-08-07 15:00:00,69193.329487,FST,98.1,54.0,22.97,140.0,15.0,30.02,1010.1,10.0,19.0,96.1,CLR
2020-08-07 16:00:00,70257.927595,FST,98.1,53.1,22.22,150.0,17.0,30.0,1009.9,10.0,21.0,95.83,CLR
2020-08-07 17:00:00,70347.945371,FST,99.0,52.0,20.77,160.0,18.0,29.99,1009.2,10.0,19.0,96.47,CLR
2020-08-07 18:00:00,69889.408126,FST,93.9,57.9,30.1,150.0,17.0,29.98,1009.6,10.0,23.0,92.9,CLR
2020-08-07 19:00:00,68295.204365,FST,95.0,55.9,27.06,140.0,18.0,29.98,1009.7,10.0,22.0,93.38,CLR
2020-08-07 20:00:00,65469.363092,FST,91.9,55.9,29.8,140.0,18.0,29.99,1010.3,10.0,22.0,90.17,CLR
2020-08-07 21:00:00,62970.069331,FST,89.1,55.9,32.53,140.0,17.0,30.02,1011.1,10.0,19.0,87.44,CLR
2020-08-07 22:00:00,60606.019312,FST,87.1,57.9,37.25,140.0,18.0,30.04,1011.8,10.0,25.0,86.14,CLR
2020-08-07 23:00:00,57087.886141,FST,84.0,57.9,41.14,140.0,18.0,30.06,1012.5,10.0,22.0,83.47,CLR
2020-08-08 00:00:00,53450.77152,FST,82.9,57.9,42.63,150.0,15.0,30.08,1012.7,10.0,21.0,82.6,CLR
2020-08-08 01:00:00,50021.392389,FST,82.0,60.1,47.49,150.0,16.0,30.08,1012.9,10.0,21.0,82.4,CLR
2020-08-08 02:00:00,47025.933739,FST,80.1,60.1,50.52,150.0,12.0,30.08,1012.8,10.0,17.0,80.94,CLR
2020-08-08 03:00:00,44791.020764,FST,77.0,60.1,55.95,150.0,11.0,30.08,1012.5,10.0,,,CLR
2020-08-08 04:00:00,43002.202675,FST,77.0,61.0,57.77,170.0,11.0,30.07,1012.3,10.0,,,CLR
2020-08-08 05:00:00,42028.090505,FST,75.0,60.1,59.81,170.0,11.0,30.08,1013.0,10.0,,,CLR
2020-08-08 06:00:00,41711.699628,FST,73.9,61.0,64.07,170.0,5.0,30.08,1013.2,10.0,,,CLR
2020-08-08 07:00:00,41727.116141,FST,73.0,61.0,66.04,160.0,9.0,30.09,1013.6,10.0,,,CLR
2020-08-08 08:00:00,42081.516115,FST,73.0,62.1,68.66,160.0,9.0,30.1,1013.9,10.0,,,CLR
2020-08-08 09:00:00,45223.915453,FST,77.0,63.0,62.0,150.0,16.0,30.11,1014.2,10.0,20.0,,CLR
2020-08-08 10:00:00,49664.930912,FST,81.0,63.0,54.36,160.0,16.0,30.11,1014.3,10.0,23.0,82.28,CLR
2020-08-08 11:00:00,54008.811958,FST,86.0,62.1,44.81,160.0,17.0,30.11,1014.1,10.0,21.0,86.52,CLR
2020-08-08 12:00:00,58016.896265,FST,90.0,57.9,33.99,170.0,15.0,30.11,1013.7,10.0,19.0,88.89,CLR
2020-08-08 13:00:00,61326.646279,FST,93.0,57.0,29.96,180.0,14.0,30.1,1013.2,10.0,20.0,91.64,CLR
2020-08-08 14:00:00,63906.139362,FST,95.0,55.9,27.06,170.0,16.0,30.08,1012.6,10.0,18.0,93.38,CLR
2020-08-08 15:00:00,65683.085953,FST,96.1,55.0,25.32,160.0,15.0,30.07,1012.2,10.0,19.0,94.27,CLR
2020-08-08 16:00:00,66896.47705,FST,96.1,54.0,24.42,170.0,16.0,30.05,1011.7,10.0,21.0,93.97,CLR
2020-08-08 17:00:00,67803.064652,FST,97.0,55.9,25.45,160.0,15.0,30.04,1011.2,10.0,21.0,95.53,CLR
2020-08-08 18:00:00,67944.942229,FST,96.1,57.0,27.23,150.0,17.0,30.02,1011.1,10.0,23.0,94.94,CLR
2020-08-08 19:00:00,66772.482414,FST,93.9,55.0,27.1,150.0,17.0,30.02,1011.0,10.0,21.0,91.95,CLR
2020-08-08 20:00:00,64169.512392,FST,91.9,55.9,29.8,150.0,17.0,30.03,1011.5,10.0,22.0,90.17,CLR
2020-08-08 21:00:00,61697.063282,FST,89.1,55.0,31.49,140.0,19.0,30.05,1012.1,10.0,23.0,87.21,CLR
2020-08-08 22:00:00,59505.643419,FST,86.0,57.0,37.35,140.0,16.0,30.06,1012.6,10.0,22.0,84.92,CLR
2020-08-08 23:00:00,56101.957626,FST,84.0,57.0,39.83,140.0,18.0,30.07,1012.9,10.0,23.0,83.26,CLR
2020-08-09 00:00:00,52657.178635,FST,82.9,57.0,41.27,150.0,17.0,30.08,1012.9,10.0,26.0,82.41,CLR
2020-08-09 01:00:00,49461.195458,FST,82.0,57.9,43.89,150.0,17.0,30.08,1013.0,10.0,23.0,81.92,CLR
2020-08-09 02:00:00,46796.636994,FST,81.0,60.1,49.06,160.0,17.0,30.08,1012.6,10.0,21.0,81.62,CLR
2020-08-09 03:00:00,44766.607721,FST,79.0,60.1,52.38,160.0,16.0,30.07,1012.3,10.0,22.0,,CLR
2020-08-09 04:00:00,43175.474437,FST,78.1,61.0,55.71,160.0,15.0,30.06,1012.1,10.0,,,CLR
2020-08-09 05:00:00,42071.219254,FST,77.0,62.1,60.06,160.0,15.0,30.05,1011.9,10.0,,,CLR
2020-08-09 06:00:00,41573.380922,FST,75.0,62.1,64.2,180.0,15.0,30.06,1012.5,10.0,,,CLR
2020-08-09 07:00:00,41222.513574,FST,73.0,63.0,70.87,180.0,10.0,30.08,1013.1,10.0,,,CLR
2020-08-09 08:00:00,41272.184345,FST,73.9,64.0,71.21,170.0,12.0,30.08,1013.3,10.0,,,CLR
2020-08-09 09:00:00,44202.371299,FST,77.0,64.9,66.27,180.0,14.0,30.1,1014.0,10.0,16.0,,CLR
2020-08-09 10:00:00,48874.124242,FST,82.0,64.0,54.5,170.0,15.0,30.11,1014.3,10.0,,83.47,CLR
2020-08-09 11:00:00,53448.716088,FST,87.1,63.0,44.66,180.0,11.0,30.11,1013.8,10.0,,87.96,CLR
2020-08-09 12:00:00,57747.924208,FST,90.0,61.0,37.97,180.0,11.0,30.1,1013.3,10.0,19.0,90.03,CLR
2020-08-09 13:00:00,61420.985126,FST,91.9,60.1,34.65,160.0,11.0,30.09,1012.8,10.0,16.0,91.63,CLR
2020-08-09 14:00:00,64263.705449,FST,96.1,57.0,27.23,170.0,11.0,30.07,1011.9,10.0,16.0,94.94,CLR
2020-08-09 15:00:00,66246.314564,FST,96.1,54.0,24.42,170.0,11.0,30.05,1011.4,10.0,,93.97,CLR
2020-08-09 16:00:00,67563.143866,FST,99.0,55.0,23.18,190.0,13.0,30.03,1010.2,10.0,16.0,97.39,CLR
2020-08-09 17:00:00,68285.166983,FST,98.1,55.0,23.82,170.0,14.0,30.0,1009.7,10.0,21.0,96.41,CLR
2020-08-09 18:00:00,68175.306001,FST,97.0,55.0,24.63,160.0,17.0,29.99,1009.7,10.0,22.0,95.23,CLR
2020-08-09 19:00:00,66777.25283,FST,95.0,55.9,27.06,150.0,18.0,29.98,1009.8,10.0,23.0,93.38,CLR
2020-08-09 20:00:00,64478.03619,FST,93.0,54.0,26.87,140.0,21.0,29.99,1010.0,10.0,23.0,90.76,CLR
2020-08-09 21:00:00,62309.514974,FST,89.1,57.0,33.85,140.0,17.0,30.0,1010.4,10.0,22.0,87.74,FEW
2020-08-09 22:00:00,60298.352437,FST,87.1,57.9,37.25,140.0,15.0,30.01,1010.9,10.0,24.0,86.14,CLR
2020-08-09 23:00:00,56793.502901,FST,84.9,57.9,39.97,140.0,16.0,30.03,1011.3,10.0,22.0,84.21,CLR
2020-08-10 00:00:00,52933.14991,FST,84.0,57.9,41.14,150.0,16.0,30.04,1011.4,10.0,22.0,83.47,CLR
2020-08-10 01:00:00,49522.900126,FST,82.0,59.0,45.66,150.0,17.0,30.03,1011.1,10.0,23.0,82.15,CLR
2020-08-10 02:00:00,46955.940603,FST,80.1,60.1,50.52,160.0,18.0,30.03,1011.0,10.0,22.0,80.94,CLR
2020-08-10 03:00:00,45012.39312,FST,79.0,60.1,52.38,160.0,16.0,30.02,1010.9,10.0,21.0,,CLR
2020-08-10 04:00:00,43917.732684,FST,77.0,60.1,55.95,160.0,17.0,30.02,1010.4,10.0,22.0,,CLR
2020-08-10 05:00:00,43728.148061,FST,75.9,60.1,58.04,160.0,17.0,30.01,1010.4,10.0,21.0,,CLR
2020-08-10 06:00:00,44497.031334,FST,75.0,61.0,61.75,160.0,14.0,30.02,1010.9,10.0,16.0,,CLR
2020-08-10 07:00:00,45825.43331,FST,73.9,61.0,64.07,160.0,14.0,30.02,1011.1,10.0,19.0,,CLR
2020-08-10 08:00:00,46691.236258,FST,73.9,62.1,66.61,160.0,15.0,30.03,1011.6,10.0,,,CLR
2020-08-10 09:00:00,49722.556658,FST,77.0,63.0,62.0,160.0,18.0,30.04,1012.1,10.0,22.0,,CLR
2020-08-10 10:00:00,53770.621291,FST,81.0,63.0,54.36,160.0,17.0,30.05,1012.3,10.0,21.0,82.28,CLR
2020-08-10 11:00:00,57884.485832,FST,87.1,63.0,44.66,150.0,15.0,30.05,1011.9,10.0,19.0,87.96,CLR
2020-08-10 12:00:00,61917.319253,FST,93.9,61.0,33.62,180.0,9.0,30.03,1011.2,10.0,,94.18,CLR
2020-08-10 13:00:00,65529.692706,FST,96.1,62.1,32.66,120.0,12.0,30.02,1010.9,10.0,,97.2,CLR
2020-08-10 14:00:00,68475.669008,FST,99.0,62.1,29.9,120.0,13.0,30.0,1009.9,10.0,19.0,100.56,CLR
2020-08-10 15:00:00,70603.233382,FST,99.0,60.1,27.85,110.0,16.0,29.98,1009.3,10.0,33.0,99.5,CLR
2020-08-10 16:00:00,71441.446609,FST,100.0,60.1,27.02,150.0,13.0,29.96,1008.6,10.0,21.0,100.65,CLR
2020-08-10 17:00:00,71635.701073,FST,100.0,60.1,27.02,150.0,11.0,29.95,1008.6,10.0,19.0,100.65,CLR
2020-08-10 18:00:00,71324.837716,FST,93.9,60.1,33.48,190.0,17.0,29.96,1008.8,10.0,24.0,93.32,CLR
2020-08-10 19:00:00,70156.307015,FST,93.0,57.9,30.95,140.0,14.0,29.95,1008.7,10.0,,91.94,CLR
2020-08-10 20:00:00,67511.359614,FST,91.9,57.0,31.0,150.0,10.0,29.95,1008.9,10.0,,90.5,CLR
2020-08-10 21:00:00,65058.721273,FST,91.0,55.0,29.66,150.0,12.0,29.95,1008.6,10.0,,89.03,CLR
2020-08-10 22:00:00,62725.406007,FST,89.1,55.0,31.49,140.0,13.0,29.95,1008.7,10.0,20.0,87.21,CLR
2020-08-10 23:00:00,58854.569619,FST,87.1,55.9,34.66,150.0,14.0,29.98,1009.4,10.0,15.0,85.61,CLR
2020-08-11 00:00:00,54791.797957,FST,84.9,55.9,37.18,150.0,18.0,29.98,1009.3,10.0,23.0,83.74,CLR
2020-08-11 01:00:00,51396.515029,FST,82.9,55.9,39.66,160.0,15.0,29.99,1009.3,10.0,18.0,82.2,CLR
2020-08-11 02:00:00,48779.511984,FST,80.1,55.0,42.05,150.0,15.0,29.98,1009.0,10.0,,80.17,CLR
2020-08-11 03:00:00,46790.434422,FST,80.1,55.9,43.44,150.0,14.0,29.97,1008.8,10.0,16.0,80.29,CLR
2020-08-11 04:00:00,45428.700191,FST,78.1,55.9,46.4,150.0,14.0,29.97,1008.8,10.0,,,CLR
2020-08-11 05:00:00,44968.20732,FST,77.0,55.9,48.12,160.0,14.0,29.97,1009.0,10.0,,,CLR
2020-08-11 06:00:00,45724.789798,FST,75.9,57.0,51.93,170.0,11.0,29.97,1009.4,10.0,17.0,,CLR
2020-08-11 07:00:00,47121.078421,FST,75.0,57.9,55.28,170.0,13.0,29.98,1010.0,10.0,16.0,,CLR
2020-08-11 08:00:00,47939.921412,FST,73.9,62.1,66.61,140.0,15.0,30.02,1011.0,10.0,21.0,,CLR
2020-08-11 09:00:00,50592.757753,FST,75.9,63.0,64.31,150.0,18.0,30.03,1011.2,10.0,19.0,,CLR
2020-08-11 10:00:00,54519.277603,FST,81.0,63.0,54.36,150.0,18.0,30.02,1011.0,10.0,22.0,82.28,CLR
2020-08-11 11:00:00,58724.914137,FST,87.1,62.1,43.27,160.0,15.0,30.02,1010.6,10.0,,87.58,CLR
2020-08-11 12:00:00,62973.589937,FST,91.4,61.0,37.97,150.0,14.0,30.02,1010.5,10.0,,91.4,CLR
2020-08-11 13:00:00,66696.117862,FST,93.9,60.1,32.56,150.0,14.0,30.01,1010.1,10.0,,93.77,FEW
2020-08-11 14:00:00,69884.366312,FST,98.6,60.1,30.43,150.0,17.0,30.0,1009.5,10.0,20.0,98.52,CLR
2020-08-11 15:00:00,71941.48164,FST,97.0,57.9,27.36,140.0,13.0,29.98,1008.8,10.0,15.0,96.26,FEW
2020-08-11 16:00:00,72592.243783,FST,99.0,59.0,26.78,170.0,14.0,29.96,1008.0,10.0,,98.97,CLR
2020-08-11 17:00:00,72876.84917,FST,100.0,57.9,24.97,160.0,15.0,29.94,1007.4,10.0,18.0,99.61,CLR
2020-08-11 18:00:00,72592.452313,FST,99.0,55.9,23.95,150.0,13.0,29.92,1007.3,10.0,17.0,97.71,CLR
2020-08-11 19:00:00,71597.726182,FST,98.1,54.0,22.97,160.0,15.0,29.92,1007.2,10.0,23.0,96.1,CLR
2020-08-11 20:00:00,68948.050088,FST,96.1,54.0,24.42,150.0,15.0,29.92,1007.6,10.0,18.0,93.97,CLR
2020-08-11 21:00:00,66341.7835,FST,91.9,51.1,24.99,140.0,14.0,29.93,1008.0,10.0,17.0,89.04,CLR
2020-08-11 22:00:00,63864.043483,FST,89.1,52.0,28.21,140.0,12.0,29.94,1008.4,10.0,16.0,86.58,CLR
2020-08-11 23:00:00,59858.094296,FST,87.1,55.0,33.55,150.0,14.0,29.96,1009.0,10.0,20.0,85.4,CLR
2020-08-12 00:00:00,55698.789672,FST,84.9,55.0,35.99,150.0,15.0,29.97,1009.0,10.0,19.0,83.56,CLR
2020-08-12 01:00:00,52121.179457,FST,82.9,55.9,39.66,160.0,17.0,29.97,1009.0,10.0,,82.2,CLR
2020-08-12 02:00:00,49425.23447,FST,82.0,55.9,40.83,180.0,15.0,29.97,1008.9,10.0,18.0,81.55,CLR
2020-08-12 03:00:00,47522.522139,FST,80.1,55.9,43.44,180.0,10.0,29.99,1009.6,10.0,,80.29,CLR
2020-08-12 04:00:00,46294.609576,FST,78.1,57.0,48.28,250.0,5.0,30.0,1010.1,10.0,,,CLR
2020-08-12 05:00:00,45853.785465,FST,77.0,57.9,51.72,240.0,5.0,30.0,1009.9,10.0,,,CLR
2020-08-12 06:00:00,46477.887545,FST,75.9,59.0,55.8,160.0,9.0,30.0,1009.8,10.0,,,CLR
2020-08-12 07:00:00,47686.437259,FST,73.9,60.1,62.05,160.0,11.0,29.99,1010.1,10.0,,,CLR
2020-08-12 08:00:00,48292.116503,FST,75.0,61.0,61.75,150.0,13.0,30.0,1010.5,10.0,17.0,,CLR
2020-08-12 09:00:00,51065.219809,FST,78.1,62.1,57.92,160.0,15.0,30.0,1010.6,10.0,19.0,,CLR
2020-08-12 10:00:00,55227.08305,FST,84.0,61.0,45.96,160.0,16.0,30.01,1010.5,10.0,,84.32,CLR
2020-08-12 11:00:00,59613.65516,FST,89.1,60.1,37.83,160.0,13.0,30.01,1010.4,10.0,,88.76,CLR
2020-08-12 12:00:00,63891.398289,FST,93.9,57.9,30.1,160.0,11.0,30.01,1010.1,10.0,,92.9,CLR
2020-08-12 13:00:00,67731.684075,FST,98.1,54.0,22.97,170.0,10.0,30.0,1009.5,10.0,,96.1,CLR
2020-08-12 14:00:00,71122.025009,FST,100.9,52.0,19.61,290.0,11.0,29.99,1008.7,10.0,,98.48,CLR
2020-08-12 15:00:00,73350.679226,FST,102.0,46.0,15.16,180.0,11.0,29.96,1008.2,10.0,,98.15,CLR
2020-08-12 16:00:00,74045.820769,FST,104.0,41.0,11.79,140.0,11.0,29.95,1007.3,10.0,15.0,98.97,CLR
2020-08-12 17:00:00,74072.382574,FST,104.0,51.1,17.29,140.0,15.0,29.92,1007.0,10.0,20.0,101.47,CLR
2020-08-12 18:00:00,73706.257256,FST,102.9,50.0,17.15,160.0,15.0,29.92,1007.1,10.0,22.0,100.01,FEW
2020-08-12 19:00:00,72536.801615,FST,100.0,51.1,19.49,150.0,16.0,29.92,1007.5,10.0,16.0,97.28,FEW
2020-08-12 20:00:00,69922.197558,FST,97.0,50.0,20.49,140.0,15.0,29.93,1008.0,10.0,20.0,93.91,CLR
2020-08-12 21:00:00,67429.284105,FST,93.0,52.0,24.97,140.0,14.0,29.95,1008.8,10.0,17.0,90.29,CLR
2020-08-12 22:00:00,64892.088848,FST,90.0,52.0,27.42,140.0,14.0,29.97,1009.3,10.0,19.0,87.4,CLR
2020-08-12 23:00:00,60847.090687,FST,88.0,54.0,31.43,140.0,14.0,30.0,1010.0,10.0,21.0,85.98,CLR
2020-08-13 00:00:00,56628.07868,FST,84.9,55.9,37.18,140.0,14.0,30.01,1010.3,10.0,15.0,83.74,CLR
2020-08-13 01:00:00,53020.947197,FST,84.0,57.0,39.83,150.0,17.0,30.01,1010.3,10.0,21.0,83.26,CLR
2020-08-13 02:00:00,50108.113314,FST,82.0,57.0,42.49,160.0,15.0,30.01,1010.1,10.0,21.0,81.75,CLR
2020-08-13 03:00:00,47771.650762,FST,79.0,57.0,46.87,160.0,14.0,30.01,1009.9,10.0,18.0,,CLR
2020-08-13 04:00:00,46340.773114,FST,79.0,57.0,46.87,170.0,10.0,30.0,1009.8,10.0,,,CLR
2020-08-13 05:00:00,45721.94246,FST,77.0,57.0,50.07,170.0,13.0,30.0,1009.5,10.0,,,CLR
2020-08-13 06:00:00,46215.977196,FST,73.9,57.0,55.53,180.0,11.0,29.99,1009.8,10.0,,,CLR
2020-08-13 07:00:00,47355.670584,FST,73.0,55.9,55.0,170.0,9.0,30.0,1010.3,10.0,,,CLR
2020-08-13 08:00:00,47960.339638,FST,71.1,55.9,58.65,210.0,8.0,30.02,1011.2,10.0,,,CLR
2020-08-13 09:00:00,50666.215814,FST,80.1,55.9,43.44,180.0,8.0,30.03,1011.3,10.0,,80.29,CLR
2020-08-13 10:00:00,54859.652949,FST,87.1,57.0,36.07,180.0,8.0,30.04,1011.4,10.0,,85.89,CLR
2020-08-13 11:00:00,59517.043623,FST,91.9,50.0,23.99,230.0,9.0,30.04,1011.3,10.0,,88.84,CLR
2020-08-13 12:00:00,64071.184937,FST,95.0,50.0,21.79,250.0,9.0,30.04,1011.1,10.0,,91.89,CLR
2020-08-13 13:00:00,67977.168835,FST,97.0,51.1,21.35,200.0,9.0,30.03,1010.6,10.0,,94.16,CLR
2020-08-13 14:00:00,71331.8401,FST,100.0,52.0,20.15,130.0,10.0,30.02,1009.8,10.0,,97.53,CLR
2020-08-13 15:00:00,73624.601588,FST,100.9,51.1,18.97,170.0,13.0,29.99,1009.2,10.0,18.0,98.23,CLR
2020-08-13 16:00:00,74153.247286,FST,102.0,48.0,16.35,130.0,15.0,29.97,1008.5,10.0,17.0,98.58,CLR
2020-08-13 17:00:00,74327.836839,FST,102.9,46.9,15.27,170.0,14.0,29.96,1007.9,10.0,18.0,99.23,CLR
2020-08-13 18:00:00,74052.632849,FST,102.0,48.9,16.91,150.0,15.0,29.94,1007.9,10.0,19.0,98.79,CLR
2020-08-13 19:00:00,73006.999924,FST,100.0,50.0,18.71,150.0,16.0,29.93,1008.0,10.0,22.0,97.0,FEW
2020-08-13 20:00:00,70348.300659,FST,97.0,46.9,18.25,150.0,15.0,29.95,1008.9,10.0,18.0,93.33,CLR
2020-08-13 21:00:00,67541.583328,FST,93.0,48.9,22.25,140.0,14.0,29.96,1009.0,10.0,17.0,89.72,CLR
2020-08-13 22:00:00,64680.572443,FST,90.0,50.0,25.46,150.0,13.0,29.98,1009.4,10.0,,87.06,CLR
2020-08-13 23:00:00,60551.75965,FST,87.1,52.0,30.05,150.0,11.0,29.99,1009.5,10.0,17.0,84.82,CLR
2020-08-14 00:00:00,56418.63639,FST,86.0,53.1,32.41,160.0,14.0,29.99,1009.5,10.0,19.0,84.09,CLR
2020-08-14 01:00:00,52778.32023,FST,84.0,53.1,34.56,160.0,16.0,29.99,1009.5,10.0,,82.52,CLR
2020-08-14 02:00:00,49855.941032,FST,82.9,54.0,37.01,170.0,17.0,29.99,1009.5,10.0,21.0,81.87,CLR
2020-08-14 03:00:00,47663.902155,FST,81.0,54.0,39.37,180.0,15.0,29.99,1009.4,10.0,,80.59,CLR
2020-08-14 04:00:00,46143.139464,FST,80.1,54.0,40.54,180.0,11.0,29.98,1008.8,10.0,,80.04,CLR
2020-08-14 05:00:00,45404.251374,FST,77.0,54.0,44.9,180.0,11.0,29.97,1009.1,10.0,,,CLR
2020-08-14 06:00:00,45815.746618,FST,75.9,54.0,46.57,170.0,9.0,29.99,1009.6,10.0,,,CLR
2020-08-14 07:00:00,46872.021859,FST,73.0,53.1,49.66,190.0,7.0,29.99,1010.1,10.0,,,CLR
2020-08-14 08:00:00,47496.966424,FST,75.0,53.1,46.44,220.0,8.0,30.02,1011.0,10.0,,,CLR
2020-08-14 09:00:00,50268.35342,FST,80.1,54.0,40.54,210.0,7.0,30.04,1011.5,10.0,,80.04,CLR
2020-08-14 10:00:00,54345.06,FST,88.0,54.0,31.43,170.0,7.0,30.04,1011.6,10.0,,85.98,CLR
2020-08-14 11:00:00,58864.070405,FST,95.0,48.9,20.92,210.0,9.0,30.05,1011.3,10.0,,91.68,CLR
2020-08-14 12:00:00,63367.660218,FST,97.0,43.0,15.73,270.0,8.0,30.04,1011.1,10.0,,92.79,CLR
2020-08-14 13:00:00,67390.767979,FST,100.0,41.0,13.3,310.0,9.0,30.03,1010.8,10.0,,95.42,CLR
2020-08-14 14:00:00,70783.866044,FST,100.9,43.0,13.98,240.0,7.0,30.02,1010.1,10.0,,96.55,CLR
2020-08-14 15:00:00,73103.760516,FST,102.9,41.0,12.19,220.0,8.0,30.0,1009.2,10.0,,98.0,CLR
2020-08-14 16:00:00,74007.772128,FST,106.0,43.0,12.01,270.0,8.0,29.97,1008.2,10.0,,,CLR
2020-08-14 17:00:00,74294.385153,FST,105.1,39.9,10.94,170.0,10.0,29.95,1007.5,10.0,16.0,99.68,FEW
2020-08-14 18:00:00,74090.507198,FST,102.9,39.9,11.68,210.0,13.0,29.93,1007.2,10.0,,97.75,FEW
2020-08-14 19:00:00,72825.223562,FST,102.9,39.9,11.68,170.0,11.0,29.92,1007.3,10.0,,97.75,FEW
2020-08-14 20:00:00,70065.83967,FST,100.0,42.1,13.87,150.0,13.0,29.92,1007.5,10.0,,95.56,FEW
2020-08-14 21:00:00,67370.395926,FST,96.1,45.0,17.46,150.0,11.0,29.94,1008.1,10.0,,92.17,CLR
2020-08-14 22:00:00,64479.727597,FST,91.9,46.9,21.36,150.0,10.0,29.96,1008.4,10.0,14.0,88.39,CLR
2020-08-14 23:00:00,60636.157067,FST,91.0,48.0,22.9,160.0,11.0,29.97,1008.8,10.0,,87.69,CLR
2020-08-15 00:00:00,56846.169214,FST,90.0,48.9,24.44,150.0,15.0,29.97,1008.6,10.0,22.0,86.9,CLR
2020-08-15 01:00:00,53186.587956,FST,89.1,53.1,29.37,160.0,14.0,29.98,1008.9,10.0,,86.79,CLR
2020-08-15 02:00:00,50153.19488,FST,88.0,53.1,30.41,170.0,13.0,29.98,1008.9,10.0,18.0,85.8,CLR
2020-08-15 03:00:00,47644.672455,FST,89.1,51.1,27.29,190.0,16.0,29.97,1008.2,10.0,,86.42,CLR
2020-08-15 04:00:00,45980.926959,FST,89.1,48.9,25.14,220.0,11.0,29.96,1008.0,10.0,16.0,86.09,FEW
2020-08-15 05:00:00,44909.154646,FST,86.0,50.0,28.9,250.0,11.0,29.98,1008.8,10.0,,83.62,CLR
2020-08-15 06:00:00,44371.888239,FST,80.1,51.1,36.44,180.0,5.0,29.98,1008.9,10.0,,79.72,CLR
2020-08-15 07:00:00,44241.395955,FST,81.0,51.1,35.38,200.0,8.0,30.01,1010.1,10.0,,80.23,CLR
2020-08-15 08:00:00,44252.380603,FST,81.0,51.1,35.38,120.0,9.0,30.04,1011.2,10.0,,80.23,CLR
2020-08-15 09:00:00,46968.609478,FST,82.9,51.1,33.27,160.0,9.0,30.05,1011.5,10.0,,81.45,CLR
2020-08-15 10:00:00,51220.929756,FST,84.9,51.1,31.19,160.0,10.0,30.06,1012.2,10.0,,82.9,CLR
2020-08-15 11:00:00,55911.85479,FST,87.1,52.0,30.05,170.0,10.0,30.07,1012.6,10.0,,84.82,FEW
2020-08-15 12:00:00,60494.719722,FST,95.0,48.0,20.22,180.0,11.0,30.08,1012.3,10.0,,91.53,CLR
2020-08-15 13:00:00,64685.115987,FST,95.0,48.9,20.92,110.0,11.0,30.08,1012.4,10.0,,91.68,CLR
2020-08-15 14:00:00,68046.717322,FST,96.1,48.0,19.55,160.0,11.0,30.07,1011.9,10.0,,92.62,FEW
2020-08-15 15:00:00,70488.360558,FST,99.0,46.9,17.17,180.0,7.0,30.05,1011.0,10.0,,95.33,CLR
2020-08-15 16:00:00,72189.46078,FST,99.0,46.9,17.17,200.0,9.0,30.04,1010.3,10.0,,95.33,CLR
2020-08-15 17:00:00,73356.679451,FST,99.0,45.0,15.98,230.0,11.0,30.01,1009.7,10.0,15.0,95.0,CLR
2020-08-15 18:00:00,73808.148937,FST,100.0,46.0,16.1,170.0,10.0,30.0,1009.4,10.0,,96.16,CLR
2020-08-15 19:00:00,72575.958849,FST,99.0,46.0,16.6,170.0,9.0,29.98,1009.1,10.0,,95.17,CLR
2020-08-15 20:00:00,69668.682923,FST,97.0,46.0,17.64,160.0,8.0,29.98,1009.3,10.0,,93.19,CLR
2020-08-15 21:00:00,66982.358099,FST,93.9,46.0,19.4,140.0,6.0,30.0,1010.1,10.0,,90.17,CLR
2020-08-15 22:00:00,63975.729512,FST,91.0,46.0,21.24,150.0,8.0,30.03,1011.1,10.0,,87.45,CLR
2020-08-15 23:00:00,60322.721314,FST,86.0,46.9,25.74,160.0,8.0,30.04,1011.7,10.0,,83.27,CLR
2020-08-16 00:00:00,56687.721071,FST,89.1,48.9,25.14,160.0,11.0,30.06,1011.8,10.0,,86.09,CLR
2020-08-16 01:00:00,53278.019622,FST,86.0,55.0,34.74,140.0,21.0,30.09,1013.0,10.0,26.0,84.46,CLR
2020-08-16 02:00:00,50317.727286,FST,82.9,52.0,34.39,150.0,17.0,30.09,1013.1,10.0,22.0,81.57,CLR
2020-08-16 03:00:00,47897.445552,FST,81.0,52.0,36.58,160.0,14.0,30.09,1012.8,10.0,19.0,80.34,CLR
2020-08-16 04:00:00,45964.011519,FST,79.0,52.0,39.06,180.0,11.0,30.08,1012.3,10.0,,,CLR
2020-08-16 05:00:00,44488.386139,FST,77.0,52.0,41.72,340.0,11.0,30.09,1013.1,10.0,,,CLR
2020-08-16 06:00:00,43572.181482,FST,75.9,52.0,43.28,50.0,11.0,30.12,1013.9,10.0,,,CLR
2020-08-16 07:00:00,42943.194851,FST,73.9,52.0,46.27,100.0,5.0,30.13,1014.6,10.0,,,CLR
2020-08-16 08:00:00,42691.60146,FST,75.0,53.1,46.44,120.0,7.0,30.14,1015.3,10.0,,,CLR
2020-08-16 09:00:00,45191.969657,FST,81.0,55.9,42.19,140.0,11.0,30.16,1015.7,10.0,,80.87,CLR
2020-08-16 10:00:00,49466.135333,FST,82.0,55.9,40.83,150.0,13.0,30.16,1015.9,10.0,,81.55,CLR
2020-08-16 11:00:00,54479.613374,FST,88.0,57.0,35.05,140.0,10.0,30.17,1016.0,10.0,,86.71,CLR
2020-08-16 12:00:00,59621.936115,FST,91.9,55.9,29.8,360.0,8.0,30.17,1015.6,10.0,,90.17,CLR
2020-08-16 13:00:00,64392.240089,FST,93.9,55.0,27.1,170.0,10.0,30.16,1015.1,10.0,,91.95,CLR
2020-08-16 14:00:00,68050.691894,FST,95.0,54.0,25.26,140.0,11.0,30.15,1014.7,10.0,,92.82,CLR
2020-08-16 15:00:00,70576.823094,FST,97.0,52.0,22.07,140.0,13.0,30.13,1014.1,10.0,16.0,94.38,CLR
2020-08-16 16:00:00,72374.866785,FST,97.0,50.0,20.49,120.0,13.0,30.12,1013.4,10.0,15.0,93.91,SCT
2020-08-16 17:00:00,73330.267802,FST,99.0,46.0,16.6,130.0,17.0,30.09,1012.6,10.0,22.0,95.17,CLR
2020-08-16 18:00:00,73503.493826,FST,99.0,45.0,15.98,140.0,15.0,30.07,1012.0,10.0,,95.0,CLR
2020-08-16 19:00:00,71060.761405,FST,95.0,46.9,19.4,140.0,13.0,30.06,1012.1,10.0,,91.36,SCT
2020-08-16 20:00:00,66339.882632,FST,93.0,50.0,23.18,150.0,11.0,30.06,1012.5,10.0,,89.9,CLR
2020-08-16 21:00:00,63186.369911,FST,91.0,46.9,21.97,130.0,11.0,30.08,1012.9,10.0,,87.55,CLR
2020-08-16 22:00:00,60073.946418,FST,86.0,54.0,33.5,140.0,14.0,30.11,1014.2,10.0,18.0,84.26,CLR
2020-08-16 23:00:00,55957.136186,FST,84.9,53.1,33.57,200.0,9.0,30.13,1014.5,10.0,,83.21,CLR
2020-08-17 00:00:00,51673.799485,FST,82.9,53.1,35.81,160.0,5.0,30.14,1015.1,10.0,,81.73,CLR
2020-08-17 01:00:00,48223.183228,FST,81.0,53.1,38.09,140.0,5.0,30.15,1015.4,10.0,,80.47,CLR
2020-08-17 02:00:00,45504.822158,FST,80.1,57.0,45.21,100.0,23.0,30.19,1016.8,10.0,29.0,80.45,CLR
2020-08-17 03:00:00,43472.546449,FST,75.9,55.9,49.91,110.0,22.0,30.2,1017.1,10.0,27.0,,CLR
2020-08-17 04:00:00,41765.541408,FST,75.0,57.0,53.52,120.0,21.0,30.2,1016.8,10.0,22.0,,CLR
2020-08-17 05:00:00,40871.36078,FST,73.9,57.9,57.36,140.0,16.0,30.2,1017.0,10.0,23.0,,CLR
2020-08-17 06:00:00,41388.227726,FST,75.0,57.9,55.28,150.0,15.0,30.21,1017.3,10.0,18.0,,CLR
2020-08-17 07:00:00,42789.086134,FST,73.9,57.9,57.36,150.0,11.0,30.2,1017.4,10.0,14.0,,CLR
2020-08-17 08:00:00,43617.002409,FST,73.9,57.9,59.12,170.0,11.0,30.21,1017.4,10.0,,,CLR
2020-08-17 09:00:00,45211.059192,FST,75.0,57.9,55.28,160.0,9.0,30.25,1019.0,10.0,,,CLR
2020-08-17 10:00:00,47841.988329,FST,78.1,59.0,51.88,130.0,13.0,30.27,1019.9,10.0,,,CLR
2020-08-17 11:00:00,51026.409851,FST,82.0,59.0,45.66,130.0,11.0,30.28,1020.0,10.0,,82.15,CLR
2020-08-17 12:00:00,54415.439737,FST,84.9,59.0,41.58,140.0,9.0,30.27,1019.6,10.0,,84.51,CLR
2020-08-17 13:00:00,57845.523802,FST,87.1,59.0,38.75,190.0,5.0,30.26,1018.9,10.0,,86.47,CLR
2020-08-17 14:00:00,61113.773522,FST,89.1,57.9,34.97,150.0,7.0,30.24,1018.3,10.0,,,CLR
2020-08-17 15:00:00,63817.058857,FST,89.1,57.0,33.85,100.0,10.0,30.23,1017.9,10.0,,87.74,CLR
2020-08-17 16:00:00,65810.474491,FST,91.0,57.9,32.94,80.0,12.0,30.21,1016.9,10.0,17.0,89.88,CLR
2020-08-17 17:00:00,66921.354887,FST,93.0,57.9,30.95,70.0,15.0,30.18,1016.0,10.0,20.0,91.94,CLR
2020-08-17 18:00:00,66767.965193,FST,91.9,54.0,27.8,70.0,13.0,30.17,1016.3,10.0,17.0,89.66,CLR
2020-08-17 19:00:00,65201.827672,FST,90.0,57.0,32.91,100.0,15.0,30.17,1015.9,10.0,19.0,88.61,CLR
2020-08-17 20:00:00,62247.050349,FST,88.0,55.9,33.68,100.0,11.0,30.16,1016.2,10.0,15.0,86.42,FEW
2020-08-17 21:00:00,60052.810245,FST,86.0,54.0,33.5,100.0,5.0,30.17,1016.6,10.0,,84.26,CLR
2020-08-17 22:00:00,57242.928922,FST,82.9,52.0,34.39,110.0,2.0,30.17,1016.7,10.0,,81.57,FEW
2020-08-17 23:00:00,53170.461501,FST,82.0,55.0,39.52,220.0,12.0,30.2,1017.5,10.0,16.0,81.4,FEW
2020-08-18 00:00:00,49118.928014,FST,77.0,55.9,48.12,210.0,7.0,30.2,1017.2,10.0,,,BKN
2020-08-18 01:00:00,45772.400628,FST,75.0,55.9,51.43,190.0,6.0,30.2,1017.7,10.0,,,CLR
2020-08-18 02:00:00,43279.166862,FST,73.9,57.0,55.53,180.0,7.0,30.2,1017.4,10.0,,,CLR
2020-08-18 03:00:00,41579.623967,FST,72.0,57.0,59.2,180.0,7.0,30.2,1017.4,10.0,,,CLR
2020-08-18 04:00:00,40447.076751,FST,72.0,55.9,56.89,210.0,5.0,30.19,1017.2,10.0,,,CLR
2020-08-18 05:00:00,40208.204007,FST,72.0,57.0,59.2,230.0,9.0,30.19,1016.7,10.0,,,CLR
2020-08-18 06:00:00,41040.979459,FST,71.1,57.0,61.04,220.0,9.0,30.18,1016.6,10.0,,,CLR
2020-08-18 07:00:00,42535.626471,FST,69.1,55.9,62.8,230.0,8.0,30.18,1017.1,10.0,,,CLR
2020-08-18 08:00:00,43311.669153,FST,70.0,55.9,60.89,230.0,9.0,30.2,1017.7,10.0,,,CLR
2020-08-18 09:00:00,45781.974959,FST,73.9,55.9,53.36,250.0,8.0,30.21,1018.1,10.0,,,CLR
2020-08-18 10:00:00,49687.474147,FST,79.0,55.9,45.04,300.0,7.0,30.23,1018.5,10.0,,,CLR
2020-08-18 11:00:00,54305.759473,FST,82.9,55.9,39.66,360.0,5.0,30.23,1018.3,10.0,,82.2,CLR
2020-08-18 12:00:00,58860.515888,FST,88.0,55.9,33.68,360.0,7.0,30.22,1018.0,10.0,,86.42,CLR
2020-08-18 13:00:00,62938.794285,FST,89.1,54.0,30.36,340.0,10.0,30.21,1017.3,10.0,16.0,86.98,CLR
2020-08-18 14:00:00,66215.183174,FST,90.0,54.0,29.51,160.0,11.0,30.19,1016.5,10.0,,87.82,FEW
2020-08-18 15:00:00,68490.535443,FST,91.9,53.1,26.9,110.0,11.0,30.17,1015.7,10.0,,89.45,FEW
2020-08-18 16:00:00,69622.276573,FST,93.0,53.1,26.0,120.0,11.0,30.14,1014.3,10.0,16.0,90.54,CLR
2020-08-18 17:00:00,69997.476017,FST,93.9,53.1,25.28,120.0,13.0,30.1,1013.2,10.0,,91.45,CLR
2020-08-18 18:00:00,69128.630347,FST,91.9,51.1,24.99,130.0,11.0,30.08,1012.6,10.0,,89.04,SCT
2020-08-18 19:00:00,66526.100588,FST,93.0,48.9,22.25,360.0,10.0,30.05,1012.1,10.0,,89.72,FEW
2020-08-18 20:00:00,63249.862797,FST,91.9,48.9,23.03,70.0,10.0,30.04,1012.1,10.0,,88.66,CLR
2020-08-18 21:00:00,60604.535971,FST,87.1,48.0,25.9,100.0,8.0,30.06,1012.8,10.0,,84.27,CLR
2020-08-18 22:00:00,57442.724168,FST,86.0,52.0,31.13,150.0,5.0,30.07,1012.8,10.0,,83.91,BKN
2020-08-18 23:00:00,53225.881412,FST,84.0,52.0,33.19,180.0,7.0,30.08,1013.1,10.0,,82.36,FEW
2020-08-19 00:00:00,48962.603625,FST,80.1,52.0,37.67,190.0,5.0,30.09,1013.6,10.0,,79.81,SCT
2020-08-19 01:00:00,45314.5996,FST,78.1,55.0,44.9,180.0,9.0,30.09,1013.5,10.0,,,BKN
2020-08-19 02:00:00,42470.960379,FST,75.9,55.0,48.3,200.0,7.0,30.08,1013.2,10.0,,,CLR
2020-08-19 03:00:00,40476.359541,FST,73.0,55.0,53.23,210.0,7.0,30.08,1012.9,10.0,,,CLR
2020-08-19 04:00:00,39109.64887,FST,75.0,54.0,47.99,220.0,10.0,30.07,1012.5,10.0,,,CLR
2020-08-19 05:00:00,38635.143046,FST,73.9,54.0,49.79,220.0,9.0,30.06,1012.4,10.0,,,CLR
2020-08-19 06:00:00,39348.558033,FST,73.9,54.0,49.79,220.0,9.0,30.05,1012.3,10.0,,,CLR
2020-08-19 07:00:00,40710.908265,FST,73.0,55.0,53.23,220.0,9.0,30.06,1012.6,10.0,,,CLR
2020-08-19 08:00:00,41518.451861,FST,73.0,54.0,51.33,200.0,7.0,30.08,1013.2,10.0,,,CLR
2020-08-19 09:00:00,44040.230656,FST,78.1,55.0,44.9,180.0,7.0,30.1,1013.9,10.0,,,CLR
2020-08-19 10:00:00,47680.269805,FST,82.0,54.0,38.11,250.0,5.0,30.11,1014.2,10.0,,81.24,CLR
2020-08-19 11:00:00,51998.787574,FST,86.0,54.0,33.5,260.0,4.0,30.11,1014.0,10.0,,84.26,CLR
2020-08-19 12:00:00,56496.66473,FST,90.0,54.0,29.51,190.0,5.0,30.11,1013.8,10.0,,87.82,CLR
2020-08-19 13:00:00,60517.652151,FST,91.0,53.1,27.67,260.0,7.0,30.09,1012.9,10.0,,88.57,CLR
2020-08-19 14:00:00,63779.245688,FST,93.9,51.1,23.48,120.0,10.0,30.07,1012.3,10.0,,91.0,CLR
2020-08-19 15:00:00,66268.191672,FST,95.0,51.1,22.7,360.0,10.0,30.05,1011.4,10.0,15.0,92.11,FEW
2020-08-19 16:00:00,67929.876762,FST,96.1,48.9,20.22,360.0,15.0,30.02,1010.3,10.0,,92.78,FEW
2020-08-19 17:00:00,68539.250175,FST,97.0,48.9,19.67,360.0,15.0,29.99,1009.6,10.0,18.0,93.69,CLR
2020-08-19 18:00:00,68080.557418,FST,96.1,48.9,20.22,140.0,14.0,29.97,1009.0,10.0,17.0,92.78,CLR
2020-08-19 19:00:00,66092.580058,FST,93.9,48.9,21.64,180.0,15.0,29.96,1008.8,10.0,16.0,90.59,FEW
2020-08-19 20:00:00,62661.419352,FST,93.0,48.9,22.25,150.0,12.0,29.95,1008.8,10.0,,89.72,CLR
2020-08-19 21:00:00,59780.673701,FST,91.0,48.9,23.68,140.0,10.0,29.97,1009.4,10.0,,87.82,FEW
2020-08-19 22:00:00,56495.166313,FST,86.0,48.9,27.74,170.0,8.0,29.99,1010.1,10.0,,83.48,CLR
2020-08-19 23:00:00,52038.180477,FST,84.0,48.0,28.6,180.0,9.0,30.0,1010.6,10.0,,81.87,CLR
2020-08-20 00:00:00,47696.986643,FST,82.9,46.9,28.43,200.0,10.0,30.01,1010.6,10.0,,81.01,CLR
2020-08-20 01:00:00,43948.686949,FST,82.0,46.0,28.3,210.0,11.0,30.01,1010.3,10.0,,80.36,CLR
2020-08-20 02:00:00,41287.351961,FST,81.0,44.1,27.2,200.0,10.0,30.0,1009.8,10.0,,79.62,CLR
2020-08-20 03:00:00,39420.273193,FST,79.0,42.1,26.89,190.0,9.0,29.99,1009.4,10.0,,,CLR
2020-08-20 04:00:00,38203.122313,FST,77.0,41.0,27.53,230.0,9.0,29.98,1009.3,10.0,,,CLR
2020-08-20 05:00:00,37800.213621,FST,75.0,43.0,31.79,220.0,13.0,29.97,1008.8,10.0,,,CLR
2020-08-20 06:00:00,38666.220541,FST,73.9,44.1,34.4,220.0,10.0,29.97,1009.2,10.0,,,CLR
2020-08-20 07:00:00,40268.683837,FST,71.1,42.1,35.02,170.0,9.0,29.97,1009.5,10.0,,,CLR
2020-08-20 08:00:00,41225.879419,FST,71.1,43.0,36.25,170.0,8.0,29.98,1009.9,10.0,,,CLR
2020-08-20 09:00:00,43726.699918,FST,78.1,45.0,30.95,170.0,8.0,29.99,1009.8,10.0,,,CLR
2020-08-20 10:00:00,47307.281975,FST,86.0,46.0,24.88,220.0,8.0,29.98,1009.5,10.0,,83.19,CLR
2020-08-20 11:00:00,51685.015154,FST,91.0,48.9,23.68,230.0,8.0,29.97,1008.9,10.0,,87.82,CLR
2020-08-20 12:00:00,56252.470893,FST,93.9,48.9,21.64,200.0,7.0,29.96,1008.4,10.0,,90.59,CLR
2020-08-20 13:00:00,60168.147648,FST,96.1,46.9,18.76,340.0,7.0,29.95,1007.4,10.0,,92.44,CLR
2020-08-20 14:00:00,63429.464499,FST,99.0,48.0,17.9,250.0,10.0,29.92,1006.3,10.0,,,CLR
2020-08-20 15:00:00,65949.933839,FST,98.1,46.0,17.06,290.0,8.0,29.89,1005.9,10.0,,94.28,CLR
2020-08-20 16:00:00,67662.490848,FST,100.0,46.0,16.1,300.0,11.0,29.87,1005.2,10.0,,96.16,FEW
2020-08-20 17:00:00,68035.102187,FST,100.0,45.0,15.5,330.0,5.0,29.86,1004.5,10.0,,95.99,CLR
2020-08-20 18:00:00,67239.134098,FST,100.0,46.0,16.1,310.0,11.0,29.83,1003.8,10.0,19.0,96.16,CLR
2020-08-20 19:00:00,65072.805912,FST,98.1,46.0,17.06,140.0,13.0,29.81,1003.8,10.0,,94.28,CLR
2020-08-20 20:00:00,61850.665543,FST,95.0,46.9,19.4,150.0,13.0,29.81,1003.7,10.0,20.0,91.36,FEW
2020-08-20 21:00:00,59452.165625,FST,93.0,46.9,20.64,150.0,14.0,29.82,1004.1,10.0,16.0,89.43,CLR
2020-08-20 22:00:00,56534.561751,FST,89.1,50.0,26.19,140.0,16.0,29.84,1004.7,10.0,21.0,86.25,CLR
2020-08-20 23:00:00,52395.428528,FST,86.0,48.9,27.74,140.0,15.0,29.87,1005.4,10.0,18.0,83.48,CLR
2020-08-21 00:00:00,48247.53756,FST,82.0,55.9,40.83,150.0,18.0,29.88,1005.9,10.0,23.0,81.55,CLR
2020-08-21 01:00:00,44775.166679,FST,80.1,55.9,43.44,160.0,22.0,29.88,1005.6,10.0,27.0,80.29,CLR
2020-08-21 02:00:00,42188.831905,FST,78.1,55.9,46.4,160.0,22.0,29.87,1005.3,10.0,28.0,,CLR
2020-08-21 03:00:00,40278.204303,FST,78.1,55.9,46.4,150.0,17.0,29.86,1005.5,10.0,17.0,,CLR
2020-08-21 04:00:00,39140.523953,FST,77.0,55.9,48.12,160.0,15.0,29.86,1005.3,10.0,21.0,,CLR
2020-08-21 05:00:00,38812.50404,FST,75.0,55.9,51.43,160.0,11.0,29.87,1005.8,10.0,,,CLR
2020-08-21 06:00:00,39532.564167,FST,73.0,57.0,57.23,150.0,10.0,29.87,1005.7,10.0,,,CLR
2020-08-21 07:00:00,41042.760426,FST,73.0,57.0,57.23,160.0,14.0,29.89,1006.4,10.0,19.0,,CLR
2020-08-21 08:00:00,42002.308234,FST,72.0,57.0,59.2,180.0,13.0,29.9,1006.8,10.0,17.0,,CLR
2020-08-21 09:00:00,44516.038878,FST,77.0,55.9,48.12,200.0,10.0,29.93,1007.9,10.0,,,CLR
2020-08-21 10:00:00,48304.861956,FST,79.0,55.9,45.04,230.0,14.0,29.93,1007.7,10.0,,,CLR
2020-08-21 11:00:00,52635.571801,FST,82.9,57.0,41.27,260.0,11.0,29.93,1008.0,10.0,,82.41,CLR
2020-08-21 12:00:00,56928.809794,FST,84.9,55.9,37.18,360.0,5.0,29.93,1007.9,10.0,,83.74,CLR
2020-08-21 13:00:00,60873.925421,FST,88.0,55.9,33.68,360.0,7.0,29.92,1007.7,10.0,,86.42,CLR
2020-08-21 14:00:00,64198.663764,FST,91.9,55.9,29.8,360.0,5.0,29.92,1006.9,10.0,,90.17,CLR
2020-08-21 15:00:00,66706.566648,FST,96.1,54.0,24.42,360.0,5.0,29.89,1005.8,10.0,,93.97,CLR
2020-08-21 16:00:00,68107.75512,FST,100.0,53.1,20.98,340.0,12.0,29.87,1004.6,10.0,,97.85,CLR
2020-08-21 17:00:00,67980.008971,FST,100.0,53.1,20.98,140.0,14.0,29.83,1004.3,10.0,18.0,97.85,CLR
2020-08-21 18:00:00,66627.296377,FST,99.0,52.0,20.77,130.0,16.0,29.83,1004.2,10.0,21.0,96.47,CLR
2020-08-21 19:00:00,64327.115278,FST,97.0,52.0,22.07,150.0,14.0,29.82,1004.3,10.0,19.0,94.38,CLR
2020-08-21 20:00:00,61117.87553,FST,95.0,51.1,22.7,130.0,15.0,29.83,1004.6,10.0,17.0,92.11,CLR
2020-08-21 21:00:00,58860.243616,FST,91.9,52.0,25.84,130.0,17.0,29.85,1005.4,10.0,,89.21,CLR
2020-08-21 22:00:00,56216.628477,FST,89.1,53.1,29.37,130.0,13.0,29.87,1006.2,10.0,18.0,86.79,CLR
2020-08-21 23:00:00,52715.922917,FST,87.1,53.1,31.3,130.0,14.0,29.9,1006.9,10.0,19.0,85.01,CLR
2020-08-22 00:00:00,49302.045988,FST,84.9,55.0,35.99,140.0,13.0,29.9,1006.8,10.0,18.0,83.56,CLR
2020-08-22 01:00:00,46116.357737,FST,84.0,55.0,37.05,140.0,13.0,29.91,1007.1,10.0,19.0,82.85,CLR
2020-08-22 02:00:00,43694.123166,FST,82.9,55.0,38.38,140.0,11.0,29.91,1006.7,10.0,16.0,82.03,CLR
2020-08-22 03:00:00,41748.120847,FST,81.0,55.0,40.83,150.0,11.0,29.9,1006.3,10.0,,80.73,CLR
2020-08-22 04:00:00,40327.541488,FST,80.1,55.0,42.05,160.0,11.0,29.89,1006.2,10.0,,80.17,CLR
2020-08-22 05:00:00,39469.224012,FST,78.1,55.0,44.9,170.0,10.0,29.89,1006.4,10.0,,,CLR
2020-08-22 06:00:00,39264.401068,FST,78.1,54.0,43.3,210.0,8.0,29.92,1007.1,10.0,,,CLR
2020-08-22 07:00:00,39368.959273,FST,75.9,54.0,46.57,170.0,9.0,29.93,1007.6,10.0,,,CLR
2020-08-22 08:00:00,39456.039659,FST,75.0,54.0,47.99,180.0,9.0,29.94,1008.5,10.0,,,CLR
2020-08-22 09:00:00,41754.588944,FST,78.1,54.0,43.3,200.0,7.0,29.96,1008.9,10.0,,,CLR
2020-08-22 10:00:00,45115.764993,FST,84.0,55.9,38.28,210.0,8.0,29.96,1008.9,10.0,,83.03,CLR
2020-08-22 11:00:00,48689.453672,FST,87.1,55.9,34.66,240.0,8.0,29.97,1009.1,10.0,,85.61,CLR
2020-08-22 12:00:00,52099.048367,FST,91.0,55.9,30.65,340.0,9.0,29.97,1009.1,10.0,,89.27,CLR
2020-08-22 13:00:00,55290.912855,FST,95.0,54.0,25.26,350.0,8.0,29.97,1008.9,10.0,,92.82,CLR
2020-08-22 14:00:00,57876.191059,FST,96.1,55.9,26.16,150.0,22.0,29.97,1008.6,10.0,24.0,94.55,CLR
2020-08-22 15:00:00,59795.652371,FST,95.0,55.0,26.19,150.0,15.0,29.96,1008.5,10.0,16.0,93.1,CLR
2020-08-22 16:00:00,60946.5569,FST,97.0,55.0,24.63,160.0,15.0,29.95,1007.8,10.0,21.0,95.23,CLR
2020-08-22 17:00:00,61399.735667,FST,96.1,54.0,24.42,140.0,18.0,29.93,1007.5,10.0,24.0,93.97,CLR
2020-08-22 18:00:00,60891.310964,FST,95.0,54.0,25.26,140.0,16.0,29.92,1007.4,10.0,20.0,92.82,CLR
2020-08-22 19:00:00,59485.361265,FST,93.0,54.0,26.87,140.0,18.0,29.92,1007.5,10.0,21.0,90.76,CLR
2020-08-22 20:00:00,56855.263195,FST,91.0,55.0,29.66,140.0,16.0,29.92,1007.8,10.0,20.0,89.03,CLR
2020-08-22 21:00:00,54735.603755,FST,88.0,55.9,33.68,140.0,13.0,29.93,1008.3,10.0,20.0,86.42,CLR
2020-08-22 22:00:00,52311.091262,FST,86.0,55.9,35.9,150.0,13.0,29.96,1009.0,10.0,15.0,84.66,CLR
2020-08-22 23:00:00,49206.447666,FST,84.0,55.9,38.28,150.0,12.0,29.98,1009.6,10.0,17.0,83.03,CLR
2020-08-23 00:00:00,46068.501945,FST,82.9,55.9,39.66,150.0,14.0,29.98,1009.5,10.0,,82.2,CLR
2020-08-23 01:00:00,43187.281227,FST,81.0,55.9,42.19,160.0,11.0,29.98,1009.5,10.0,,80.87,CLR
2020-08-23 02:00:00,40798.014182,FST,80.1,57.0,45.21,180.0,11.0,29.98,1009.3,10.0,,80.45,CLR
2020-08-23 03:00:00,39112.041774,FST,78.1,57.0,48.28,170.0,10.0,29.98,1009.5,10.0,,,CLR
2020-08-23 04:00:00,37801.21154,FST,75.9,55.9,49.91,180.0,8.0,29.98,1009.5,10.0,,,CLR
2020-08-23 05:00:00,36875.214285,FST,75.9,59.0,55.8,160.0,9.0,29.98,1009.6,10.0,,,CLR
2020-08-23 06:00:00,36448.11758,FST,75.0,60.1,59.81,160.0,9.0,30.0,1010.4,10.0,,,CLR
2020-08-23 07:00:00,36368.985442,FST,73.0,59.0,61.5,160.0,10.0,30.01,1010.8,10.0,,,CLR
2020-08-23 08:00:00,36354.791321,FST,73.0,57.9,59.12,150.0,11.0,30.03,1011.5,10.0,,,CLR
2020-08-23 09:00:00,38878.636937,FST,73.9,57.9,57.36,160.0,13.0,30.05,1012.3,10.0,16.0,,CLR
2020-08-23 10:00:00,43200.90478,FST,79.0,57.9,48.41,150.0,13.0,30.06,1012.6,10.0,,,CLR
2020-08-23 11:00:00,48089.265151,FST,84.9,57.9,39.97,150.0,10.0,30.07,1012.8,10.0,,84.21,CLR
2020-08-23 12:00:00,52855.523839,FST,89.1,57.9,34.97,140.0,10.0,30.07,1012.6,10.0,,88.01,CLR
2020-08-23 13:00:00,56856.799493,FST,91.9,55.0,28.84,130.0,11.0,30.06,1012.0,10.0,16.0,89.92,CLR
2020-08-23 14:00:00,59969.063885,FST,93.0,55.0,27.87,130.0,14.0,30.05,1011.3,10.0,18.0,91.03,CLR
2020-08-23 15:00:00,62312.260423,FST,95.0,54.0,25.26,140.0,17.0,30.03,1010.9,10.0,20.0,92.82,FEW
2020-08-23 16:00:00,64062.591611,FST,93.9,54.0,26.13,130.0,15.0,30.02,1010.4,10.0,16.0,91.68,CLR
2020-08-23 17:00:00,65044.829432,FST,95.0,52.0,23.47,130.0,15.0,30.0,1009.9,10.0,19.0,92.31,CLR
2020-08-23 18:00:00,65324.675355,FST,95.0,52.0,23.47,120.0,15.0,29.98,1009.5,10.0,20.0,92.31,CLR
2020-08-23 19:00:00,64135.094195,FST,93.0,52.0,24.97,120.0,15.0,29.97,1009.5,10.0,16.0,90.29,FEW
2020-08-23 20:00:00,61516.63152,FST,91.0,53.1,27.67,130.0,13.0,29.97,1009.7,10.0,18.0,88.57,SCT
2020-08-23 21:00:00,59407.407113,FST,89.1,52.0,28.21,130.0,11.0,29.99,1010.4,10.0,,86.58,CLR
2020-08-23 22:00:00,56699.11776,FST,86.0,53.1,32.41,140.0,9.0,30.01,1010.9,10.0,,84.09,CLR
2020-08-23 23:00:00,52764.733037,FST,82.9,54.0,37.01,150.0,9.0,30.03,1011.7,10.0,,81.87,CLR
2020-08-24 00:00:00,48719.964246,FST,80.1,54.0,40.54,160.0,5.0,30.04,1011.9,10.0,,80.04,CLR
2020-08-24 01:00:00,45304.506079,FST,77.0,54.0,44.9,170.0,7.0,30.05,1012.3,10.0,,,CLR
2020-08-24 02:00:00,42788.447443,FST,75.9,54.0,46.57,150.0,8.0,30.05,1012.3,10.0,,,CLR
2020-08-24 03:00:00,41057.992697,FST,77.0,54.0,44.9,150.0,13.0,30.06,1012.4,10.0,19.0,,CLR
2020-08-24 04:00:00,39972.170862,FST,75.0,55.0,49.78,160.0,14.0,30.06,1012.3,10.0,16.0,,CLR
2020-08-24 05:00:00,39677.079452,FST,73.9,55.9,53.36,160.0,11.0,30.06,1012.1,10.0,,,CLR
2020-08-24 06:00:00,40499.139626,FST,73.0,57.0,57.23,160.0,11.0,30.06,1012.5,10.0,,,CLR
2020-08-24 07:00:00,42111.210287,FST,71.1,57.0,61.04,160.0,10.0,30.07,1012.9,10.0,,,CLR
2020-08-24 08:00:00,43114.90225,FST,70.0,57.0,63.37,170.0,10.0,30.09,1013.8,10.0,,,CLR
2020-08-24 09:00:00,45585.969058,FST,73.9,57.9,57.36,170.0,9.0,30.12,1014.6,10.0,,,CLR
2020-08-24 10:00:00,49035.475568,FST,80.1,57.9,46.7,170.0,11.0,30.13,1015.0,10.0,,80.58,CLR
2020-08-24 11:00:00,53144.510347,FST,84.0,57.0,39.83,160.0,11.0,30.13,1015.0,10.0,,83.26,CLR
2020-08-24 12:00:00,57542.919468,FST,86.0,51.1,30.11,150.0,14.0,30.13,1015.0,10.0,19.0,83.77,CLR
2020-08-24 13:00:00,60993.477868,FST,88.0,51.1,28.25,140.0,18.0,30.13,1014.5,10.0,16.0,85.45,CLR
2020-08-24 14:00:00,63463.012364,FST,89.1,50.0,26.19,130.0,15.0,30.12,1013.9,10.0,21.0,86.25,CLR
2020-08-24 15:00:00,65377.036073,FST,90.0,48.0,23.63,130.0,18.0,30.09,1013.0,10.0,22.0,86.78,CLR
2020-08-24 16:00:00,66848.068847,FST,91.0,48.9,23.68,140.0,15.0,30.07,1012.2,10.0,21.0,87.82,CLR
2020-08-24 17:00:00,67576.301276,FST,91.0,50.0,24.68,160.0,18.0,30.05,1011.8,10.0,22.0,87.99,CLR
2020-08-24 18:00:00,67276.373315,FST,91.0,50.0,24.68,150.0,16.0,30.04,1011.6,10.0,21.0,87.99,CLR
2020-08-24 19:00:00,65610.964467,FST,90.0,48.9,24.44,160.0,16.0,30.03,1011.4,10.0,21.0,86.9,FEW
2020-08-24 20:00:00,62609.864481,FST,88.0,50.0,27.12,140.0,11.0,30.02,1011.6,10.0,,85.28,CLR
2020-08-24 21:00:00,60224.88225,FST,84.9,53.1,33.57,140.0,10.0,30.02,1011.6,10.0,14.0,83.21,CLR
2020-08-24 22:00:00,57033.320032,FST,82.0,55.0,39.52,150.0,11.0,30.05,1012.4,10.0,20.0,81.4,CLR
2020-08-24 23:00:00,52735.106339,FST,79.0,55.0,43.59,160.0,11.0,30.07,1013.0,10.0,,,CLR
2020-08-25 00:00:00,48596.389692,FST,78.1,54.0,43.3,160.0,10.0,30.08,1013.5,10.0,,,CLR
2020-08-25 01:00:00,45185.664473,FST,75.9,54.0,46.57,170.0,9.0,30.08,1013.5,10.0,,,CLR
2020-08-25 02:00:00,42715.454276,FST,73.9,53.1,48.18,160.0,8.0,30.09,1013.5,10.0,,,CLR
2020-08-25 03:00:00,40990.540093,FST,72.0,53.1,51.37,160.0,8.0,30.08,1013.4,10.0,,,CLR
2020-08-25 04:00:00,39901.381643,FST,71.1,52.0,50.86,170.0,8.0,30.08,1013.2,10.0,,,CLR
2020-08-25 05:00:00,39605.086954,FST,72.0,55.0,55.06,170.0,8.0,30.07,1012.9,10.0,,,CLR
2020-08-25 06:00:00,40463.61552,FST,69.1,54.0,58.6,170.0,8.0,30.07,1013.2,10.0,,,CLR
2020-08-25 07:00:00,42139.242246,FST,70.0,55.9,60.89,190.0,9.0,30.08,1013.5,10.0,,,CLR
2020-08-25 08:00:00,43133.839351,FST,68.0,55.9,65.22,180.0,8.0,30.1,1014.3,10.0,,,CLR
2020-08-25 09:00:00,45440.120253,FST,73.0,57.0,57.23,180.0,5.0,30.11,1014.5,10.0,,,CLR
2020-08-25 10:00:00,49187.516723,FST,81.0,55.9,42.19,190.0,9.0,30.11,1014.3,10.0,,80.87,CLR
2020-08-25 11:00:00,53768.122782,FST,82.9,55.0,38.38,160.0,11.0,30.11,1014.5,10.0,,82.03,CLR
2020-08-25 12:00:00,58229.421286,FST,84.9,54.0,34.7,150.0,11.0,30.11,1014.3,10.0,15.0,83.37,CLR
2020-08-25 13:00:00,61770.370288,FST,88.0,52.0,29.21,160.0,13.0,30.1,1013.6,10.0,17.0,85.6,SCT
2020-08-25 14:00:00,64775.771398,FST,89.1,52.0,28.21,190.0,11.0,30.08,1012.7,10.0,16.0,86.58,FEW
2020-08-25 15:00:00,67119.972923,FST,91.0,50.0,24.68,150.0,11.0,30.06,1012.0,10.0,15.0,,FEW
2020-08-25 16:00:00,68538.341461,FST,91.9,50.0,23.99,170.0,11.0,30.04,1011.1,10.0,16.0,88.84,CLR
2020-08-25 17:00:00,69239.435352,FST,91.9,50.0,23.99,150.0,11.0,30.01,1010.3,10.0,,88.84,FEW
2020-08-25 18:00:00,68860.636108,FST,91.9,48.9,23.03,150.0,11.0,29.99,1009.8,10.0,,88.66,FEW
2020-08-25 19:00:00,67099.315661,FST,90.0,46.9,22.67,140.0,14.0,29.97,1009.7,10.0,,86.65,FEW
2020-08-25 20:00:00,64372.522054,FST,89.1,48.0,24.31,140.0,11.0,29.97,1009.6,10.0,,85.97,CLR
2020-08-25 21:00:00,62297.69246,FST,86.0,48.9,27.74,140.0,7.0,29.97,1009.9,10.0,,83.48,CLR
2020-08-25 22:00:00,59224.88937,FST,82.0,48.9,31.56,160.0,6.0,29.99,1010.2,10.0,,80.61,CLR
2020-08-25 23:00:00,55305.506939,FST,79.0,48.9,34.81,170.0,6.0,30.0,1010.8,10.0,,,CLR
2020-08-26 00:00:00,51389.183296,FST,78.1,50.0,37.36,180.0,7.0,30.0,1010.8,10.0,,,SCT
2020-08-26 01:00:00,47875.765898,FST,77.0,51.1,40.36,180.0,8.0,30.01,1010.8,10.0,,,FEW
2020-08-26 02:00:00,45200.455409,FST,75.0,51.1,43.14,180.0,7.0,30.01,1010.9,10.0,,,CLR
2020-08-26 03:00:00,43299.989419,FST,75.0,52.0,44.59,180.0,8.0,30.01,1010.4,10.0,,,CLR
2020-08-26 04:00:00,42075.109514,FST,75.0,53.1,46.44,180.0,8.0,30.0,1010.2,10.0,,,CLR
2020-08-26 05:00:00,41662.488035,FST,72.0,53.1,51.37,190.0,7.0,29.99,1010.2,10.0,,,CLR
2020-08-26 06:00:00,42442.129163,FST,71.1,53.1,52.96,220.0,8.0,29.99,1010.3,10.0,,,CLR
2020-08-26 07:00:00,44097.893495,FST,71.1,53.1,52.96,210.0,8.0,30.0,1010.7,10.0,,,CLR
2020-08-26 08:00:00,44788.907571,FST,70.0,53.1,54.98,190.0,7.0,30.01,1011.1,10.0,,,CLR
2020-08-26 09:00:00,46842.203463,FST,73.9,54.0,49.79,150.0,5.0,30.02,1011.3,10.0,,,CLR
2020-08-26 10:00:00,50118.52911,FST,80.1,55.0,42.05,180.0,4.0,30.02,1011.3,10.0,,80.17,CLR
2020-08-26 11:00:00,53815.687151,FST,84.9,55.0,35.99,330.0,4.0,30.02,1011.3,10.0,,,CLR
2020-08-26 12:00:00,57840.174154,FST,88.0,53.1,30.41,150.0,8.0,30.02,1010.9,10.0,,85.8,CLR
2020-08-26 13:00:00,61014.394746,FST,90.0,51.1,26.52,140.0,11.0,30.01,1010.2,10.0,,87.24,CLR
2020-08-26 14:00:00,63574.601137,FST,93.0,52.0,24.97,170.0,11.0,29.99,1009.7,10.0,15.0,90.29,FEW
2020-08-26 15:00:00,65231.382871,FST,91.9,48.0,22.26,190.0,11.0,29.97,1008.7,10.0,16.0,88.53,CLR
2020-08-26 16:00:00,66519.994398,FST,93.0,48.9,22.25,340.0,13.0,29.94,1007.7,10.0,,89.72,CLR
2020-08-26 17:00:00,66517.565584,FST,93.9,48.9,21.64,150.0,11.0,29.91,1007.1,10.0,,90.59,CLR
2020-08-26 18:00:00,65072.191805,FST,95.0,48.0,20.22,160.0,13.0,29.9,1006.6,10.0,,91.53,SCT
2020-08-26 19:00:00,62615.90924,FST,91.9,48.9,23.03,160.0,8.0,29.88,1006.4,10.0,,88.66,FEW
2020-08-26 20:00:00,59754.710026,FST,91.9,50.0,23.99,150.0,11.0,29.88,1006.5,10.0,,88.84,CLR
2020-08-26 21:00:00,58138.092658,FST,89.1,51.1,27.29,140.0,11.0,29.89,1006.8,10.0,,86.42,FEW
2020-08-26 22:00:00,55503.878469,FST,86.0,51.1,30.11,150.0,8.0,29.9,1007.2,10.0,,83.77,CLR
2020-08-26 23:00:00,51818.410082,FST,80.1,51.1,36.44,170.0,7.0,29.92,1007.6,10.0,,79.72,CLR
2020-08-27 00:00:00,48049.229734,FST,79.0,51.1,37.78,160.0,7.0,29.93,1008.0,10.0,,,CLR
2020-08-27 01:00:00,44901.72437,FST,77.0,51.1,40.36,160.0,8.0,29.93,1008.0,10.0,,,CLR
2020-08-27 02:00:00,42425.451153,FST,75.0,50.0,41.41,160.0,8.0,29.92,1007.6,10.0,,,CLR
2020-08-27 03:00:00,40731.928785,FST,75.0,51.1,43.14,160.0,8.0,29.92,1007.6,10.0,,,CLR
2020-08-27 04:00:00,39650.789011,FST,72.0,48.9,43.97,320.0,5.0,29.92,1007.7,10.0,,,CLR
2020-08-27 05:00:00,39309.80832,FST,73.0,50.0,44.29,210.0,7.0,29.92,1007.7,10.0,,,CLR
2020-08-27 06:00:00,40021.407093,FST,72.0,51.1,47.72,170.0,7.0,29.92,1007.8,10.0,,,CLR
2020-08-27 07:00:00,41522.138419,FST,71.1,51.1,49.2,170.0,10.0,29.94,1008.5,10.0,,,CLR
2020-08-27 08:00:00,42255.820998,FST,71.1,55.0,56.77,170.0,11.0,29.95,1008.8,10.0,,,CLR
2020-08-27 09:00:00,44456.083089,FST,77.0,60.1,55.95,170.0,14.0,29.96,1009.0,10.0,,,CLR
2020-08-27 10:00:00,48143.753318,FST,81.0,62.1,52.66,170.0,15.0,29.96,1009.3,10.0,,82.06,CLR
2020-08-27 11:00:00,52470.200242,FST,87.1,61.0,41.62,170.0,13.0,29.97,1009.5,10.0,,87.15,CLR
2020-08-27 12:00:00,57078.122717,FST,91.0,51.1,25.7,170.0,11.0,29.98,1009.5,10.0,16.0,88.18,CLR
2020-08-27 13:00:00,61150.123479,FST,91.9,48.9,23.03,190.0,11.0,29.97,1009.0,10.0,,88.66,CLR
2020-08-27 14:00:00,64651.896554,FST,95.0,46.9,19.4,160.0,11.0,29.96,1008.3,10.0,,91.36,CLR
2020-08-27 15:00:00,67365.703425,FST,93.9,46.0,19.4,130.0,11.0,29.94,1007.5,10.0,15.0,90.17,CLR
2020-08-27 16:00:00,69113.470704,FST,97.0,45.0,16.98,190.0,10.0,29.91,1006.6,10.0,,93.04,CLR
2020-08-27 17:00:00,69933.538886,FST,96.1,45.0,17.46,200.0,10.0,29.89,1005.9,10.0,,92.17,CLR
2020-08-27 18:00:00,69624.838685,FST,96.1,46.0,18.13,300.0,9.0,29.87,1005.7,10.0,,92.3,CLR
2020-08-27 19:00:00,67259.836701,FST,96.1,46.9,18.76,210.0,7.0,29.86,1005.5,10.0,,92.44,FEW
2020-08-27 20:00:00,63993.518577,FST,93.9,48.0,20.92,100.0,8.0,29.85,1005.5,10.0,,90.45,FEW
2020-08-27 21:00:00,61884.376224,FST,88.0,46.9,24.15,100.0,7.0,29.87,1006.0,10.0,,84.9,CLR
2020-08-27 22:00:00,58977.319163,FST,87.1,48.0,25.9,130.0,5.0,29.89,1006.5,10.0,,84.27,CLR
2020-08-27 23:00:00,55113.935906,FST,82.0,46.9,29.28,170.0,6.0,29.9,1006.9,10.0,,80.43,CLR
2020-08-28 00:00:00,51470.141614,FST,81.0,46.9,30.24,170.0,9.0,29.91,1007.1,10.0,,79.83,CLR
2020-08-28 01:00:00,48342.046298,FST,80.1,53.1,39.23,170.0,8.0,29.91,1007.0,10.0,,79.94,CLR
2020-08-28 02:00:00,46221.74921,FST,80.1,57.0,45.21,170.0,8.0,29.91,1006.9,10.0,,80.45,CLR
2020-08-28 03:00:00,44673.955862,FST,79.0,57.9,48.41,170.0,8.0,29.91,1007.0,10.0,,,CLR
2020-08-28 04:00:00,43615.487031,FST,78.1,57.9,49.87,170.0,9.0,29.9,1006.8,10.0,,,CLR
2020-08-28 05:00:00,43466.947635,FST,75.9,57.9,53.64,190.0,8.0,29.91,1007.2,10.0,,,CLR
2020-08-28 06:00:00,44504.78215,FST,73.9,57.9,57.36,170.0,8.0,29.91,1007.4,10.0,,,CLR
2020-08-28 07:00:00,46161.527751,FST,73.9,57.9,57.36,160.0,9.0,29.92,1007.7,10.0,,,CLR
2020-08-28 08:00:00,47013.799693,FST,75.0,57.9,55.28,170.0,9.0,29.94,1008.3,10.0,,,CLR
2020-08-28 09:00:00,49518.254,FST,80.1,59.0,48.58,180.0,10.0,29.95,1008.7,10.0,,80.76,CLR
2020-08-28 10:00:00,53826.679004,FST,87.1,59.0,38.75,180.0,10.0,29.96,1009.0,10.0,,86.47,CLR
2020-08-28 11:00:00,58636.078037,FST,90.0,57.9,33.99,200.0,7.0,29.97,1009.3,10.0,,88.89,CLR
2020-08-28 12:00:00,63512.372493,FST,93.9,54.0,26.13,260.0,7.0,29.97,1008.9,10.0,,91.68,CLR
2020-08-28 13:00:00,67819.130658,FST,97.0,52.0,22.07,120.0,10.0,29.96,1008.2,10.0,15.0,94.38,CLR
2020-08-28 14:00:00,71438.370715,FST,99.0,52.0,20.77,210.0,8.0,29.94,1007.1,10.0,,96.47,CLR
2020-08-28 15:00:00,73769.995743,FST,100.0,51.1,19.49,360.0,11.0,29.91,1006.2,10.0,15.0,97.28,CLR
2020-08-28 16:00:00,74322.941865,FST,100.9,48.9,17.48,180.0,11.0,29.88,1005.3,10.0,,97.67,FEW
2020-08-28 17:00:00,74113.499747,FST,102.0,48.0,16.35,340.0,10.0,29.86,1004.7,10.0,,98.58,FEW
2020-08-28 18:00:00,73469.547944,FST,100.9,50.0,18.21,140.0,9.0,29.84,1004.6,10.0,14.0,97.94,FEW
2020-08-28 19:00:00,71522.729389,FST,100.0,51.1,19.49,180.0,11.0,29.84,1004.6,10.0,,97.28,SCT
2020-08-28 20:00:00,68447.193428,FST,97.0,52.0,22.07,140.0,13.0,29.85,1005.0,10.0,14.0,94.38,BKN
2020-08-28 21:00:00,65917.20885,FST,95.0,51.1,22.7,130.0,11.0,29.86,1005.5,10.0,16.0,92.11,FEW
2020-08-28 22:00:00,63060.119443,FST,91.0,54.0,28.6,140.0,11.0,29.89,1006.2,10.0,,88.78,CLR
2020-08-28 23:00:00,59432.524002,FST,89.1,57.9,34.97,150.0,11.0,29.91,1006.8,10.0,,88.01,CLR
2020-08-29 00:00:00,55561.521356,FST,87.1,57.9,37.25,150.0,11.0,29.92,1006.9,10.0,18.0,86.14,CLR
2020-08-29 01:00:00,52067.346052,FST,86.0,57.9,38.58,160.0,11.0,29.92,1007.2,10.0,16.0,85.16,CLR
2020-08-29 02:00:00,49326.860127,FST,84.9,57.9,39.97,160.0,11.0,29.93,1007.4,10.0,,84.21,CLR
2020-08-29 03:00:00,47096.163916,FST,82.9,59.0,44.34,160.0,10.0,29.93,1007.1,10.0,,82.86,CLR
2020-08-29 04:00:00,45382.413756,FST,81.0,59.0,47.17,150.0,10.0,29.92,1006.8,10.0,,81.4,CLR
2020-08-29 05:00:00,44241.788829,FST,81.0,57.9,45.34,150.0,10.0,29.91,1006.9,10.0,,81.2,CLR
2020-08-29 06:00:00,43687.238169,FST,79.0,57.9,48.41,160.0,10.0,29.91,1007.0,10.0,,,CLR
2020-08-29 07:00:00,43560.258861,FST,75.9,57.9,53.64,160.0,8.0,29.93,1007.7,10.0,,,CLR
2020-08-29 08:00:00,43403.1722,FST,75.9,57.9,53.64,180.0,9.0,29.94,1008.3,10.0,,,CLR
2020-08-29 09:00:00,46144.408389,FST,81.0,59.0,47.17,180.0,11.0,29.96,1008.9,10.0,,81.4,CLR
2020-08-29 10:00:00,50552.798564,FST,87.1,59.0,38.75,160.0,16.0,29.98,1009.2,10.0,16.0,86.47,CLR
2020-08-29 11:00:00,55476.792402,FST,91.0,57.9,32.94,150.0,15.0,29.98,1009.4,10.0,19.0,89.88,CLR
2020-08-29 12:00:00,60439.584757,FST,95.0,53.1,24.44,150.0,14.0,29.98,1009.1,10.0,20.0,92.58,CLR
2020-08-29 13:00:00,64854.252357,FST,97.0,53.1,22.98,160.0,16.0,29.98,1008.6,10.0,22.0,94.67,CLR
2020-08-29 14:00:00,68489.075126,FST,98.1,50.0,19.82,160.0,18.0,29.96,1007.9,10.0,21.0,95.04,CLR
2020-08-29 15:00:00,71092.487587,FST,100.0,48.9,17.96,170.0,15.0,29.94,1007.1,10.0,19.0,96.75,CLR
2020-08-29 16:00:00,72593.719067,FST,100.0,50.0,19.28,170.0,16.0,29.92,1006.3,10.0,22.0,96.75,CLR
2020-08-29 17:00:00,73247.953285,FST,99.0,50.0,19.28,130.0,18.0,29.89,1005.6,10.0,21.0,95.97,FEW
2020-08-29 18:00:00,72942.411761,FST,99.0,50.0,19.28,170.0,16.0,29.87,1005.3,10.0,21.0,95.97,CLR
2020-08-29 19:00:00,70890.893282,FST,97.0,48.9,19.67,150.0,15.0,29.86,1005.4,10.0,19.0,93.69,FEW
2020-08-29 20:00:00,67520.222469,FST,95.0,48.9,20.92,140.0,14.0,29.86,1005.5,10.0,19.0,91.68,CLR
2020-08-29 21:00:00,64780.62353,FST,91.9,48.9,23.03,130.0,11.0,29.87,1005.8,10.0,,88.66,CLR
2020-08-29 22:00:00,61641.413666,FST,89.1,52.0,28.21,140.0,11.0,29.89,1006.4,10.0,,86.58,CLR
2020-08-29 23:00:00,58164.720412,FST,86.0,53.1,32.41,150.0,9.0,29.9,1006.7,10.0,,84.09,CLR
2020-08-30 00:00:00,54771.318963,FST,84.0,53.1,34.56,160.0,9.0,29.91,1006.8,10.0,,82.52,CLR
2020-08-30 01:00:00,51644.730669,FST,82.0,55.0,39.52,160.0,11.0,29.9,1006.5,10.0,,81.4,CLR
2020-08-30 02:00:00,49129.505505,FST,81.0,57.9,45.34,160.0,10.0,29.9,1005.9,10.0,,81.2,CLR
2020-08-30 03:00:00,46983.216421,FST,81.0,59.0,47.17,160.0,11.0,29.88,1005.3,10.0,16.0,81.4,CLR
2020-08-30 04:00:00,45225.212523,FST,80.1,59.0,48.58,160.0,11.0,29.86,1004.8,10.0,,80.76,CLR
2020-08-30 05:00:00,44034.987202,FST,79.0,57.9,48.41,170.0,11.0,29.85,1004.6,10.0,,,CLR
2020-08-30 06:00:00,43077.025981,FST,78.1,57.9,49.87,170.0,10.0,29.86,1005.1,10.0,,,CLR
2020-08-30 07:00:00,42295.925535,FST,77.0,59.0,53.8,150.0,10.0,29.86,1005.4,10.0,,,CLR
2020-08-30 08:00:00,41907.290808,FST,77.0,59.0,53.8,170.0,12.0,29.87,1005.9,10.0,,,CLR
2020-08-30 09:00:00,43681.056762,FST,81.0,60.1,49.06,180.0,11.0,29.89,1006.5,10.0,,81.62,CLR
2020-08-30 10:00:00,47001.83687,FST,87.1,61.0,41.62,170.0,10.0,29.89,1006.3,10.0,,87.15,CLR
2020-08-30 11:00:00,50940.743749,FST,91.0,60.1,35.64,180.0,9.0,29.89,1006.0,10.0,,90.69,CLR
2020-08-30 12:00:00,55380.747965,FST,96.1,60.1,30.43,190.0,9.0,29.88,1005.5,10.0,,96.21,CLR
2020-08-30 13:00:00,59414.689719,FST,97.0,57.9,27.36,140.0,10.0,29.87,1004.6,10.0,,96.26,CLR
2020-08-30 14:00:00,62647.617234,FST,99.0,57.0,24.92,150.0,14.0,29.84,1003.6,10.0,,98.12,CLR
2020-08-30 15:00:00,65054.988855,FST,100.9,57.0,23.53,140.0,10.0,29.81,1002.6,10.0,,100.24,CLR
2020-08-30 16:00:00,66996.574819,FST,102.9,55.9,21.3,180.0,11.0,29.79,1001.7,10.0,,102.01,FEW
2020-08-30 17:00:00,68588.016289,FST,102.0,55.0,21.17,160.0,11.0,29.76,1000.9,10.0,,100.66,FEW
2020-08-30 18:00:00,69307.480891,FST,100.9,54.0,21.1,160.0,14.0,29.74,1000.9,10.0,18.0,99.11,FEW
2020-08-30 19:00:00,68231.034099,FST,100.0,55.0,26.19,200.0,22.0,29.75,1001.8,10.0,28.0,98.14,FEW
2020-08-30 20:00:00,65771.787259,FST,91.9,57.9,32.03,190.0,15.0,29.76,1002.3,10.0,,90.8,FEW
2020-08-30 21:00:00,64149.446046,FST,93.0,55.0,27.87,160.0,8.0,29.77,1002.3,10.0,,91.03,CLR
2020-08-30 22:00:00,61407.163216,FST,91.0,55.9,30.65,150.0,11.0,29.78,1002.7,10.0,,89.27,CLR
2020-08-30 23:00:00,57788.115409,FST,90.0,59.0,35.36,160.0,15.0,29.8,1003.0,10.0,21.0,89.26,CLR
2020-08-31 00:00:00,54163.397382,FST,89.1,59.0,36.37,160.0,17.0,29.8,1003.0,10.0,23.0,88.37,CLR
2020-08-31 01:00:00,50998.091999,FST,87.1,59.0,38.75,150.0,15.0,29.8,1003.1,10.0,19.0,86.47,CLR
2020-08-31 02:00:00,48670.144683,FST,86.0,59.0,40.14,150.0,14.0,29.81,1003.0,10.0,18.0,85.47,CLR
2020-08-31 03:00:00,47211.820143,FST,84.9,59.0,41.58,160.0,13.0,29.81,1003.1,10.0,,84.51,CLR
2020-08-31 04:00:00,46504.560373,FST,84.0,59.0,42.8,210.0,11.0,29.82,1003.4,10.0,,83.75,CLR
2020-08-31 05:00:00,46605.086521,FST,84.0,59.0,42.8,220.0,11.0,29.82,1003.6,10.0,,83.75,CLR
2020-08-31 06:00:00,47706.69249,FST,82.9,59.0,44.34,170.0,11.0,29.83,1004.0,10.0,,82.86,CLR
2020-08-31 07:00:00,49426.821082,FST,81.0,59.0,47.17,180.0,10.0,29.84,1004.7,10.0,,81.4,CLR
2020-08-31 08:00:00,50283.672248,FST,79.0,59.0,50.36,170.0,9.0,29.86,1005.4,10.0,,,CLR
2020-08-31 09:00:00,52431.650409,FST,84.0,59.0,42.8,180.0,10.0,29.86,1005.4,10.0,,83.75,CLR
2020-08-31 10:00:00,56052.076094,FST,88.0,59.0,37.66,180.0,9.0,29.87,1005.6,10.0,,87.31,CLR
2020-08-31 11:00:00,60246.716354,FST,93.9,54.0,26.13,300.0,8.0,29.88,1005.6,10.0,,91.68,CLR
2020-08-31 12:00:00,64362.062707,FST,93.9,53.1,25.28,300.0,11.0,29.88,1005.8,10.0,,91.45,CLR
2020-08-31 13:00:00,67805.762653,FST,96.1,53.1,23.62,300.0,10.0,29.88,1005.3,10.0,,93.72,CLR
2020-08-31 14:00:00,70542.419997,FST,98.1,53.1,22.22,350.0,11.0,29.87,1004.8,10.0,16.0,95.83,CLR
2020-08-31 15:00:00,72122.850934,FST,100.0,53.1,20.98,360.0,14.0,29.85,1004.2,10.0,22.0,97.85,CLR
2020-08-31 16:00:00,72557.62505,FST,99.0,54.0,22.35,340.0,20.0,29.84,1003.7,10.0,28.0,97.06,FEW
2020-08-31 17:00:00,72659.51057,FST,96.1,54.0,24.42,340.0,22.0,29.82,1003.4,10.0,27.0,93.97,FEW
2020-08-31 18:00:00,72486.403945,FST,93.9,53.1,25.28,360.0,19.0,29.81,1003.6,10.0,19.0,91.45,CLR
2020-08-31 19:00:00,70741.77649,FST,93.9,53.1,25.28,360.0,13.0,29.81,1003.3,10.0,,91.45,CLR
2020-08-31 20:00:00,68050.617061,FST,91.9,53.1,26.9,90.0,7.0,29.8,1003.4,10.0,,89.45,CLR
2020-08-31 21:00:00,66522.269159,FST,90.0,53.1,28.55,100.0,6.0,29.81,1003.7,10.0,,87.62,CLR
2020-08-31 22:00:00,63534.537663,FST,89.1,53.1,29.37,110.0,7.0,29.84,1004.5,10.0,,86.79,CLR
2020-08-31 23:00:00,59752.212117,FST,88.0,54.0,31.43,90.0,13.0,29.87,1005.2,10.0,17.0,85.98,SCT
2020-09-01 00:00:00,56037.673623,FST,82.9,62.1,49.51,150.0,14.0,29.88,1005.6,10.0,,83.7,SCT
2020-09-01 01:00:00,53016.738909,FST,84.0,63.0,51.1,170.0,13.0,29.87,1005.1,10.0,,84.67,FEW
2020-09-01 02:00:00,50784.437837,FST,82.9,64.9,63.9,250.0,21.0,29.9,1005.9,10.0,21.0,83.98,BKN
2020-09-01 03:00:00,49269.17715,FST,77.0,66.9,73.68,250.0,10.0,29.9,1005.8,10.0,,,OVC
2020-09-01 04:00:00,48441.227151,FST,77.0,66.0,68.85,180.0,11.0,29.87,1005.4,10.0,,,FEW
2020-09-01 05:00:00,48290.242977,FST,75.9,66.0,71.41,190.0,13.0,29.87,1005.7,10.0,,,CLR
2020-09-01 06:00:00,49321.766562,FST,77.0,64.9,66.27,220.0,16.0,29.87,1005.9,10.0,,,FEW
2020-09-01 07:00:00,51089.438294,FST,75.9,64.0,66.6,210.0,15.0,29.87,1005.9,10.0,,,BKN
2020-09-01 08:00:00,51770.356091,FST,78.1,63.0,59.78,230.0,11.0,29.89,1006.5,10.0,,,CLR
2020-09-01 09:00:00,53338.146486,FST,81.0,62.1,52.66,230.0,14.0,29.9,1006.9,10.0,,82.06,CLR
2020-09-01 10:00:00,56009.668186,FST,,,,230.0,11.0,29.92,,10.0,,,CLR
2020-09-01 11:00:00,59291.394256,FST,84.9,63.0,47.91,220.0,17.0,29.92,1007.6,10.0,,85.83,SCT
2020-09-01 12:00:00,61969.584287,FST,87.1,62.1,43.27,230.0,16.0,29.93,1007.5,10.0,22.0,87.58,SCT
2020-09-01 13:00:00,63263.828691,FST,90.0,60.1,36.77,250.0,16.0,29.91,1006.5,10.0,20.0,89.66,FEW
2020-09-01 14:00:00,64375.029374,FST,96.1,57.0,29.14,290.0,18.0,29.89,1005.6,10.0,26.0,94.94,CLR
2020-09-01 15:00:00,64794.85409,FST,96.1,55.0,25.32,290.0,20.0,29.86,1005.1,10.0,25.0,94.27,CLR
2020-09-01 16:00:00,64553.165365,FST,95.0,54.0,25.26,290.0,16.0,29.85,1004.5,10.0,21.0,92.82,CLR
2020-09-01 17:00:00,64544.498473,FST,98.1,48.9,19.02,290.0,17.0,29.83,1004.1,10.0,20.0,94.81,CLR
2020-09-01 18:00:00,64441.323569,FST,97.0,48.0,19.02,290.0,17.0,29.82,1003.6,10.0,17.0,93.52,CLR
2020-09-01 19:00:00,62981.337154,FST,97.0,45.0,16.98,290.0,14.0,29.8,1003.3,10.0,18.0,93.04,CLR
2020-09-01 20:00:00,60983.063112,FST,93.9,45.0,18.68,310.0,17.0,29.81,1003.8,10.0,,90.05,CLR
2020-09-01 21:00:00,59772.544149,FST,91.0,46.0,21.24,290.0,11.0,29.84,1004.6,10.0,,87.45,CLR
2020-09-01 22:00:00,57485.982401,FST,89.1,46.9,23.32,260.0,8.0,29.87,,10.0,,85.85,CLR
2020-09-01 23:00:00,54014.618629,FST,86.0,48.9,28.74,340.0,20.0,29.9,1006.8,10.0,25.0,83.48,CLR
2020-09-02 00:00:00,50515.658175,FST,84.0,48.9,32.6,340.0,13.0,29.92,1007.8,10.0,,81.97,OVC
2020-09-02 01:00:00,47681.009213,FST,78.1,48.0,34.67,320.0,8.0,29.94,1008.5,10.0,,,CLR
2020-09-02 02:00:00,45722.406087,FST,77.0,46.9,34.5,270.0,9.0,29.95,1008.3,10.0,,,CLR
2020-09-02 03:00:00,44251.444524,FST,75.0,48.0,38.43,250.0,8.0,29.94,1007.7,10.0,,,CLR
2020-09-02 04:00:00,43251.097781,FST,75.9,46.9,35.78,250.0,10.0,29.93,1008.0,10.0,,,CLR
2020-09-02 05:00:00,43138.4787,FST,73.0,48.9,42.51,280.0,8.0,29.93,1007.6,10.0,,,CLR
2020-09-02 06:00:00,43913.38847,FST,73.0,48.0,41.1,240.0,8.0,29.93,1007.7,10.0,,,CLR
2020-09-02 07:00:00,45535.520812,FST,71.1,48.9,45.33,240.0,10.0,29.94,1008.5,10.0,,,CLR
2020-09-02 08:00:00,46536.96047,FST,73.0,48.0,41.1,250.0,9.0,29.95,1009.0,10.0,,,CLR
2020-09-02 09:00:00,47842.914801,FST,75.9,46.9,35.78,250.0,9.0,29.97,1009.6,10.0,,,CLR
2020-09-02 10:00:00,50175.959862,FST,82.0,48.0,30.51,260.0,10.0,29.98,1009.5,10.0,,80.53,CLR
2020-09-02 11:00:00,52443.284987,FST,86.0,46.9,25.74,330.0,12.0,30.0,1010.2,10.0,,83.27,CLR
2020-09-02 12:00:00,54761.940905,FST,,,,360.0,13.0,30.01,,10.0,,,CLR
2020-09-02 13:00:00,56736.630376,FST,89.1,46.9,23.32,360.0,11.0,30.01,1010.8,10.0,17.0,85.85,M
2020-09-02 14:00:00,58457.57122,FST,91.9,46.0,20.65,360.0,11.0,30.01,1010.1,10.0,,88.28,M
2020-09-02 15:00:00,59710.398065,FST,91.9,45.0,19.88,360.0,11.0,29.99,1009.3,10.0,,88.17,CLR
2020-09-02 16:00:00,60191.369104,FST,95.0,42.1,16.16,360.0,11.0,29.96,1008.5,10.0,14.0,90.79,CLR
2020-09-02 17:00:00,60119.607746,FST,95.0,42.1,16.16,360.0,11.0,29.94,1007.9,10.0,17.0,90.79,CLR
2020-09-02 18:00:00,59489.128312,FST,95.0,44.1,17.45,360.0,13.0,29.92,1007.9,10.0,17.0,91.0,CLR
2020-09-02 19:00:00,58035.111264,FST,93.0,48.9,22.25,350.0,15.0,29.92,1007.8,10.0,,89.72,CLR
2020-09-02 20:00:00,56369.8027,FST,91.0,48.9,23.68,360.0,11.0,29.93,1008.3,10.0,,87.82,CLR
2020-09-02 21:00:00,55643.291121,FST,84.9,48.9,28.74,360.0,7.0,29.95,1009.2,10.0,,82.63,CLR
2020-09-02 22:00:00,53679.165254,FST,82.9,52.0,34.39,70.0,8.0,29.99,1010.5,10.0,,81.57,CLR
2020-09-02 23:00:00,50560.494067,FST,82.9,57.9,42.63,90.0,11.0,30.01,1010.8,10.0,,82.6,CLR
2020-09-03 00:00:00,47256.826814,FST,81.0,57.0,43.9,120.0,10.0,30.01,1010.9,10.0,,81.05,CLR
2020-09-03 01:00:00,44595.291836,FST,79.0,57.0,46.87,120.0,8.0,30.01,1011.0,10.0,,,CLR
2020-09-03 02:00:00,42769.0924,FST,77.0,57.9,51.72,150.0,8.0,30.01,1010.5,10.0,,,CLR
2020-09-03 03:00:00,41626.836832,FST,73.9,57.0,55.53,170.0,6.0,30.0,1010.3,10.0,,,CLR
2020-09-03 04:00:00,40973.90834,FST,73.0,55.9,55.0,170.0,7.0,29.99,1009.9,10.0,,,CLR
2020-09-03 05:00:00,41075.051436,FST,71.1,55.9,58.65,190.0,8.0,29.98,1009.7,10.0,,,CLR
2020-09-03 06:00:00,42171.477864,FST,73.0,57.0,57.23,210.0,9.0,29.97,1009.5,10.0,,,CLR
2020-09-03 07:00:00,44215.693619,FST,73.0,55.0,53.23,220.0,9.0,29.98,1009.9,10.0,,,CLR
2020-09-03 08:00:00,45399.781062,FST,70.0,54.0,56.82,290.0,7.0,30.0,1010.8,10.0,,,CLR
2020-09-03 09:00:00,46742.544997,FST,77.0,54.0,44.9,210.0,7.0,30.02,1011.4,10.0,,,CLR
2020-09-03 10:00:00,48953.589991,FST,81.0,54.0,39.37,220.0,7.0,30.04,1011.9,10.0,,80.59,CLR
2020-09-03 11:00:00,51702.868663,FST,86.0,53.1,32.41,310.0,5.0,30.05,1012.1,10.0,,84.09,CLR
2020-09-03 12:00:00,54365.040957,FST,91.0,53.1,27.67,340.0,7.0,30.05,1012.2,10.0,,88.57,CLR
2020-09-03 13:00:00,56603.699902,FST,91.9,53.1,26.9,350.0,8.0,30.05,1011.8,10.0,,89.45,CLR
2020-09-03 14:00:00,58698.909974,FST,95.0,51.1,22.7,360.0,10.0,30.04,1011.1,10.0,,92.11,CLR
2020-09-03 15:00:00,60466.659818,FST,97.0,51.1,21.35,330.0,11.0,30.02,1010.5,10.0,,,CLR
2020-09-03 16:00:00,61529.196083,FST,98.1,51.1,20.64,150.0,13.0,30.0,1009.5,10.0,17.0,95.3,CLR
2020-09-03 17:00:00,61747.872948,FST,98.1,51.1,20.64,100.0,13.0,29.97,1008.8,10.0,,,CLR
2020-09-03 18:00:00,60681.866841,FST,97.0,48.9,19.67,70.0,13.0,29.95,1008.4,10.0,21.0,93.69,CLR
2020-09-03 19:00:00,58344.854509,FST,95.0,46.9,19.4,70.0,11.0,29.94,1008.6,10.0,,91.36,FEW
2020-09-03 20:00:00,56251.26784,FST,93.0,46.9,20.64,80.0,13.0,29.97,1009.4,10.0,,89.43,CLR
2020-09-03 21:00:00,55231.091559,FST,90.0,46.0,21.91,80.0,11.0,30.0,1010.5,10.0,16.0,86.55,CLR
2020-09-03 22:00:00,52965.437297,FST,88.0,48.0,25.17,80.0,11.0,30.03,1011.4,10.0,,85.02,CLR
2020-09-03 23:00:00,49864.243452,FST,86.0,50.0,28.9,90.0,16.0,30.06,1012.4,10.0,,83.62,CLR
2020-09-04 00:00:00,46364.036726,FST,78.1,63.0,59.78,140.0,16.0,30.08,1013.2,10.0,19.0,,CLR
2020-09-04 01:00:00,43519.492032,FST,75.9,64.0,66.6,150.0,15.0,30.1,1013.9,10.0,,,CLR
2020-09-04 02:00:00,41609.134907,FST,73.9,64.0,71.21,140.0,10.0,30.1,1013.7,10.0,,,CLR
2020-09-04 03:00:00,40363.059842,FST,73.0,63.0,70.87,150.0,9.0,30.1,1013.5,10.0,,,CLR
2020-09-04 04:00:00,39557.875615,FST,73.0,61.0,66.04,130.0,7.0,30.09,1013.4,10.0,,,CLR
2020-09-04 05:00:00,39639.036291,FST,72.0,61.0,68.31,140.0,7.0,30.09,1013.3,10.0,,,CLR
2020-09-04 06:00:00,40645.282187,FST,70.0,60.1,70.81,160.0,7.0,30.09,1013.7,10.0,,,CLR
2020-09-04 07:00:00,42434.760755,FST,69.1,60.1,73.03,160.0,11.0,30.13,1014.9,10.0,,,CLR
2020-09-04 08:00:00,43581.816828,FST,68.0,60.1,75.84,100.0,9.0,30.14,1015.6,10.0,,,CLR
2020-09-04 09:00:00,45204.524656,FST,72.0,61.0,68.31,90.0,10.0,30.17,1016.6,10.0,,,CLR
2020-09-04 10:00:00,47976.675071,FST,75.0,62.1,64.2,120.0,11.0,30.19,1017.3,10.0,,,CLR
2020-09-04 11:00:00,51015.218328,FST,80.1,62.1,54.23,110.0,11.0,30.21,1017.6,10.0,,81.31,CLR
2020-09-04 12:00:00,53808.64151,FST,82.9,62.1,49.51,100.0,9.0,30.21,1017.8,10.0,,83.7,CLR
2020-09-04 13:00:00,56112.615398,FST,87.1,61.0,41.62,110.0,11.0,30.2,1017.3,10.0,16.0,87.15,CLR
2020-09-04 14:00:00,58069.621475,FST,88.0,57.9,36.21,110.0,11.0,30.19,1016.6,10.0,14.0,86.96,CLR
2020-09-04 15:00:00,58941.513445,FST,88.0,57.0,35.05,120.0,11.0,30.17,1016.1,10.0,16.0,86.71,FEW
2020-09-04 16:00:00,59143.09397,FST,91.0,55.9,30.65,120.0,11.0,30.15,1015.0,10.0,17.0,89.27,FEW
2020-09-04 17:00:00,58435.47579,FST,93.9,55.0,27.1,100.0,13.0,30.12,1014.4,10.0,16.0,91.95,FEW
2020-09-04 18:00:00,56912.381933,FST,91.9,54.0,27.8,90.0,15.0,30.11,1014.4,10.0,15.0,89.66,FEW
2020-09-04 19:00:00,54807.611495,FST,91.0,54.0,28.6,100.0,15.0,30.11,1014.5,10.0,18.0,88.78,FEW
2020-09-04 20:00:00,52956.941857,FST,89.1,54.0,30.36,80.0,13.0,30.13,1015.2,10.0,,86.98,CLR
2020-09-04 21:00:00,52106.113418,FST,86.0,54.0,33.5,80.0,13.0,30.15,1015.9,10.0,,84.26,CLR
2020-09-04 22:00:00,50361.140077,FST,84.9,54.0,34.7,90.0,10.0,30.17,1016.8,10.0,,83.37,CLR
2020-09-04 23:00:00,47955.320512,FST,81.0,63.0,58.04,150.0,21.0,30.21,1017.9,10.0,30.0,82.28,CLR
2020-09-05 00:00:00,45175.843719,FST,75.9,64.0,66.6,150.0,15.0,30.23,1018.6,10.0,,,CLR
2020-09-05 01:00:00,42616.27119,FST,73.9,61.0,64.07,150.0,16.0,30.24,1019.0,10.0,,,CLR
2020-09-05 02:00:00,40556.267839,FST,73.0,61.0,66.04,150.0,11.0,30.24,1018.8,10.0,,,CLR
2020-09-05 03:00:00,39070.877793,FST,72.0,60.1,66.16,150.0,8.0,30.23,1018.7,10.0,,,CLR
2020-09-05 04:00:00,38124.909562,FST,71.1,61.0,70.42,140.0,8.0,30.23,1018.7,10.0,,,CLR
2020-09-05 05:00:00,37634.34184,FST,69.1,62.1,78.39,140.0,11.0,30.24,1018.7,10.0,,,CLR
2020-09-05 06:00:00,37639.432491,FST,68.0,62.1,81.41,130.0,9.0,30.25,1019.3,10.0,,,CLR
2020-09-05 07:00:00,38240.646729,FST,66.9,62.1,84.56,110.0,9.0,30.26,1019.8,10.0,,,CLR
2020-09-05 08:00:00,38651.986558,FST,66.9,63.0,87.28,120.0,7.0,30.28,1020.6,10.0,,,CLR
2020-09-05 09:00:00,40160.165644,FST,71.1,64.0,78.28,120.0,11.0,30.31,1021.4,10.0,,,CLR
2020-09-05 10:00:00,42802.952471,FST,73.9,64.0,71.21,150.0,13.0,30.32,1021.9,10.0,14.0,,FEW
2020-09-05 11:00:00,45735.934158,FST,75.0,64.0,68.64,130.0,11.0,30.34,1023.0,10.0,,,BKN
2020-09-05 12:00:00,49151.588524,FST,73.0,66.9,81.2,130.0,14.0,30.35,1023.5,10.0,22.0,,SCT
2020-09-05 13:00:00,52579.811325,FST,75.0,68.0,87.24,130.0,10.0,30.35,1023.2,10.0,,,SCT
2020-09-05 14:00:00,55532.516548,FST,80.1,64.0,57.98,160.0,14.0,30.34,1022.5,10.0,16.0,81.71,FEW
2020-09-05 15:00:00,57672.979502,FST,80.1,66.0,62.17,130.0,11.0,30.33,1021.9,10.0,,82.17,FEW
2020-09-05 16:00:00,57983.058924,FST,82.9,64.9,54.62,110.0,11.0,30.31,1020.9,10.0,,84.64,FEW
2020-09-05 17:00:00,56836.037075,FST,84.9,62.1,46.42,130.0,11.0,30.28,1019.8,10.0,,85.49,SCT
2020-09-05 18:00:00,55235.058041,FST,84.9,60.1,43.24,140.0,11.0,30.25,1019.3,10.0,,84.83,FEW
2020-09-05 19:00:00,53337.42867,FST,86.0,60.1,41.74,120.0,10.0,30.23,1019.1,10.0,15.0,85.81,FEW
2020-09-05 20:00:00,51319.155897,FST,82.9,59.0,44.34,110.0,11.0,30.23,1019.1,10.0,,82.86,CLR
2020-09-05 21:00:00,50199.430296,FST,80.1,61.0,52.16,140.0,13.0,30.25,1019.7,10.0,19.0,81.1,CLR
2020-09-05 22:00:00,48403.797732,FST,79.0,61.0,54.08,150.0,13.0,30.27,1020.3,10.0,,,BKN
2020-09-05 23:00:00,46169.023287,FST,78.1,60.1,53.95,150.0,14.0,30.27,1020.5,10.0,16.0,,SCT
2020-09-06 00:00:00,43540.913757,FST,75.0,63.0,66.27,160.0,11.0,30.28,1021.0,10.0,16.0,,OVC
2020-09-06 01:00:00,41156.118539,FST,73.0,63.0,70.87,170.0,14.0,30.29,1021.0,10.0,18.0,,CLR
2020-09-06 02:00:00,39224.530677,FST,72.0,61.0,68.31,170.0,11.0,30.28,1020.7,10.0,,,CLR
2020-09-06 03:00:00,37771.444211,FST,70.0,60.1,70.81,170.0,10.0,30.27,1020.1,10.0,,,CLR
2020-09-06 04:00:00,36724.032312,FST,69.1,60.1,73.03,150.0,8.0,30.26,1020.0,10.0,,,CLR
2020-09-06 05:00:00,36111.599477,FST,66.9,61.0,81.33,150.0,8.0,30.25,1019.8,10.0,,,CLR
2020-09-06 06:00:00,35941.475254,FST,66.0,60.1,81.27,180.0,8.0,30.25,1019.5,10.0,,,CLR
2020-09-06 07:00:00,36104.789089,FST,64.9,60.1,84.44,190.0,5.0,30.24,1019.5,10.0,,,CLR
2020-09-06 08:00:00,36142.740194,FST,64.9,60.1,84.44,160.0,7.0,30.24,1019.8,10.0,,,CLR
2020-09-06 09:00:00,38093.424081,FST,70.0,61.0,73.11,170.0,10.0,30.25,1019.8,10.0,,,CLR
2020-09-06 10:00:00,41390.551082,FST,75.0,61.0,61.75,180.0,13.0,30.25,1019.6,10.0,,,CLR
2020-09-06 11:00:00,45406.824214,FST,82.0,57.0,42.49,190.0,13.0,30.25,1019.2,10.0,17.0,81.75,CLR
2020-09-06 12:00:00,49562.884665,FST,84.9,57.0,38.69,210.0,11.0,30.24,1018.6,10.0,16.0,83.99,CLR
2020-09-06 13:00:00,53716.867215,FST,87.1,55.9,34.66,200.0,11.0,30.22,1017.8,10.0,18.0,85.61,CLR
2020-09-06 14:00:00,57204.157296,FST,87.1,57.0,36.07,190.0,11.0,30.2,1016.8,10.0,,85.89,CLR
2020-09-06 15:00:00,59601.874862,FST,89.1,54.0,30.36,340.0,10.0,30.17,1015.7,10.0,15.0,86.98,SCT
2020-09-06 16:00:00,61064.05465,FST,91.0,55.0,29.66,200.0,10.0,30.14,1014.6,10.0,,,FEW
2020-09-06 17:00:00,61439.355532,FST,89.1,55.9,32.53,150.0,13.0,30.11,1013.9,10.0,18.0,87.44,FEW
2020-09-06 18:00:00,60467.391583,FST,90.0,55.9,31.62,160.0,17.0,30.08,1013.5,10.0,18.0,88.29,CLR
2020-09-06 19:00:00,58500.508542,FST,89.1,55.9,32.53,160.0,14.0,30.07,1013.0,10.0,16.0,87.44,CLR
2020-09-06 20:00:00,55878.531847,FST,86.0,55.9,35.9,160.0,11.0,30.05,1012.9,10.0,18.0,84.66,CLR
2020-09-06 21:00:00,54189.402788,FST,82.9,57.0,41.27,140.0,13.0,30.06,1013.2,10.0,,82.41,CLR
2020-09-06 22:00:00,51711.918857,FST,81.0,57.9,45.34,140.0,16.0,30.07,1013.5,10.0,19.0,81.2,CLR
2020-09-06 23:00:00,48881.129501,FST,79.0,59.0,50.36,150.0,16.0,30.08,1013.3,10.0,22.0,,CLR
2020-09-07 00:00:00,45798.47536,FST,77.0,61.0,57.77,160.0,16.0,30.08,1012.9,10.0,21.0,,CLR
2020-09-07 01:00:00,43014.714277,FST,75.0,60.1,59.81,160.0,13.0,30.06,1012.3,10.0,,,CLR
2020-09-07 02:00:00,40813.253579,FST,73.9,60.1,62.05,150.0,13.0,30.04,1011.6,10.0,,,CLR
2020-09-07 03:00:00,39329.378688,FST,72.0,60.1,66.16,160.0,11.0,30.02,1011.1,10.0,,,CLR
2020-09-07 04:00:00,38382.607189,FST,71.1,60.1,68.21,170.0,9.0,30.01,1010.8,10.0,,,CLR
2020-09-07 05:00:00,37932.372198,FST,69.1,59.0,70.21,190.0,7.0,30.0,1010.7,10.0,,,CLR
2020-09-07 06:00:00,38093.955885,FST,68.0,59.0,72.92,160.0,9.0,29.99,1010.3,10.0,,,CLR
2020-09-07 07:00:00,38474.863195,FST,66.9,59.0,75.74,160.0,10.0,29.98,1010.2,10.0,,,CLR
2020-09-07 08:00:00,38460.501423,FST,66.0,59.0,78.14,160.0,9.0,29.99,1010.9,10.0,,,CLR
2020-09-07 09:00:00,40604.123633,FST,71.1,60.1,68.21,150.0,10.0,29.99,1010.6,10.0,,,CLR
2020-09-07 10:00:00,44799.180886,FST,80.1,60.1,50.52,160.0,9.0,29.98,1009.8,10.0,,80.94,CLR
2020-09-07 11:00:00,49613.130577,FST,86.0,57.9,38.58,230.0,9.0,29.97,1009.4,10.0,,85.16,CLR
2020-09-07 12:00:00,54194.12309,FST,89.1,57.0,33.85,190.0,10.0,29.96,1008.8,10.0,,87.74,CLR
2020-09-07 13:00:00,58132.219446,FST,90.0,54.0,29.51,240.0,10.0,29.95,1007.9,10.0,,87.82,CLR
2020-09-07 14:00:00,61074.966942,FST,93.0,55.0,27.87,210.0,11.0,29.92,1006.7,10.0,17.0,91.03,FEW
2020-09-07 15:00:00,62212.80871,FST,93.0,54.0,26.87,190.0,9.0,29.89,1005.5,10.0,,90.76,FEW
2020-09-07 16:00:00,61803.306246,FST,93.9,54.0,26.13,200.0,10.0,29.85,1004.0,10.0,,91.68,FEW
2020-09-07 17:00:00,61821.089871,FST,95.0,55.9,27.06,190.0,16.0,29.81,1003.0,10.0,21.0,93.38,FEW
2020-09-07 18:00:00,62066.298974,FST,93.9,55.0,27.1,170.0,18.0,29.78,1002.5,10.0,,91.95,SCT
2020-09-07 19:00:00,60776.403315,FST,91.9,55.0,28.84,150.0,16.0,29.76,1002.5,10.0,22.0,89.92,CLR
2020-09-07 20:00:00,58609.502532,FST,89.1,54.0,30.36,150.0,17.0,29.76,1002.7,10.0,22.0,86.98,CLR
2020-09-07 21:00:00,57394.538001,FST,82.9,61.0,47.62,150.0,19.0,29.77,1003.1,10.0,25.0,83.37,CLR
2020-09-07 22:00:00,54758.472152,FST,80.1,62.1,54.23,150.0,21.0,29.79,1003.4,10.0,29.0,81.31,CLR
2020-09-07 23:00:00,51124.951507,FST,77.0,63.0,62.0,150.0,18.0,29.79,1003.3,10.0,23.0,,CLR
2020-09-08 00:00:00,47414.287491,FST,75.0,64.0,68.64,150.0,17.0,29.79,1003.1,10.0,22.0,,CLR
2020-09-08 01:00:00,44665.848878,FST,73.0,64.9,75.75,160.0,18.0,29.78,1003.2,10.0,25.0,,CLR
2020-09-08 02:00:00,42693.337492,FST,73.0,64.9,75.75,170.0,18.0,29.78,1002.7,10.0,22.0,,CLR
2020-09-08 03:00:00,41381.905163,FST,72.0,64.9,78.35,160.0,14.0,29.77,1002.1,10.0,,,CLR
2020-09-08 04:00:00,40667.124249,FST,72.0,64.0,75.92,160.0,11.0,29.75,1001.8,10.0,,,CLR
2020-09-08 05:00:00,40723.742968,FST,72.0,64.0,75.92,160.0,11.0,29.75,1001.4,10.0,,,CLR
2020-09-08 06:00:00,41807.251781,FST,71.1,63.0,75.58,160.0,11.0,29.74,1001.6,10.0,,,CLR
2020-09-08 07:00:00,43939.499114,FST,71.1,62.1,73.22,160.0,11.0,29.74,1001.7,10.0,,,CLR
2020-09-08 08:00:00,45020.661407,FST,70.0,63.0,78.46,160.0,11.0,29.76,1002.7,10.0,,,CLR
2020-09-08 09:00:00,46171.663508,FST,73.0,63.0,70.87,150.0,14.0,29.77,1003.2,10.0,17.0,,CLR
2020-09-08 10:00:00,48550.723858,FST,78.1,61.0,55.71,170.0,17.0,29.78,1003.3,10.0,21.0,,CLR
2020-09-08 11:00:00,51250.13877,FST,84.0,60.1,44.51,170.0,18.0,29.79,1003.4,10.0,22.0,84.05,CLR
2020-09-08 12:00:00,53941.354305,FST,88.0,60.1,39.17,180.0,18.0,29.78,1003.0,10.0,25.0,87.69,CLR
2020-09-08 13:00:00,56589.776873,FST,91.9,57.9,32.03,180.0,15.0,29.78,1002.4,10.0,19.0,90.8,CLR
2020-09-08 14:00:00,59223.189219,FST,93.9,57.9,30.1,200.0,17.0,29.76,1001.6,10.0,19.0,92.9,CLR
2020-09-08 15:00:00,60703.88057,FST,95.0,60.1,31.47,160.0,17.0,29.74,1000.9,10.0,26.0,94.98,CLR
2020-09-08 16:00:00,61019.859916,FST,95.0,60.1,31.47,160.0,21.0,29.72,1000.0,10.0,24.0,94.98,CLR
2020-09-08 17:00:00,60974.943105,FST,91.9,59.0,33.31,150.0,21.0,29.69,999.4,10.0,28.0,91.2,CLR
2020-09-08 18:00:00,59728.7366,FST,91.0,60.1,35.64,150.0,21.0,29.68,999.7,10.0,26.0,90.69,CLR
2020-09-08 19:00:00,57438.292131,FST,87.1,64.0,46.26,150.0,22.0,29.69,1000.2,10.0,31.0,88.42,CLR
2020-09-08 20:00:00,55261.684979,FST,82.9,64.9,54.62,140.0,22.0,29.74,1002.0,10.0,27.0,84.64,CLR
2020-09-08 21:00:00,54299.990732,FST,73.9,63.0,90.64,360.0,30.0,29.86,1007.1,10.0,45.0,,CLR
2020-09-08 22:00:00,51914.220515,FST,64.0,63.0,96.81,360.0,28.0,29.94,1009.8,8.0,38.0,,BKN
2020-09-08 23:00:00,48603.344094,FST,57.9,57.2,100.0,50.0,15.0,29.98,1010.9,7.0,19.0,,SCT
2020-09-09 00:00:00,45294.423637,FST,57.0,55.9,96.1,360.0,12.0,30.0,1011.5,9.0,,,OVC
2020-09-09 01:00:00,42836.021629,FST,57.0,55.9,96.78,360.0,15.0,30.03,1012.4,10.0,,,OVC
2020-09-09 02:00:00,41153.212958,FST,57.2,55.9,96.1,360.0,14.0,30.02,1011.8,9.0,,,OVC
2020-09-09 03:00:00,40075.453344,FST,55.9,55.9,100.0,360.0,15.0,30.03,1012.3,5.0,,,OVC
2020-09-09 04:00:00,39594.332503,FST,54.0,52.0,92.92,360.0,13.0,30.02,1011.7,10.0,,,OVC
2020-09-09 05:00:00,39919.799814,FST,54.0,53.1,100.0,360.0,15.0,30.01,1012.0,8.0,18.0,,OVC
2020-09-09 06:00:00,41241.945647,FST,50.0,50.0,100.0,340.0,17.0,30.04,1013.0,3.5,,,OVC
2020-09-09 07:00:00,43410.473709,FST,48.9,48.0,96.69,340.0,16.0,30.08,1014.6,4.0,21.0,42.69,BKN
2020-09-09 08:00:00,44586.793497,FST,48.0,46.9,95.95,340.0,17.0,30.12,1016.1,10.0,,42.37,OVC
2020-09-09 09:00:00,45982.887531,FST,48.0,46.9,95.95,340.0,17.0,30.14,1017.9,10.0,,42.37,BKN
2020-09-09 10:00:00,48312.888762,FST,48.0,46.9,95.95,330.0,18.0,30.16,1019.0,7.0,19.0,41.79,BKN
2020-09-09 11:00:00,50968.515917,FST,48.0,46.9,96.66,340.0,18.0,30.2,1020.0,10.0,21.0,41.79,BKN
2020-09-09 12:00:00,53200.436586,FST,48.9,46.9,95.95,350.0,13.0,30.21,1020.4,10.0,,44.16,BKN
2020-09-09 13:00:00,54569.318334,FST,48.9,46.0,89.67,350.0,14.0,30.21,1020.4,10.0,,43.22,FEW
2020-09-09 14:00:00,55481.978955,FST,50.0,46.0,86.06,340.0,14.0,30.2,1020.1,10.0,15.0,,OVC
2020-09-09 15:00:00,55984.813917,FST,50.0,46.0,86.06,340.0,14.0,30.2,1020.1,10.0,,,OVC
2020-09-09 16:00:00,55629.618808,FST,50.0,46.0,86.06,340.0,14.0,30.19,1019.8,10.0,,,OVC
2020-09-09 17:00:00,54811.296808,FST,52.0,46.0,79.92,340.0,13.0,30.19,1019.8,10.0,,,OVC
2020-09-09 18:00:00,53303.480586,FST,52.0,45.0,76.94,350.0,14.0,30.21,1020.6,10.0,,,OVC
2020-09-09 19:00:00,51578.656437,FST,52.0,46.0,79.92,350.0,11.0,30.22,1021.0,10.0,,,OVC
2020-09-09 20:00:00,50217.486239,FST,51.1,46.0,82.62,350.0,11.0,30.24,1021.8,10.0,,,OVC
2020-09-09 21:00:00,49217.03632,FST,50.0,48.2,96.69,360.0,11.0,30.26,1022.6,10.0,,44.53,OVC
2020-09-09 22:00:00,46958.793173,FST,48.9,48.0,96.69,360.0,10.0,30.29,1023.8,9.0,,45.38,BKN
2020-09-09 23:00:00,43816.006953,FST,48.9,48.0,96.69,360.0,9.0,30.31,1024.3,10.0,,45.38,BKN
2020-09-10 00:00:00,40597.959658,FST,48.9,46.0,89.67,360.0,8.0,30.31,1024.5,10.0,,45.88,BKN
2020-09-10 01:00:00,38000.473544,FST,48.9,46.0,89.67,360.0,7.0,30.32,1023.9,10.0,,47.16,FEW
2020-09-10 02:00:00,36178.401198,FST,48.9,45.0,86.33,360.0,8.0,30.3,1023.7,10.0,,45.88,BKN
2020-09-10 03:00:00,35036.472313,FST,48.9,45.0,87.28,360.0,8.0,30.29,1023.7,10.0,,45.88,OVC
2020-09-10 04:00:00,34372.387449,FST,48.9,44.1,83.42,360.0,8.0,30.3,1023.9,10.0,,45.88,OVC
2020-09-10 05:00:00,34455.249383,FST,48.0,45.0,89.29,360.0,10.0,30.31,1024.1,10.0,,43.41,OVC
2020-09-10 06:00:00,35599.080837,FST,48.0,46.0,92.74,350.0,10.0,30.32,1024.5,10.0,,43.82,OVC
2020-09-10 07:00:00,37603.302901,FST,46.9,46.0,96.66,350.0,12.0,30.32,1024.7,6.0,,42.47,BKN
2020-09-10 08:00:00,38713.898571,FST,46.9,45.0,96.28,360.0,10.0,30.34,1025.3,10.0,,42.47,OVC
2020-09-10 09:00:00,39402.928071,FST,46.9,45.0,93.06,360.0,9.0,30.35,1026.0,10.0,,43.48,FEW
2020-09-10 10:00:00,40410.524777,FST,48.0,45.0,89.92,360.0,9.0,30.36,1026.2,10.0,,44.8,BKN
2020-09-10 11:00:00,41742.925525,FST,48.2,45.0,89.29,360.0,9.0,30.38,1026.6,10.0,,44.53,FEW
2020-09-10 12:00:00,42953.137252,FST,48.9,45.0,89.29,340.0,7.0,30.38,1026.8,10.0,,45.88,OVC
2020-09-10 13:00:00,44278.562307,FST,48.9,46.9,92.77,350.0,8.0,30.38,1026.6,10.0,,46.47,BKN
2020-09-10 14:00:00,45577.273775,FST,48.9,46.9,92.77,340.0,9.0,30.37,1026.0,6.0,,45.88,SCT
2020-09-10 15:00:00,46381.514803,FST,50.0,48.0,92.8,340.0,10.0,30.35,1025.5,10.0,,,FEW
2020-09-10 16:00:00,46520.162309,FST,51.1,46.9,89.04,350.0,9.0,30.34,1025.0,10.0,,,BKN
2020-09-10 17:00:00,45828.494944,FST,51.1,46.0,82.62,360.0,5.0,30.33,,10.0,,,BKN
2020-09-10 18:00:00,45039.775247,,,,,,,,,,,,
2020-09-10 19:00:00,44211.255849,,,,,,,,,,,,
2020-09-10 20:00:00,43754.108309,,,,,,,,,,,,
2020-09-10 21:00:00,43819.247819,,,,,,,,,,,,
2020-09-10 22:00:00,42382.316988,,,,,,,,,,,,
2020-09-10 23:00:00,40034.251995,,,,,,,,,,,,
2020-09-11 00:00:00,37430.983523,,,,,,,,,,,,
2020-09-11 01:00:00,35353.523118,,,,,,,,,,,,
2020-09-11 02:00:00,33909.248499,,,,,,,,,,,,
2020-09-11 03:00:00,32960.74286,,,,,,,,,,,,
2020-09-11 04:00:00,32543.175796,,,,,,,,,,,,
2020-09-11 05:00:00,32762.709461,,,,,,,,,,,,
2020-09-11 06:00:00,33975.631054,,,,,,,,,,,,
2020-09-11 07:00:00,36072.173113,,,,,,,,,,,,
2020-09-11 08:00:00,37317.042026,,,,,,,,,,,,
2020-09-11 09:00:00,38480.72014,,,,,,,,,,,,
2020-09-11 10:00:00,39823.388618,,,,,,,,,,,,
2020-09-11 11:00:00,41485.631451,,,,,,,,,,,,
2020-09-11 12:00:00,43542.489305,,,,,,,,,,,,
2020-09-11 13:00:00,45482.303667,,,,,,,,,,,,
2020-09-11 14:00:00,47444.409947,,,,,,,,,,,,
2020-09-11 15:00:00,49382.873492,FST,64.0,53.1,67.66,340.0,5.0,30.24,1019.9,10.0,,,OVC
2020-09-11 16:00:00,50984.593682,FST,64.9,54.0,67.76,140.0,5.0,30.2,1018.7,10.0,,,FEW
2020-09-11 17:00:00,52037.977967,FST,66.9,55.0,65.56,140.0,5.0,30.17,1017.5,10.0,,,CLR
2020-09-11 18:00:00,51800.093032,FST,69.1,55.0,60.78,120.0,8.0,30.13,1016.6,10.0,,,CLR
2020-09-11 19:00:00,50401.98983,FST,68.0,55.9,65.22,120.0,9.0,30.11,1016.1,10.0,,,CLR
2020-09-11 20:00:00,48697.004214,FST,66.9,55.9,67.74,120.0,11.0,30.1,1016.0,10.0,,,CLR
2020-09-11 21:00:00,48041.301798,FST,64.9,57.9,78.05,110.0,10.0,30.1,1016.1,10.0,,,CLR
2020-09-11 22:00:00,46161.179973,FST,64.9,57.9,78.05,120.0,9.0,30.1,1016.0,10.0,,,CLR
2020-09-11 23:00:00,43776.930812,FST,64.0,57.9,80.54,130.0,10.0,30.1,1016.0,10.0,,,CLR
2020-09-12 00:00:00,41075.762264,FST,64.0,57.9,80.54,150.0,11.0,30.1,1015.8,10.0,,,CLR
2020-09-12 01:00:00,38559.386768,FST,63.0,57.9,83.42,160.0,11.0,30.09,1015.4,10.0,,,CLR
2020-09-12 02:00:00,36707.077954,FST,62.1,57.9,86.11,160.0,11.0,30.08,1015.1,10.0,,,CLR
2020-09-12 03:00:00,35388.944076,FST,61.0,57.9,89.52,160.0,9.0,30.08,1014.8,10.0,,,CLR
2020-09-12 04:00:00,34440.864774,FST,60.1,57.9,92.43,170.0,9.0,30.07,1014.6,10.0,,,CLR
2020-09-12 05:00:00,34038.273983,FST,59.0,57.0,93.07,180.0,5.0,30.06,1014.4,10.0,,,CLR
2020-09-12 06:00:00,34144.263817,FST,59.0,57.0,93.07,180.0,7.0,30.06,1014.3,10.0,,,CLR
2020-09-12 07:00:00,34795.899428,FST,57.9,55.9,93.04,230.0,7.0,30.06,1014.6,10.0,,,CLR
2020-09-12 08:00:00,35132.910489,FST,57.9,55.9,93.04,230.0,8.0,30.07,1014.8,10.0,,,CLR
2020-09-12 09:00:00,37084.684792,FST,61.0,57.0,86.67,230.0,9.0,30.08,1015.2,10.0,,,CLR
2020-09-12 10:00:00,40419.685445,FST,66.0,59.0,78.14,260.0,8.0,30.08,1015.0,10.0,,,CLR
2020-09-12 11:00:00,44183.128881,FST,70.0,59.0,68.09,270.0,7.0,30.09,1015.2,10.0,,,CLR
2020-09-12 12:00:00,48074.002117,FST,73.0,59.0,61.5,300.0,7.0,30.09,1015.0,10.0,,,CLR
2020-09-12 13:00:00,51540.859371,FST,77.0,60.1,55.95,350.0,7.0,30.09,1014.2,10.0,,,CLR
2020-09-12 14:00:00,54286.346249,FST,80.1,60.1,50.52,360.0,5.0,30.07,1013.5,10.0,,80.94,CLR
2020-09-12 15:00:00,56405.656517,FST,82.0,60.1,47.49,360.0,9.0,30.05,1012.6,10.0,,82.4,CLR
2020-09-12 16:00:00,57734.844525,FST,84.0,60.1,44.51,360.0,8.0,30.03,1012.0,10.0,,84.05,CLR
2020-09-12 17:00:00,58411.865156,FST,84.9,59.0,41.58,360.0,9.0,30.01,1011.4,10.0,,84.51,CLR
2020-09-12 18:00:00,58167.834741,FST,84.9,59.0,41.58,60.0,8.0,29.99,1011.0,10.0,,84.51,CLR
2020-09-12 19:00:00,56798.752106,FST,82.9,59.0,44.34,80.0,10.0,30.0,1011.6,10.0,,82.86,CLR
2020-09-12 20:00:00,54689.022859,FST,80.1,60.1,50.52,80.0,10.0,30.01,1012.1,10.0,,80.94,CLR
2020-09-12 21:00:00,53091.509072,FST,75.9,60.1,58.04,70.0,5.0,30.03,1012.8,10.0,,,CLR
2020-09-12 22:00:00,50484.400532,FST,75.9,63.0,64.31,150.0,8.0,30.05,1013.4,10.0,,,CLR
2020-09-12 23:00:00,47534.451152,FST,73.0,63.0,70.87,160.0,8.0,30.06,1013.8,10.0,,,FEW
2020-09-13 00:00:00,44583.054085,FST,71.1,63.0,75.58,170.0,8.0,30.07,1013.9,10.0,,,CLR
2020-09-13 01:00:00,41966.651458,FST,70.0,63.0,78.46,170.0,7.0,30.07,1013.6,10.0,,,CLR
2020-09-13 02:00:00,39788.874686,FST,69.1,63.0,80.92,180.0,7.0,30.06,1013.4,10.0,,,CLR
2020-09-13 03:00:00,38115.500002,FST,69.1,63.0,80.92,170.0,7.0,30.06,1013.2,10.0,,,CLR
2020-09-13 04:00:00,36878.976487,FST,68.0,63.0,84.03,190.0,7.0,30.06,1013.3,10.0,,,CLR
2020-09-13 05:00:00,36186.32835,FST,68.0,63.0,84.03,190.0,5.0,30.06,1013.2,10.0,,,CLR
2020-09-13 06:00:00,35918.736109,FST,66.0,62.1,87.24,160.0,4.0,30.07,1013.7,10.0,,,CLR
2020-09-13 07:00:00,36035.962583,FST,64.9,62.1,90.64,170.0,5.0,30.08,1014.2,10.0,,,CLR
2020-09-13 08:00:00,36150.074247,FST,64.9,62.1,90.64,170.0,5.0,30.1,1014.9,10.0,,,CLR
2020-09-13 09:00:00,38260.54631,FST,69.1,64.0,83.81,170.0,3.0,30.13,1015.9,10.0,,,CLR
2020-09-13 10:00:00,41957.176664,FST,71.1,64.0,78.28,140.0,3.0,30.15,1016.6,10.0,,,CLR
2020-09-13 11:00:00,46029.574312,FST,73.0,64.0,73.4,110.0,5.0,30.17,1017.3,10.0,,,CLR
2020-09-13 12:00:00,50070.126187,FST,75.0,64.0,68.64,100.0,5.0,30.18,1017.7,10.0,,,CLR
2020-09-13 13:00:00,53414.130232,FST,75.9,64.0,66.6,100.0,5.0,30.18,1017.5,10.0,,,FEW
2020-09-13 14:00:00,56024.738286,FST,78.1,64.0,61.92,150.0,5.0,30.17,1016.5,10.0,,,CLR
2020-09-13 15:00:00,57896.684973,FST,79.0,64.0,60.11,360.0,7.0,30.14,1015.7,10.0,,,CLR
2020-09-13 16:00:00,58853.970017,FST,78.1,63.0,59.78,360.0,9.0,30.13,1015.5,10.0,,,FEW
2020-09-13 17:00:00,59144.885531,FST,78.1,66.2,78.19,150.0,9.0,30.12,1015.8,10.0,,,SCT
2020-09-13 18:00:00,58628.496705,FST,72.0,64.0,75.92,300.0,11.0,30.13,1016.1,10.0,,,BKN
2020-09-13 19:00:00,56803.262338,FST,66.2,63.0,90.05,360.0,17.0,30.18,1018.2,10.0,22.0,,FEW
2020-09-13 20:00:00,54790.750225,FST,66.0,64.0,93.56,160.0,10.0,30.19,1018.8,6.0,,,FEW
2020-09-13 21:00:00,53419.299414,FST,64.0,62.1,93.54,180.0,11.0,30.19,1018.6,10.0,,,OVC
2020-09-13 22:00:00,50941.59595,FST,64.9,63.0,93.56,340.0,7.0,30.22,1019.4,10.0,,,OVC
2020-09-13 23:00:00,47747.047403,FST,64.0,64.0,100.0,330.0,9.0,30.22,1019.6,10.0,,,OVC
2020-09-14 00:00:00,44422.585743,FST,64.0,63.0,96.55,290.0,7.0,30.23,1019.5,10.0,,,SCT
2020-09-14 01:00:00,41470.629596,FST,64.0,63.0,96.55,250.0,9.0,30.22,1019.3,10.0,,,OVC
2020-09-14 02:00:00,39451.541451,FST,64.9,63.0,93.56,230.0,8.0,30.22,1018.9,10.0,,,OVC
2020-09-14 03:00:00,38145.998677,FST,64.9,63.0,93.56,220.0,7.0,30.22,1018.9,10.0,,,OVC
2020-09-14 04:00:00,37480.315914,FST,64.0,63.0,96.55,360.0,5.0,30.21,1018.9,10.0,,,OVC
2020-09-14 05:00:00,37558.423133,FST,64.0,64.0,100.0,360.0,4.0,30.21,1019.0,9.0,,,FEW
2020-09-14 06:00:00,38709.637161,FST,64.9,64.0,100.0,360.0,4.0,30.22,1019.3,8.0,,,FEW
2020-09-14 07:00:00,40929.682143,FST,64.9,64.0,96.9,40.0,2.0,30.22,1019.8,10.0,,,OVC
2020-09-14 08:00:00,42032.636646,FST,64.9,64.0,96.9,40.0,2.0,30.24,1020.4,10.0,,,BKN
2020-09-14 09:00:00,43307.355701,FST,66.0,64.9,100.0,360.0,2.0,30.26,1021.1,6.0,,,BKN
2020-09-14 10:00:00,45270.57828,FST,66.9,64.9,93.29,360.0,6.0,30.27,1021.4,8.0,,,BKN
2020-09-14 11:00:00,47872.622857,FST,66.9,66.0,96.93,80.0,7.0,30.28,1021.9,8.0,,,OVC
2020-09-14 12:00:00,51104.160827,FST,68.0,66.0,93.32,80.0,8.0,30.29,1022.3,7.0,,,BKN
2020-09-14 13:00:00,54395.900773,FST,70.0,66.9,92.71,80.0,8.0,30.29,1021.7,10.0,,,BKN
2020-09-14 14:00:00,57161.176641,FST,72.0,64.0,75.92,90.0,9.0,30.28,1021.0,10.0,,,FEW
2020-09-14 15:00:00,59194.426092,FST,72.0,64.9,80.78,80.0,8.0,30.27,1020.7,10.0,,,FEW
2020-09-14 16:00:00,60546.641526,FST,72.0,62.1,71.02,50.0,7.0,30.26,1020.2,10.0,,,FEW
2020-09-14 17:00:00,61045.651745,FST,71.1,64.9,80.78,360.0,10.0,30.24,1019.8,10.0,,,OVC
2020-09-14 18:00:00,60379.987162,FST,70.0,63.0,78.46,320.0,10.0,30.23,1020.0,10.0,,,SCT
2020-09-14 19:00:00,58324.229937,FST,66.9,64.0,90.4,300.0,11.0,30.23,1020.2,10.0,,,OVC
2020-09-14 20:00:00,56295.532149,FST,66.0,61.0,83.91,290.0,11.0,30.24,1020.1,10.0,,,BKN
2020-09-14 21:00:00,55053.870314,FST,64.9,61.0,87.18,260.0,9.0,30.24,1020.4,10.0,,,FEW
2020-09-14 22:00:00,52417.410463,FST,64.0,61.0,89.97,250.0,7.0,30.27,1021.3,10.0,,,OVC
2020-09-14 23:00:00,48977.046723,FST,64.0,60.1,87.14,260.0,8.0,30.28,1021.7,10.0,,,OVC
2020-09-15 00:00:00,45418.694813,FST,64.0,60.1,87.14,260.0,7.0,30.27,1021.4,10.0,,,OVC
2020-09-15 01:00:00,42665.586368,FST,64.0,60.1,87.14,250.0,5.0,30.27,1021.2,10.0,,,OVC
2020-09-15 02:00:00,40728.587898,FST,64.0,60.1,87.14,240.0,7.0,30.26,1020.8,10.0,,,OVC
2020-09-15 03:00:00,39276.43822,FST,64.0,59.0,83.78,240.0,7.0,30.25,1020.5,10.0,,,FEW
2020-09-15 04:00:00,38461.064855,FST,64.0,59.0,83.78,270.0,5.0,30.24,1020.0,10.0,,,OVC
2020-09-15 05:00:00,38537.953685,FST,63.0,60.1,90.25,320.0,5.0,30.23,1020.0,10.0,,,FEW
2020-09-15 06:00:00,39634.545833,FST,63.0,61.0,93.18,340.0,3.0,30.23,1020.0,10.0,,,OVC
2020-09-15 07:00:00,41823.327715,FST,63.0,61.0,93.18,350.0,4.0,30.23,1020.3,10.0,,,BKN
2020-09-15 08:00:00,42838.3239,FST,63.0,60.1,90.25,300.0,4.0,30.25,1020.8,10.0,,,FEW
2020-09-15 09:00:00,44261.770394,FST,64.9,59.0,81.19,310.0,4.0,30.26,1021.3,10.0,,,FEW
2020-09-15 10:00:00,46616.747032,FST,66.9,59.0,75.74,310.0,2.0,30.27,1021.6,10.0,,,OVC
2020-09-15 11:00:00,49766.487961,FST,72.0,61.0,68.31,290.0,5.0,30.28,1021.5,10.0,,,BKN
2020-09-15 12:00:00,53217.084081,FST,75.0,60.1,59.81,140.0,3.0,30.28,1021.2,10.0,,,CLR
2020-09-15 13:00:00,56607.168958,FST,75.0,60.1,59.81,340.0,5.0,30.27,1020.4,10.0,,,CLR
2020-09-15 14:00:00,59516.382737,FST,77.0,60.1,55.95,140.0,5.0,30.25,1019.7,10.0,,,BKN
2020-09-15 15:00:00,61120.848506,FST,78.1,55.9,46.4,150.0,5.0,30.23,1018.9,10.0,,,BKN
2020-09-15 16:00:00,61718.338977,FST,80.1,55.9,43.44,100.0,7.0,30.21,1017.6,10.0,,80.29,FEW
2020-09-15 17:00:00,61729.64235,FST,79.0,55.9,45.04,360.0,5.0,30.17,1016.8,10.0,,,CLR
2020-09-15 18:00:00,61157.920484,FST,81.0,55.0,40.83,360.0,5.0,30.14,1016.2,10.0,,80.73,FEW
2020-09-15 19:00:00,59258.488637,FST,80.1,54.0,40.54,150.0,5.0,30.13,1016.1,10.0,,80.04,CLR
2020-09-15 20:00:00,57048.959241,FST,75.9,55.0,48.3,90.0,5.0,30.13,1016.3,10.0,,,CLR
2020-09-15 21:00:00,55713.065702,FST,73.0,57.0,57.23,130.0,4.0,30.13,1016.5,10.0,,,CLR
2020-09-15 22:00:00,53064.73093,FST,70.0,60.1,70.81,170.0,5.0,30.15,1017.0,10.0,,,CLR
2020-09-15 23:00:00,49509.599779,FST,68.0,57.0,67.86,170.0,6.0,30.15,1016.8,10.0,,,CLR
2020-09-16 00:00:00,45799.856877,FST,68.0,55.9,65.22,180.0,7.0,30.15,1016.3,10.0,,,CLR
2020-09-16 01:00:00,42843.653979,FST,69.1,57.0,65.35,180.0,8.0,30.13,1016.0,10.0,,,CLR
2020-09-16 02:00:00,40627.767035,FST,68.0,57.9,70.1,190.0,7.0,30.13,1015.6,10.0,,,CLR
2020-09-16 03:00:00,39041.785475,FST,66.0,57.9,75.12,230.0,9.0,30.12,1015.3,10.0,,,CLR
2020-09-16 04:00:00,38162.929016,FST,64.9,57.9,78.05,220.0,9.0,30.11,1014.8,10.0,,,CLR
2020-09-16 05:00:00,38102.38596,FST,66.0,57.0,72.72,220.0,10.0,30.09,1014.5,10.0,,,CLR
2020-09-16 06:00:00,39186.22004,FST,66.0,55.9,69.88,220.0,9.0,30.09,1014.4,10.0,,,CLR
2020-09-16 07:00:00,41272.903318,FST,64.9,55.9,72.61,220.0,9.0,30.09,1014.7,10.0,,,CLR
2020-09-16 08:00:00,42247.569378,FST,66.9,55.9,67.74,210.0,9.0,30.1,1015.0,10.0,,,CLR
2020-09-16 09:00:00,43861.658615,FST,69.1,57.0,65.35,220.0,9.0,30.11,1015.5,10.0,,,CLR
2020-09-16 10:00:00,46793.194144,FST,73.0,59.0,61.5,230.0,10.0,30.13,1016.0,10.0,,,CLR
2020-09-16 11:00:00,50467.463741,FST,77.0,57.9,51.72,240.0,7.0,30.14,1016.4,10.0,,,CLR
2020-09-16 12:00:00,54443.170073,FST,79.0,54.0,42.03,160.0,5.0,30.14,1016.2,10.0,,,CLR
2020-09-16 13:00:00,57635.950286,FST,82.0,54.0,38.11,120.0,5.0,30.14,1015.6,10.0,,81.24,CLR
2020-09-16 14:00:00,59965.486528,FST,84.0,54.0,35.72,140.0,7.0,30.12,1014.9,10.0,,82.67,CLR
2020-09-16 15:00:00,61596.409419,FST,84.0,53.1,34.56,130.0,9.0,30.1,1014.1,10.0,,82.52,FEW
2020-09-16 16:00:00,62156.651523,FST,84.0,51.1,32.1,140.0,11.0,30.08,1013.7,10.0,,82.23,CLR
2020-09-16 17:00:00,61581.978278,FST,84.9,53.1,33.57,130.0,10.0,30.06,1012.8,10.0,,83.21,CLR
2020-09-16 18:00:00,59825.78452,FST,82.9,52.0,34.39,120.0,10.0,30.06,1013.2,10.0,,81.57,FEW
2020-09-16 19:00:00,57604.719873,FST,82.9,50.0,31.93,120.0,8.0,30.06,1013.5,10.0,,81.32,CLR
2020-09-16 20:00:00,56006.09075,FST,78.1,54.0,43.3,240.0,8.0,30.07,1013.9,10.0,,,CLR
2020-09-16 21:00:00,54720.327222,FST,75.0,55.9,51.43,300.0,5.0,30.09,1014.7,10.0,,,CLR
2020-09-16 22:00:00,52155.26502,FST,73.9,55.9,53.36,50.0,2.0,30.12,1015.6,10.0,,,CLR
2020-09-16 23:00:00,48771.706981,FST,70.0,57.0,63.37,360.0,5.0,30.13,1015.9,10.0,,,FEW
2020-09-17 00:00:00,45169.590148,FST,70.0,55.9,60.89,330.0,2.0,30.13,1015.9,10.0,,,CLR
2020-09-17 01:00:00,42362.386575,FST,69.1,55.9,62.8,360.0,3.0,30.14,1015.9,10.0,,,CLR
2020-09-17 02:00:00,40380.41261,FST,66.0,57.0,72.72,170.0,5.0,30.13,1015.5,10.0,,,CLR
2020-09-17 03:00:00,39030.568517,FST,66.0,57.9,75.12,180.0,7.0,30.12,1015.6,10.0,,,CLR
2020-09-17 04:00:00,38306.158383,FST,66.0,57.9,75.12,220.0,8.0,30.13,1015.3,10.0,,,CLR
2020-09-17 05:00:00,38375.305145,FST,64.9,59.0,81.19,230.0,9.0,30.12,1015.3,10.0,,,CLR
2020-09-17 06:00:00,39608.986232,FST,63.0,59.0,86.77,220.0,8.0,30.13,1016.0,10.0,,,FEW
2020-09-17 07:00:00,41803.841177,FST,63.0,59.0,86.77,350.0,5.0,30.15,1016.6,10.0,,,BKN
2020-09-17 08:00:00,42885.35077,FST,63.0,59.0,86.77,200.0,2.0,30.17,1017.5,10.0,,,FEW
2020-09-17 09:00:00,43987.885144,FST,66.0,60.1,81.27,250.0,4.0,30.19,1018.1,10.0,,,CLR
2020-09-17 10:00:00,46203.399812,FST,66.9,60.1,78.77,230.0,5.0,30.21,1018.8,10.0,,,SCT
2020-09-17 11:00:00,49035.768729,FST,70.0,61.0,73.11,250.0,5.0,30.21,1019.1,10.0,,,SCT
2020-09-17 12:00:00,52028.073224,FST,71.1,61.0,72.72,340.0,13.0,30.23,1019.6,10.0,18.0,,BKN
2020-09-17 13:00:00,54568.931215,FST,71.1,59.0,65.58,350.0,5.0,30.22,1019.2,10.0,,,FEW
2020-09-17 14:00:00,56429.233492,FST,77.0,61.0,57.77,360.0,7.0,30.21,1018.2,10.0,,,SCT
2020-09-17 15:00:00,57441.587685,FST,75.9,61.0,59.92,360.0,9.0,30.19,1017.3,10.0,,,FEW
2020-09-17 16:00:00,58181.327209,FST,81.0,57.9,45.34,360.0,11.0,30.16,1016.0,10.0,,81.2,FEW
2020-09-17 17:00:00,58144.583892,FST,82.0,55.9,40.83,360.0,11.0,30.13,1015.5,10.0,,81.55,FEW
2020-09-17 18:00:00,56940.348316,FST,82.0,53.1,36.87,40.0,14.0,30.12,1015.4,10.0,,81.11,SCT
2020-09-17 19:00:00,54840.88976,FST,80.1,52.0,37.67,70.0,13.0,30.11,1015.6,10.0,,79.81,SCT
2020-09-17 20:00:00,53144.140852,FST,75.9,54.0,46.57,80.0,9.0,30.12,1015.9,10.0,,,CLR
2020-09-17 21:00:00,51999.489032,FST,73.9,54.0,49.79,120.0,5.0,30.14,1016.5,10.0,,,SCT
2020-09-17 22:00:00,49581.38582,FST,73.0,52.0,47.69,130.0,5.0,30.16,1017.2,10.0,,,SCT
2020-09-17 23:00:00,46287.409996,FST,69.1,54.0,58.6,160.0,5.0,30.16,1017.5,10.0,,,CLR
2020-09-18 00:00:00,42824.526661,FST,68.0,53.1,58.88,160.0,6.0,30.17,1018.0,10.0,,,CLR
2020-09-18 01:00:00,40005.060071,FST,66.0,53.1,63.1,170.0,7.0,30.17,1017.9,10.0,,,SCT
2020-09-18 02:00:00,38051.339047,FST,64.9,53.1,65.56,160.0,5.0,30.17,1017.5,10.0,,,BKN
2020-09-18 03:00:00,36775.849755,FST,64.0,54.0,69.92,170.0,5.0,30.17,1017.5,10.0,,,CLR
2020-09-18 04:00:00,36058.967985,FST,61.0,55.0,80.61,180.0,5.0,30.17,1017.6,10.0,,,CLR
2020-09-18 05:00:00,36176.773565,FST,60.1,54.0,80.25,0.0,0.0,30.18,1017.7,10.0,,,FEW
2020-09-18 06:00:00,37401.133483,FST,63.0,54.0,72.42,0.0,0.0,30.18,1017.7,10.0,,,CLR
2020-09-18 07:00:00,39554.168144,FST,62.1,54.0,74.75,50.0,2.0,30.19,1018.4,10.0,,,CLR
2020-09-18 08:00:00,40577.218564,FST,61.0,54.0,77.72,0.0,0.0,30.22,1019.5,10.0,,,CLR
2020-09-18 09:00:00,41811.261362,FST,64.0,55.9,74.93,0.0,0.0,30.24,1020.1,10.0,,,BKN
2020-09-18 10:00:00,44035.885826,FST,68.0,57.0,67.86,90.0,4.0,30.25,1020.5,10.0,,,CLR
2020-09-18 11:00:00,46613.987301,FST,72.0,59.0,63.61,120.0,8.0,30.27,1020.8,10.0,,,CLR
2020-09-18 12:00:00,49360.05524,FST,75.9,57.9,53.64,100.0,8.0,30.26,1020.5,10.0,,,FEW
2020-09-18 13:00:00,52044.882589,FST,77.0,55.0,46.57,60.0,11.0,30.25,1019.9,10.0,,,SCT
2020-09-18 14:00:00,54336.275047,FST,79.0,54.0,42.03,360.0,11.0,30.24,1019.4,10.0,,,SCT
2020-09-18 15:00:00,56026.021499,FST,80.1,54.0,40.54,360.0,10.0,30.22,1018.3,10.0,,80.04,BKN
2020-09-18 16:00:00,57004.736403,FST,81.0,52.0,36.58,360.0,9.0,30.19,1017.5,10.0,,80.34,OVC
2020-09-18 17:00:00,56987.733092,FST,81.0,53.1,38.09,90.0,11.0,30.16,1017.0,10.0,,80.47,BKN
2020-09-18 18:00:00,55592.97815,FST,81.0,53.1,38.09,100.0,11.0,30.15,1016.7,10.0,,80.47,SCT
2020-09-18 19:00:00,53056.692147,FST,79.0,51.1,37.78,80.0,11.0,30.15,1016.6,10.0,,,SCT
2020-09-18 20:00:00,50774.247798,FST,75.9,51.1,41.86,90.0,10.0,30.16,1017.3,10.0,,,SCT
2020-09-18 21:00:00,49395.497058,FST,72.0,52.0,49.33,80.0,7.0,30.17,1017.9,10.0,,,CLR
2020-09-18 22:00:00,47060.102917,FST,70.0,52.0,52.8,90.0,6.0,30.2,1018.8,10.0,,,CLR
2020-09-18 23:00:00,44332.345415,FST,70.0,52.0,52.8,90.0,7.0,30.21,1019.1,10.0,,,CLR
2020-09-19 00:00:00,41498.506378,FST,68.0,53.1,58.88,120.0,7.0,30.22,1019.2,10.0,,,CLR
2020-09-19 01:00:00,38896.613732,FST,64.9,53.1,65.56,170.0,6.0,30.22,1019.1,10.0,,,CLR
2020-09-19 02:00:00,36894.883782,FST,63.0,54.0,72.42,170.0,5.0,30.21,1018.9,10.0,,,CLR
2020-09-19 03:00:00,35404.74054,FST,63.0,54.0,72.42,170.0,6.0,30.21,1018.7,10.0,,,CLR
2020-09-19 04:00:00,34332.335663,FST,62.1,54.0,74.75,170.0,5.0,30.21,1018.2,10.0,,,CLR
2020-09-19 05:00:00,33810.013895,FST,59.0,53.1,80.75,360.0,4.0,30.19,1018.3,10.0,,,CLR
2020-09-19 06:00:00,33810.76672,FST,60.1,54.0,80.25,140.0,3.0,30.19,1018.3,10.0,,,CLR
2020-09-19 07:00:00,34391.16849,FST,59.0,53.1,80.75,160.0,5.0,30.2,1018.8,10.0,,,CLR
2020-09-19 08:00:00,34728.375996,FST,57.9,53.1,84.0,170.0,5.0,30.21,1019.4,10.0,,,CLR
2020-09-19 09:00:00,36189.055951,FST,62.1,55.0,77.53,160.0,5.0,30.22,1019.8,10.0,,,CLR
2020-09-19 10:00:00,38376.063905,FST,66.9,55.9,67.74,160.0,7.0,30.23,1019.8,10.0,,,CLR
2020-09-19 11:00:00,40682.071721,FST,70.0,57.0,63.37,150.0,9.0,30.24,1020.0,10.0,,,CLR
2020-09-19 12:00:00,43191.13633,FST,73.0,55.9,55.0,160.0,9.0,30.24,1019.7,10.0,,,CLR
2020-09-19 13:00:00,45523.136983,FST,75.9,53.1,45.06,150.0,9.0,30.23,1019.1,10.0,,,FEW
2020-09-19 14:00:00,47410.741421,FST,77.0,53.1,43.44,180.0,11.0,30.21,1018.5,10.0,,,SCT
2020-09-19 15:00:00,48991.549172,FST,78.1,52.0,40.23,160.0,9.0,30.19,1017.4,10.0,,,SCT
2020-09-19 16:00:00,50258.480138,FST,80.1,52.0,37.67,140.0,11.0,30.16,1016.6,10.0,,79.81,BKN
2020-09-19 17:00:00,50804.242765,FST,79.0,52.0,39.06,150.0,11.0,30.14,1016.2,10.0,18.0,,FEW
2020-09-19 18:00:00,50248.592692,FST,80.1,53.1,39.23,130.0,13.0,30.12,1015.9,10.0,,79.94,CLR
2020-09-19 19:00:00,48489.405498,FST,79.0,51.1,37.78,140.0,11.0,30.12,1016.1,10.0,,,CLR
2020-09-19 20:00:00,46919.085568,FST,75.9,51.1,41.86,130.0,11.0,30.13,1016.4,10.0,,,CLR
2020-09-19 21:00:00,45727.40486,FST,73.9,52.0,46.27,130.0,7.0,30.14,1016.6,10.0,,,CLR
2020-09-19 22:00:00,43605.686104,FST,69.1,53.1,56.7,160.0,7.0,30.15,1017.2,10.0,,,CLR
2020-09-19 23:00:00,41224.132682,FST,68.0,54.0,60.86,160.0,5.0,30.17,1017.7,10.0,,,CLR
2020-09-20 00:00:00,38533.821919,FST,66.0,54.0,65.21,140.0,7.0,30.18,1018.0,10.0,,,CLR
2020-09-20 01:00:00,36049.013639,FST,63.0,54.0,72.42,150.0,5.0,30.18,1017.9,10.0,,,CLR
2020-09-20 02:00:00,34164.591847,FST,61.0,53.1,75.2,170.0,6.0,30.18,1017.9,10.0,,,CLR
2020-09-20 03:00:00,32770.692687,FST,61.0,53.1,75.2,160.0,7.0,30.17,1017.8,10.0,,,CLR
2020-09-20 04:00:00,31744.596873,FST,60.1,53.1,77.65,160.0,8.0,30.17,1017.5,10.0,,,CLR
2020-09-20 05:00:00,31137.376238,FST,60.1,53.1,77.65,160.0,8.0,30.17,1017.2,10.0,,,CLR
2020-09-20 06:00:00,30963.455807,FST,60.1,53.1,77.65,170.0,9.0,30.16,1017.4,10.0,,,CLR
2020-09-20 07:00:00,31087.341922,FST,59.0,53.1,80.75,160.0,8.0,30.17,1017.6,9.0,,,CLR
2020-09-20 08:00:00,31202.57761,FST,57.9,53.1,84.0,160.0,8.0,30.18,1018.2,9.0,,,CLR
2020-09-20 09:00:00,32635.238564,FST,60.1,54.0,80.25,160.0,10.0,30.2,1018.8,7.0,,,CLR
2020-09-20 10:00:00,34857.100256,FST,64.9,55.9,72.61,160.0,11.0,30.21,1019.3,9.0,,,CLR
2020-09-20 11:00:00,37066.345474,FST,69.1,57.0,65.35,170.0,11.0,30.21,1019.1,9.0,,,CLR
2020-09-20 12:00:00,39282.750113,FST,73.0,55.0,53.23,170.0,8.0,30.21,1018.9,10.0,,,CLR
2020-09-20 13:00:00,41178.751369,FST,75.0,54.0,47.99,160.0,8.0,30.2,1018.4,10.0,,,CLR
2020-09-20 14:00:00,42632.757108,FST,79.0,50.0,36.27,150.0,9.0,30.19,1017.7,10.0,,,CLR
2020-09-20 15:00:00,44018.792836,FST,80.1,51.1,36.44,120.0,10.0,30.17,1016.8,10.0,,79.72,CLR
2020-09-20 16:00:00,45203.169783,FST,82.0,50.0,32.88,120.0,11.0,30.14,1016.0,10.0,,80.73,CLR
2020-09-20 17:00:00,46299.505736,FST,81.0,48.0,31.52,130.0,11.0,30.12,1015.6,8.0,,79.92,CLR
2020-09-20 18:00:00,46733.799955,FST,81.0,48.0,31.52,130.0,10.0,30.11,1015.6,7.0,,79.92,CLR
2020-09-20 19:00:00,46106.041874,FST,79.0,48.0,33.66,120.0,11.0,30.11,1015.8,7.0,,,CLR
2020-09-20 20:00:00,45656.037351,FST,77.0,48.9,37.19,130.0,11.0,30.12,1016.0,7.0,,,CLR
2020-09-20 21:00:00,45273.211074,FST,75.0,48.9,39.75,130.0,9.0,30.12,1016.2,8.0,,,CLR
2020-09-20 22:00:00,43478.753824,FST,70.0,48.9,47.06,150.0,9.0,30.14,1016.8,8.0,,,CLR
2020-09-20 23:00:00,40950.837143,FST,66.9,50.0,54.54,160.0,7.0,30.15,1017.1,8.0,,,CLR
2020-09-21 00:00:00,38214.861459,FST,63.0,50.0,62.49,180.0,7.0,30.15,1017.3,8.0,,,CLR
2020-09-21 01:00:00,35954.37163,FST,64.0,48.0,55.99,170.0,9.0,30.16,1017.3,9.0,,,CLR
2020-09-21 02:00:00,34533.921977,FST,63.0,48.0,57.99,150.0,9.0,30.16,1016.9,9.0,,,CLR
2020-09-21 03:00:00,33645.074698,FST,61.0,48.0,62.23,150.0,9.0,30.15,1016.7,9.0,,,CLR
2020-09-21 04:00:00,33273.416476,FST,61.0,46.9,59.71,150.0,7.0,30.14,1016.5,9.0,,,CLR
2020-09-21 05:00:00,33571.675919,FST,59.0,46.9,64.12,150.0,8.0,30.14,1016.6,8.0,,,CLR
2020-09-21 06:00:00,34968.040959,FST,57.0,46.9,68.9,150.0,7.0,30.15,1016.9,8.0,,,CLR
2020-09-21 07:00:00,37328.692757,FST,55.9,46.9,71.69,150.0,8.0,30.17,1017.7,8.0,,,CLR
2020-09-21 08:00:00,38737.328694,FST,55.9,46.0,69.3,150.0,8.0,30.18,1018.3,9.0,,,CLR
2020-09-21 09:00:00,39547.751192,FST,59.0,46.9,64.12,170.0,8.0,30.2,1019.0,10.0,,,CLR
2020-09-21 10:00:00,40733.001132,FST,66.0,48.0,52.22,160.0,7.0,30.21,1019.2,10.0,,,CLR
2020-09-21 11:00:00,42020.036944,FST,70.0,46.9,43.66,140.0,9.0,30.22,1019.4,10.0,,,CLR
2020-09-21 12:00:00,43142.275464,FST,73.0,48.9,42.51,130.0,10.0,30.23,1019.6,10.0,,,CLR
2020-09-21 13:00:00,44016.683623,FST,75.9,46.0,34.58,100.0,9.0,30.22,1018.7,10.0,,,CLR
2020-09-21 14:00:00,44485.908655,FST,79.0,41.0,25.78,160.0,9.0,30.2,1017.9,10.0,,,CLR
2020-09-21 15:00:00,44478.295274,FST,80.1,37.9,22.03,120.0,10.0,30.18,1016.8,10.0,,78.85,CLR
2020-09-21 16:00:00,44193.855557,FST,81.0,39.0,22.33,80.0,10.0,30.14,1015.8,10.0,,79.33,CLR
2020-09-21 17:00:00,43974.944702,FST,82.0,42.1,24.38,140.0,10.0,30.12,1015.4,10.0,,80.09,CLR
2020-09-21 18:00:00,43711.421308,FST,82.0,45.0,27.24,140.0,9.0,30.11,1015.1,10.0,,80.28,CLR
2020-09-21 19:00:00,43259.167198,FST,80.1,48.9,33.58,90.0,10.0,30.1,1015.4,10.0,,79.5,CLR
2020-09-21 20:00:00,43306.624603,FST,75.9,52.0,43.28,100.0,9.0,30.1,1015.5,10.0,,,CLR
2020-09-21 21:00:00,43089.121743,FST,73.0,53.1,49.66,130.0,9.0,30.11,1016.0,10.0,,,CLR
2020-09-21 22:00:00,41814.631485,FST,70.0,53.1,54.98,140.0,9.0,30.14,1016.6,10.0,,,CLR
2020-09-21 23:00:00,39617.749227,FST,66.9,53.1,61.16,150.0,7.0,30.14,1016.8,10.0,,,CLR
2020-09-22 00:00:00,37197.258818,FST,64.9,52.0,62.96,160.0,7.0,30.15,1017.0,10.0,,,CLR
2020-09-22 01:00:00,35289.408594,FST,63.0,52.0,67.29,160.0,7.0,30.15,1016.7,10.0,,,CLR
2020-09-22 02:00:00,33968.515464,FST,62.1,52.0,69.46,170.0,5.0,30.14,1016.3,10.0,,,CLR
2020-09-22 03:00:00,33358.910406,FST,59.0,52.0,77.55,170.0,5.0,30.13,1016.3,10.0,,,CLR
2020-09-22 04:00:00,33097.368033,FST,57.9,52.0,80.67,180.0,4.0,30.13,1016.4,10.0,,,CLR
2020-09-22 05:00:00,33440.342659,FST,57.9,52.0,80.67,220.0,8.0,30.13,1016.4,10.0,,,CLR
2020-09-22 06:00:00,34852.253732,FST,57.9,52.0,80.67,220.0,8.0,30.14,1016.6,10.0,,,CLR
2020-09-22 07:00:00,37101.542614,FST,57.9,52.0,80.67,190.0,5.0,30.15,1016.9,10.0,,,CLR
2020-09-22 08:00:00,38572.891445,FST,55.0,50.0,83.2,180.0,5.0,30.16,1017.5,10.0,,,CLR
2020-09-22 09:00:00,39413.322302,FST,61.0,54.0,77.72,180.0,2.0,30.17,1017.9,10.0,,,CLR
2020-09-22 10:00:00,40479.07054,FST,66.9,55.9,67.74,40.0,2.0,30.18,1018.1,10.0,,,CLR
2020-09-22 11:00:00,41682.417551,FST,69.1,57.0,65.35,130.0,4.0,30.18,1018.2,10.0,,,CLR
2020-09-22 12:00:00,42888.191987,FST,75.0,55.9,51.43,340.0,2.0,30.18,1017.6,10.0,,,CLR
2020-09-22 13:00:00,43888.78177,FST,78.1,53.1,41.89,350.0,4.0,30.17,1016.8,10.0,,,CLR
2020-09-22 14:00:00,44705.394327,FST,81.0,50.0,33.97,350.0,5.0,30.14,1015.8,10.0,,80.12,CLR
2020-09-22 15:00:00,45328.212203,FST,82.9,46.9,28.43,350.0,7.0,30.12,1014.7,10.0,,81.01,CLR
2020-09-22 16:00:00,45511.728977,FST,84.0,42.1,22.85,360.0,7.0,30.08,1013.9,10.0,,81.43,CLR
2020-09-22 17:00:00,45821.256719,FST,84.0,43.0,23.66,360.0,7.0,30.06,1013.2,10.0,,81.48,CLR
2020-09-22 18:00:00,45800.56197,FST,84.9,43.0,22.98,80.0,8.0,30.04,1012.6,10.0,,82.13,CLR
2020-09-22 19:00:00,45258.799025,FST,82.9,41.0,22.7,350.0,7.0,30.03,1012.7,10.0,,80.62,CLR
2020-09-22 20:00:00,45078.297384,FST,78.1,46.0,32.15,110.0,5.0,30.03,1013.1,10.0,,,CLR
2020-09-22 21:00:00,44669.083041,FST,73.9,46.9,38.26,170.0,5.0,30.04,1013.4,10.0,,,CLR
2020-09-22 22:00:00,43156.095773,FST,71.1,46.9,42.05,170.0,6.0,30.05,1013.8,10.0,,,CLR
2020-09-22 23:00:00,40721.187552,FST,68.0,46.9,46.76,160.0,8.0,30.06,1013.8,10.0,,,CLR
2020-09-23 00:00:00,38122.611221,FST,66.0,46.9,50.1,170.0,8.0,30.06,1013.8,10.0,,,CLR
2020-09-23 01:00:00,36116.745979,FST,64.9,46.0,50.32,170.0,8.0,30.06,1013.5,10.0,,,CLR
2020-09-23 02:00:00,34684.788444,FST,64.0,46.0,51.93,160.0,8.0,30.05,1013.2,10.0,,,CLR
2020-09-23 03:00:00,33794.145073,FST,64.0,46.0,51.93,160.0,9.0,30.05,1012.9,10.0,,,CLR
2020-09-23 04:00:00,33387.202783,FST,64.0,46.0,51.93,160.0,10.0,30.04,1012.8,10.0,,,CLR
2020-09-23 05:00:00,33631.315256,FST,62.1,46.9,57.43,160.0,10.0,30.04,1012.4,10.0,,,CLR
2020-09-23 06:00:00,34833.863666,FST,61.0,50.0,67.06,170.0,11.0,30.02,1012.2,10.0,,,CLR
2020-09-23 07:00:00,37105.40092,FST,60.1,51.1,72.13,170.0,9.0,30.03,1012.7,10.0,,,CLR
2020-09-23 08:00:00,38486.881918,FST,60.1,50.0,69.24,190.0,9.0,30.03,1013.0,10.0,,,CLR
2020-09-23 09:00:00,39076.609269,FST,64.0,50.0,60.34,180.0,5.0,30.05,1013.5,10.0,,,CLR
2020-09-23 10:00:00,40033.572596,FST,70.0,54.0,56.82,140.0,5.0,30.06,1013.8,10.0,,,CLR
2020-09-23 11:00:00,41258.441528,FST,75.0,51.1,43.14,350.0,2.0,30.07,1014.2,10.0,,,CLR
2020-09-23 12:00:00,42654.938966,FST,81.0,51.1,35.38,340.0,4.0,30.07,1013.5,10.0,,80.23,CLR
2020-09-23 13:00:00,43815.087345,FST,84.9,48.0,27.79,110.0,7.0,30.06,1012.8,10.0,,82.53,CLR
2020-09-23 14:00:00,45041.671534,FST,89.1,48.9,25.14,140.0,5.0,30.04,1011.7,10.0,,86.09,CLR
2020-09-23 15:00:00,46040.334926,FST,90.0,46.0,21.91,150.0,5.0,30.01,1010.7,10.0,,86.55,CLR
2020-09-23 16:00:00,46677.221229,FST,91.0,46.0,21.24,160.0,8.0,29.98,1009.8,10.0,,87.45,CLR
2020-09-23 17:00:00,46963.011595,FST,91.0,48.9,23.68,230.0,8.0,29.96,1009.5,10.0,,87.82,CLR
2020-09-23 18:00:00,46732.462974,FST,90.0,51.1,26.52,140.0,10.0,29.95,1009.4,10.0,,87.24,CLR
2020-09-23 19:00:00,45977.82137,FST,88.0,52.0,29.21,120.0,11.0,29.95,1009.9,10.0,,85.6,CLR
2020-09-23 20:00:00,45697.465924,FST,82.9,51.1,33.27,110.0,11.0,29.97,1010.5,10.0,,81.45,CLR
2020-09-23 21:00:00,45193.882845,FST,81.0,50.0,33.97,120.0,10.0,29.98,1010.8,10.0,,80.12,CLR
2020-09-23 22:00:00,43411.503319,FST,78.1,48.0,34.67,130.0,9.0,30.0,1011.5,10.0,,,CLR
2020-09-23 23:00:00,40821.920052,FST,75.9,48.0,37.29,130.0,11.0,30.01,1011.6,10.0,,,CLR
2020-09-24 00:00:00,37894.07381,FST,73.9,50.0,42.97,140.0,10.0,30.02,1011.6,10.0,,,CLR
2020-09-24 01:00:00,35684.610358,FST,71.1,52.0,50.86,150.0,11.0,30.02,1011.2,10.0,,,CLR
2020-09-24 02:00:00,34167.509831,FST,71.1,52.0,50.86,160.0,11.0,30.01,1010.9,10.0,,,CLR
2020-09-24 03:00:00,33153.166091,FST,68.0,52.0,56.55,160.0,10.0,30.0,1011.0,10.0,,,CLR
2020-09-24 04:00:00,32657.744353,FST,68.0,53.1,58.88,150.0,9.0,30.0,1010.6,10.0,,,CLR
2020-09-24 05:00:00,32846.663918,FST,66.0,54.0,65.21,150.0,9.0,30.0,1010.7,10.0,,,CLR
2020-09-24 06:00:00,34030.718331,FST,64.0,54.0,69.92,140.0,5.0,30.01,1011.1,10.0,,,CLR
2020-09-24 07:00:00,36340.275427,FST,62.1,54.0,74.75,200.0,4.0,30.02,1012.1,10.0,,,CLR
2020-09-24 08:00:00,37666.616897,FST,64.0,55.9,74.93,190.0,8.0,30.03,1012.5,10.0,,,CLR
2020-09-24 09:00:00,38521.616336,FST,66.0,59.0,78.14,160.0,8.0,30.06,1013.4,10.0,,,CLR
2020-09-24 10:00:00,39772.015392,FST,71.1,60.1,68.21,160.0,9.0,30.07,1013.8,10.0,,,CLR
2020-09-24 11:00:00,41090.41397,FST,75.9,55.0,48.3,210.0,5.0,30.08,1014.0,10.0,,,CLR
2020-09-24 12:00:00,42340.729262,FST,80.1,54.0,40.54,290.0,2.0,30.08,1013.7,10.0,,80.04,CLR
2020-09-24 13:00:00,43408.953945,FST,84.0,55.0,37.05,360.0,5.0,30.08,1013.2,10.0,,82.85,CLR
2020-09-24 14:00:00,44537.623559,FST,88.0,52.0,29.21,150.0,5.0,30.06,1012.3,10.0,,85.6,CLR
2020-09-24 15:00:00,45729.269989,FST,88.0,48.9,26.03,140.0,9.0,30.04,1011.5,10.0,,,CLR
2020-09-24 16:00:00,47067.869516,FST,89.1,48.9,25.14,200.0,9.0,30.01,1010.6,10.0,,86.09,CLR
2020-09-24 17:00:00,48066.263963,FST,88.0,46.9,24.15,350.0,11.0,29.99,1010.4,10.0,,84.9,CLR
2020-09-24 18:00:00,48232.4412,FST,88.0,51.1,28.25,130.0,11.0,29.98,1010.3,10.0,,85.45,CLR
2020-09-24 19:00:00,47306.192496,FST,86.0,52.0,31.13,120.0,12.0,29.98,1010.6,10.0,,83.91,CLR
2020-09-24 20:00:00,46492.054989,FST,82.0,54.0,38.11,130.0,13.0,30.0,1011.4,10.0,,81.24,CLR
2020-09-24 21:00:00,45624.468188,FST,78.1,55.9,46.4,150.0,11.0,30.0,1011.8,10.0,15.0,,CLR
2020-09-24 22:00:00,43582.971764,FST,75.0,57.0,53.52,160.0,11.0,30.02,1012.2,10.0,15.0,,CLR
2020-09-24 23:00:00,40817.236194,FST,73.0,57.0,57.23,160.0,11.0,30.03,1012.3,10.0,,,CLR
2020-09-25 00:00:00,37984.123779,FST,71.1,57.0,61.04,160.0,11.0,30.03,1012.2,10.0,,,CLR
2020-09-25 01:00:00,35544.617741,FST,70.0,57.0,63.37,160.0,11.0,30.03,1012.1,10.0,,,CLR
2020-09-25 02:00:00,33936.217881,FST,70.0,55.9,60.89,170.0,11.0,30.03,1011.5,10.0,,,CLR
2020-09-25 03:00:00,32886.530343,FST,69.1,54.0,58.6,170.0,10.0,30.02,1011.1,10.0,,,CLR
2020-09-25 04:00:00,32369.656007,FST,66.9,48.9,52.35,220.0,11.0,30.0,1010.9,10.0,,,CLR
2020-09-25 05:00:00,32499.863314,FST,66.0,48.0,52.22,220.0,12.0,29.99,1010.7,10.0,,,M
2020-09-25 06:00:00,33686.490459,FST,64.9,46.9,52.06,220.0,11.0,29.99,1010.9,10.0,,,M
2020-09-25 07:00:00,35806.017305,FST,64.9,48.0,54.26,220.0,11.0,30.0,1011.3,10.0,,,M
2020-09-25 08:00:00,37023.682009,FST,63.0,43.0,47.97,210.0,11.0,30.02,1012.1,10.0,,,M
2020-09-25 09:00:00,38169.579209,FST,70.0,37.9,30.88,210.0,10.0,30.03,1012.4,10.0,,,CLR
2020-09-25 10:00:00,40017.541588,FST,75.9,41.0,28.56,200.0,8.0,30.05,1012.8,10.0,,,CLR
2020-09-25 11:00:00,42051.509338,FST,80.1,44.1,28.01,180.0,3.0,30.05,1013.0,10.0,,79.12,CLR
2020-09-25 12:00:00,44303.837526,FST,86.0,43.0,22.19,130.0,5.0,30.05,1012.5,10.0,,82.97,CLR
2020-09-25 13:00:00,46646.998185,FST,88.0,43.0,20.82,140.0,4.0,30.05,1012.0,10.0,,,CLR
2020-09-25 14:00:00,49331.861632,FST,90.0,39.9,17.34,260.0,5.0,30.03,1011.1,10.0,,86.11,CLR
2020-09-25 15:00:00,51872.271784,FST,91.0,37.0,15.0,210.0,5.0,30.01,1010.1,10.0,,86.86,CLR
2020-09-25 16:00:00,53814.482604,FST,91.9,34.0,12.95,200.0,7.0,29.98,1009.3,10.0,,87.56,CLR
2020-09-25 17:00:00,54880.891496,FST,93.0,33.1,12.07,240.0,5.0,29.95,1008.8,10.0,,88.29,CLR
2020-09-25 18:00:00,54395.015994,FST,93.0,39.0,15.24,200.0,7.0,29.94,1008.5,10.0,,88.73,CLR
2020-09-25 19:00:00,52243.162027,FST,90.0,52.0,27.42,130.0,11.0,29.93,1008.6,10.0,,87.4,CLR
2020-09-25 20:00:00,49918.477067,FST,86.0,53.1,32.41,130.0,11.0,29.94,1009.2,10.0,,84.09,CLR
2020-09-25 21:00:00,48171.519135,FST,81.0,54.0,39.37,150.0,11.0,29.95,1009.7,10.0,15.0,80.59,CLR
2020-09-25 22:00:00,45847.664996,FST,78.1,54.0,43.3,150.0,12.0,29.97,1010.2,10.0,19.0,,CLR
2020-09-25 23:00:00,43131.538909,FST,75.0,55.9,51.43,150.0,12.0,29.98,1010.1,10.0,,,CLR
2020-09-26 00:00:00,40222.775174,FST,73.9,60.1,62.05,160.0,14.0,29.97,1009.7,10.0,19.0,,CLR
2020-09-26 01:00:00,37775.565342,FST,73.0,61.0,66.04,160.0,15.0,29.97,1009.5,10.0,18.0,,CLR
2020-09-26 02:00:00,35848.485793,FST,72.0,60.1,66.16,160.0,15.0,29.97,1009.2,10.0,19.0,,CLR
2020-09-26 03:00:00,34515.751042,FST,71.1,59.0,65.58,160.0,15.0,29.95,1008.8,10.0,,,CLR
2020-09-26 04:00:00,33606.165903,FST,69.1,59.0,70.21,160.0,13.0,29.94,1008.3,10.0,,,CLR
2020-09-26 05:00:00,33176.408916,FST,68.0,59.0,72.92,160.0,13.0,29.93,1008.0,10.0,,,CLR
2020-09-26 06:00:00,33345.396415,FST,66.9,59.0,75.74,170.0,13.0,29.92,1008.1,10.0,,,CLR
2020-09-26 07:00:00,34116.874994,FST,66.0,57.9,75.12,170.0,11.0,29.92,1008.2,10.0,,,CLR
2020-09-26 08:00:00,34716.097662,FST,64.0,57.9,80.54,170.0,10.0,29.93,1008.9,10.0,,,CLR
2020-09-26 09:00:00,36380.990831,FST,68.0,57.9,70.1,170.0,9.0,29.93,1009.0,10.0,,,CLR
2020-09-26 10:00:00,39087.155531,FST,79.0,55.9,45.04,170.0,9.0,29.93,1008.5,10.0,,,CLR
2020-09-26 11:00:00,42056.824777,FST,88.0,48.9,26.03,240.0,13.0,29.93,1008.3,10.0,,85.13,CLR
2020-09-26 12:00:00,45079.087104,FST,91.9,45.0,19.88,290.0,10.0,29.93,1008.2,10.0,,88.17,CLR
2020-09-26 13:00:00,48104.694974,FST,95.0,43.0,16.73,330.0,11.0,29.93,1007.8,10.0,,90.88,CLR
2020-09-26 14:00:00,51020.384788,FST,93.9,43.0,17.31,350.0,11.0,29.92,1007.3,10.0,,89.84,CLR
2020-09-26 15:00:00,53683.938171,FST,96.1,41.0,14.97,350.0,8.0,29.9,1006.2,10.0,,91.73,CLR
2020-09-26 16:00:00,55467.983928,FST,96.1,39.9,14.35,360.0,5.0,29.87,1005.4,10.0,,91.64,CLR
2020-09-26 17:00:00,56383.175563,FST,98.1,39.9,13.5,360.0,5.0,29.85,1004.7,10.0,,93.51,CLR
2020-09-26 18:00:00,56191.099845,FST,97.0,39.9,13.96,340.0,5.0,29.83,1004.6,10.0,,92.48,CLR
2020-09-26 19:00:00,54069.017885,FST,96.1,42.1,15.62,350.0,4.0,29.82,1004.3,10.0,,91.83,CLR
2020-09-26 20:00:00,52000.155694,FST,89.1,55.0,31.49,150.0,13.0,29.82,1004.9,10.0,,87.21,CLR
2020-09-26 21:00:00,50369.599665,FST,84.0,59.0,42.8,160.0,14.0,29.83,1005.6,10.0,17.0,83.75,CLR
2020-09-26 22:00:00,48108.247964,FST,80.1,60.1,50.52,160.0,12.0,29.85,1005.5,10.0,17.0,80.94,CLR
2020-09-26 23:00:00,45593.45752,FST,78.1,62.1,57.92,170.0,13.0,29.85,1005.4,10.0,,,CLR
2020-09-27 00:00:00,43062.310257,FST,75.9,62.1,62.3,170.0,13.0,29.85,1005.3,10.0,,,CLR
2020-09-27 01:00:00,40839.733107,FST,73.9,60.1,62.05,190.0,10.0,29.85,1005.1,10.0,,,CLR
2020-09-27 02:00:00,39005.330521,FST,75.9,55.0,48.3,210.0,11.0,29.84,1004.8,10.0,,,CLR
2020-09-27 03:00:00,37757.678668,FST,75.9,50.0,40.19,220.0,13.0,29.83,1004.3,10.0,,,CLR
2020-09-27 04:00:00,36993.474686,FST,75.0,45.0,34.31,230.0,13.0,29.83,1004.2,10.0,,,CLR
2020-09-27 05:00:00,36575.725946,FST,73.9,42.1,31.86,220.0,11.0,29.82,1004.2,10.0,,,CLR
2020-09-27 06:00:00,36696.414707,FST,73.9,39.0,28.25,220.0,13.0,29.83,1004.5,10.0,,,CLR
2020-09-27 07:00:00,37083.446088,FST,73.9,37.9,27.06,220.0,15.0,29.84,1004.8,10.0,,,CLR
2020-09-27 08:00:00,37432.747579,FST,73.0,37.9,27.89,220.0,13.0,29.84,1005.3,10.0,,,CLR
2020-09-27 09:00:00,39164.375337,FST,78.1,39.9,25.44,220.0,14.0,29.85,1005.6,10.0,,,CLR
2020-09-27 10:00:00,42454.246075,FST,82.0,43.0,25.24,270.0,13.0,29.88,1006.5,10.0,,80.15,CLR
2020-09-27 11:00:00,45769.526735,FST,87.1,43.0,21.42,280.0,11.0,29.89,1006.8,10.0,,83.84,CLR
2020-09-27 12:00:00,48915.349559,FST,91.9,39.0,15.77,310.0,11.0,29.89,1006.8,10.0,,87.74,CLR
2020-09-27 13:00:00,52058.191557,FST,95.0,37.9,13.73,340.0,13.0,29.89,1006.3,10.0,18.0,90.48,CLR
2020-09-27 14:00:00,54947.733197,FST,97.0,37.9,12.91,330.0,13.0,29.88,1005.3,10.0,15.0,92.3,CLR
2020-09-27 15:00:00,57462.168676,FST,99.0,39.0,12.68,330.0,13.0,29.85,1004.1,10.0,,94.19,CLR
2020-09-27 16:00:00,59307.620767,FST,99.0,35.1,10.87,340.0,11.0,29.82,1003.2,10.0,17.0,93.48,CLR
2020-09-27 17:00:00,60173.155587,FST,99.0,35.1,10.87,350.0,14.0,29.79,1002.9,10.0,,93.48,CLR
2020-09-27 18:00:00,59895.583709,FST,99.0,36.0,11.27,360.0,14.0,29.78,1002.7,10.0,17.0,93.63,CLR
2020-09-27 19:00:00,58118.939384,FST,98.1,37.9,12.48,360.0,7.0,29.78,1002.9,10.0,,93.22,CLR
2020-09-27 20:00:00,56658.822796,FST,88.0,37.9,17.08,290.0,6.0,29.79,1003.6,10.0,,84.34,CLR
2020-09-27 21:00:00,55324.135048,FST,84.0,37.9,19.41,290.0,5.0,29.81,1004.1,10.0,,81.25,CLR
2020-09-27 22:00:00,52808.847736,FST,79.0,39.0,23.85,230.0,8.0,29.82,1004.6,10.0,,,CLR
2020-09-27 23:00:00,49484.594023,FST,82.0,37.0,19.99,360.0,11.0,29.85,1004.8,10.0,,79.86,CLR
2020-09-28 00:00:00,45563.845611,FST,82.9,48.9,33.58,60.0,16.0,29.91,1007.3,10.0,21.0,80.49,CLR
2020-09-28 01:00:00,42039.37947,FST,73.0,60.1,63.96,50.0,25.0,29.97,1009.5,10.0,33.0,,CLR
2020-09-28 02:00:00,39727.778091,FST,64.0,55.0,72.52,50.0,25.0,30.03,1011.9,10.0,33.0,,CLR
2020-09-28 03:00:00,38178.3572,FST,62.1,48.0,59.86,40.0,24.0,30.15,1015.9,10.0,31.0,,OVC
2020-09-28 04:00:00,37236.832965,FST,62.1,46.0,55.51,30.0,24.0,30.2,1017.6,10.0,31.0,,BKN
2020-09-28 05:00:00,37107.213173,FST,61.0,39.0,44.1,40.0,22.0,30.22,1018.3,10.0,29.0,,OVC
2020-09-28 06:00:00,37944.562902,FST,61.0,37.0,40.77,40.0,17.0,30.24,1019.0,10.0,19.0,,OVC
2020-09-28 07:00:00,39603.980909,FST,61.0,35.1,37.81,40.0,16.0,30.27,1020.0,10.0,,,OVC
2020-09-28 08:00:00,40220.028536,FST,61.0,36.0,39.19,40.0,13.0,30.3,1021.6,10.0,,,OVC
2020-09-28 09:00:00,40269.592067,FST,62.1,35.1,36.37,50.0,10.0,30.32,1022.4,10.0,,,OVC
2020-09-28 10:00:00,40742.609183,FST,62.1,34.0,34.81,360.0,15.0,30.33,1022.9,10.0,,,OVC
2020-09-28 11:00:00,41534.80062,FST,64.0,34.0,32.56,40.0,14.0,30.33,1022.9,10.0,19.0,,OVC
2020-09-28 12:00:00,42492.003055,FST,66.9,34.0,29.44,360.0,13.0,30.34,1023.0,10.0,18.0,,BKN
2020-09-28 13:00:00,43497.175074,FST,68.0,34.0,28.34,350.0,11.0,30.34,1023.0,10.0,18.0,,FEW
2020-09-28 14:00:00,44517.886033,FST,69.1,34.0,27.29,350.0,13.0,30.33,1022.8,10.0,18.0,,CLR
2020-09-28 15:00:00,45094.634773,FST,72.0,34.0,24.72,360.0,14.0,30.31,1021.9,10.0,19.0,,CLR
2020-09-28 16:00:00,45556.143878,FST,71.1,30.9,22.5,360.0,13.0,30.28,1021.4,10.0,17.0,,CLR
2020-09-28 17:00:00,45813.915087,FST,72.0,32.0,22.82,360.0,13.0,30.27,1020.8,10.0,17.0,,BKN
2020-09-28 18:00:00,45194.351036,FST,72.0,28.9,20.12,360.0,14.0,30.25,1020.5,10.0,21.0,,FEW
2020-09-28 19:00:00,43830.9099,FST,71.1,28.0,19.99,50.0,11.0,30.25,1020.9,10.0,,,CLR
2020-09-28 20:00:00,43458.530849,FST,69.1,28.0,21.4,30.0,11.0,30.27,1021.7,10.0,,,CLR
2020-09-28 21:00:00,42799.023607,FST,64.9,28.0,24.75,50.0,5.0,30.29,1022.3,10.0,,,OVC
2020-09-28 22:00:00,40893.719942,FST,62.1,28.0,27.3,50.0,5.0,30.32,1023.3,10.0,,,FEW
2020-09-28 23:00:00,38157.383794,FST,59.0,27.0,29.25,80.0,7.0,30.34,1024.2,10.0,,,CLR
2020-09-29 00:00:00,35310.349598,FST,57.9,27.0,30.43,80.0,5.0,30.35,1024.6,10.0,,,CLR
2020-09-29 01:00:00,33180.167722,FST,59.0,27.0,29.25,130.0,5.0,30.36,1024.7,10.0,,,CLR
2020-09-29 02:00:00,31734.336818,FST,55.0,27.0,33.79,170.0,5.0,30.36,1024.9,10.0,,,CLR
2020-09-29 03:00:00,30801.739342,FST,54.0,27.0,35.05,170.0,4.0,30.36,1024.6,10.0,,,CLR
2020-09-29 04:00:00,30284.00537,FST,53.1,27.0,36.22,190.0,5.0,30.35,1024.1,10.0,,,CLR
2020-09-29 05:00:00,30468.943441,FST,51.1,27.0,38.99,190.0,7.0,30.34,1024.2,10.0,,,CLR
2020-09-29 06:00:00,31653.175869,FST,48.9,28.9,45.75,220.0,10.0,30.35,1024.6,10.0,,44.53,CLR
2020-09-29 07:00:00,34030.104445,FST,48.9,28.9,45.75,230.0,10.0,30.36,1025.0,10.0,,44.53,CLR
2020-09-29 08:00:00,35277.163753,FST,48.9,28.9,45.75,230.0,10.0,30.36,1025.3,10.0,,44.16,CLR
2020-09-29 09:00:00,35977.292454,FST,54.0,28.9,37.89,230.0,10.0,30.37,1025.3,10.0,,,CLR
2020-09-29 10:00:00,36991.781369,FST,60.1,30.0,31.8,240.0,7.0,30.38,1025.5,10.0,,,CLR
2020-09-29 11:00:00,38342.738161,FST,64.9,28.0,24.75,290.0,5.0,30.38,1025.4,10.0,,,CLR
2020-09-29 12:00:00,39795.203563,FST,69.1,25.0,18.91,270.0,5.0,30.37,1024.8,10.0,,,CLR
2020-09-29 13:00:00,40977.553988,FST,71.1,26.1,18.48,300.0,4.0,30.36,1024.0,10.0,,,CLR
2020-09-29 14:00:00,42240.078311,FST,72.0,25.0,17.13,350.0,4.0,30.34,1022.9,10.0,,,CLR
2020-09-29 15:00:00,43600.344574,FST,73.9,26.1,16.81,300.0,5.0,30.3,1021.5,10.0,,,CLR
2020-09-29 16:00:00,45008.729014,FST,77.0,25.0,14.49,220.0,5.0,30.26,1020.5,10.0,,,CLR
2020-09-29 17:00:00,46144.059336,FST,75.9,24.1,14.47,220.0,5.0,30.23,1019.9,10.0,,,CLR
2020-09-29 18:00:00,46397.773892,FST,77.0,23.0,13.32,290.0,5.0,30.22,1019.6,10.0,,,CLR
2020-09-29 19:00:00,45344.025696,FST,75.9,21.9,13.19,330.0,4.0,30.21,1019.5,10.0,,,CLR
2020-09-29 20:00:00,44116.301093,FST,71.1,26.1,18.48,0.0,0.0,30.21,1020.0,10.0,,,CLR
2020-09-29 21:00:00,42438.648438,FST,66.9,27.0,22.15,170.0,4.0,30.22,1020.1,10.0,,,CLR
2020-09-29 22:00:00,39894.16304,FST,63.0,25.0,23.36,170.0,8.0,30.22,1020.2,10.0,,,CLR
2020-09-29 23:00:00,37341.791822,FST,63.0,25.0,23.36,170.0,9.0,30.22,1019.8,10.0,,,CLR
2020-09-30 00:00:00,34452.407047,FST,63.0,26.1,24.46,190.0,10.0,30.21,1019.2,10.0,,,CLR
2020-09-30 01:00:00,32350.246646,FST,63.0,26.1,24.46,200.0,11.0,30.21,1018.6,10.0,,,CLR
2020-09-30 02:00:00,31041.665399,FST,62.1,26.1,25.24,200.0,11.0,30.19,1018.4,10.0,,,CLR
2020-09-30 03:00:00,30235.288942,FST,61.0,27.0,27.24,210.0,11.0,30.18,1017.6,10.0,,,CLR
2020-09-30 04:00:00,29910.018214,FST,61.0,27.0,27.24,210.0,13.0,30.16,1016.9,10.0,,,CLR
2020-09-30 05:00:00,30226.828412,FST,60.1,27.0,28.13,220.0,14.0,30.14,1016.5,10.0,,,CLR
2020-09-30 06:00:00,31504.205071,FST,60.1,27.0,28.13,220.0,13.0,30.13,1016.4,10.0,,,CLR
2020-09-30 07:00:00,33825.253879,FST,60.1,27.0,28.13,220.0,13.0,30.14,1016.7,10.0,,,CLR
2020-09-30 08:00:00,34958.388128,FST,60.1,27.0,28.13,230.0,11.0,30.15,1017.2,10.0,,,CLR
2020-09-30 09:00:00,35722.247421,FST,64.0,28.0,25.54,220.0,11.0,30.16,1017.6,10.0,,,CLR
2020-09-30 10:00:00,36868.987579,FST,72.0,32.0,22.82,230.0,11.0,30.18,1018.0,10.0,,,CLR
2020-09-30 11:00:00,38390.837867,FST,78.1,30.0,17.16,250.0,10.0,30.18,1017.9,10.0,,,CLR
2020-09-30 12:00:00,40248.056613,FST,81.0,28.0,14.38,230.0,5.0,30.18,1017.8,10.0,,78.98,CLR
2020-09-30 13:00:00,42313.570458,FST,84.0,28.9,13.53,120.0,4.0,30.18,1017.1,10.0,,81.1,CLR
2020-09-30 14:00:00,44970.238458,FST,84.0,28.9,13.53,330.0,5.0,30.16,1016.3,10.0,,,CLR
2020-09-30 15:00:00,47539.387566,FST,84.9,27.0,12.16,250.0,5.0,30.13,1015.2,10.0,,81.65,CLR
2020-09-30 16:00:00,50008.253828,FST,87.1,28.0,11.81,120.0,8.0,30.1,1014.2,10.0,,83.29,CLR
2020-09-30 17:00:00,51625.930682,FST,88.0,27.0,11.02,360.0,8.0,30.08,1013.8,10.0,,83.87,CLR
2020-09-30 18:00:00,51884.435954,FST,88.0,28.9,11.91,140.0,7.0,30.07,1013.8,10.0,,84.03,CLR
2020-09-30 19:00:00,50144.236767,FST,86.0,30.0,13.28,150.0,9.0,30.07,1014.1,10.0,,82.64,CLR
2020-09-30 20:00:00,48016.094271,FST,80.1,30.0,16.07,110.0,11.0,30.09,1014.8,10.0,,78.57,CLR
2020-09-30 21:00:00,46095.763225,FST,77.0,27.0,15.74,130.0,11.0,30.11,1015.5,10.0,18.0,,CLR
2020-09-30 22:00:00,43321.535844,FST,73.0,27.0,17.99,150.0,11.0,30.13,1016.0,10.0,,,CLR
2020-09-30 23:00:00,40005.418776,FST,69.1,28.0,21.4,150.0,11.0,30.14,1016.4,10.0,,,CLR
2020-10-01 00:00:00,36819.26857,FST,66.9,30.0,25.05,160.0,11.0,30.15,1016.7,10.0,,,CLR
2020-10-01 01:00:00,34201.396792,FST,66.0,33.1,29.29,160.0,13.0,30.16,1016.8,10.0,,,CLR
2020-10-01 02:00:00,32407.97674,FST,64.0,33.1,31.41,160.0,14.0,30.16,1016.9,10.0,,,CLR
2020-10-01 03:00:00,31211.879592,FST,62.1,33.1,33.58,170.0,11.0,30.16,1016.8,10.0,,,CLR
2020-10-01 04:00:00,30687.382715,FST,61.0,34.0,36.19,170.0,11.0,30.16,1016.7,10.0,,,CLR
2020-10-01 05:00:00,30825.254595,FST,59.0,33.1,37.49,170.0,10.0,30.15,1016.6,10.0,,,CLR
2020-10-01 06:00:00,32006.695458,FST,59.0,33.1,37.49,170.0,10.0,30.16,1016.8,10.0,,,CLR
2020-10-01 07:00:00,34390.220248,FST,61.0,33.1,34.91,170.0,11.0,30.16,1017.1,10.0,,,CLR
2020-10-01 08:00:00,35596.496876,FST,57.9,34.0,40.43,170.0,10.0,30.19,1018.3,10.0,,,CLR
2020-10-01 09:00:00,36486.662638,FST,61.0,36.0,39.19,120.0,2.0,30.21,1019.3,10.0,,,CLR
2020-10-01 10:00:00,38053.795153,FST,69.1,36.0,29.55,140.0,7.0,30.24,1019.9,10.0,,,CLR
2020-10-01 11:00:00,40055.178374,FST,77.0,35.1,21.85,140.0,11.0,30.25,1020.2,10.0,,,CLR
2020-10-01 12:00:00,42166.130654,FST,81.0,34.0,18.33,140.0,16.0,30.26,1020.2,10.0,21.0,79.13,CLR
2020-10-01 13:00:00,44292.527926,FST,82.9,33.1,16.62,140.0,19.0,30.26,1020.0,10.0,24.0,80.36,CLR
2020-10-01 14:00:00,46543.323708,FST,84.0,32.0,15.35,130.0,19.0,30.25,1019.6,10.0,23.0,81.13,CLR
2020-10-01 15:00:00,48670.456826,FST,84.0,32.0,15.35,130.0,18.0,30.24,1018.7,10.0,21.0,81.13,CLR
2020-10-01 16:00:00,50322.159693,FST,84.0,32.0,15.35,130.0,15.0,30.21,1018.1,10.0,,81.13,CLR
2020-10-01 17:00:00,51370.605068,FST,84.0,33.1,16.04,140.0,17.0,30.19,1018.0,10.0,,81.14,CLR
2020-10-01 18:00:00,50928.413772,FST,82.9,33.1,16.62,130.0,15.0,30.19,1018.2,10.0,21.0,80.36,CLR
2020-10-01 19:00:00,48893.943631,FST,81.0,33.1,17.68,130.0,14.0,30.2,1018.4,10.0,,79.1,CLR
2020-10-01 20:00:00,47263.970508,FST,78.1,34.0,20.16,140.0,11.0,30.2,1019.0,10.0,,,CLR
2020-10-01 21:00:00,45671.520684,FST,70.0,35.1,27.65,160.0,7.0,30.22,1019.7,10.0,,,CLR
2020-10-01 22:00:00,43345.403391,FST,66.9,35.1,30.75,170.0,7.0,30.24,1020.2,10.0,,,CLR
2020-10-01 23:00:00,40322.624923,FST,64.0,35.1,34.02,170.0,8.0,30.25,1020.2,10.0,,,CLR
2020-10-02 00:00:00,37321.464179,FST,63.0,36.0,36.52,170.0,5.0,30.26,1020.3,10.0,,,CLR
2020-10-02 01:00:00,34804.598095,FST,60.1,35.1,39.04,160.0,5.0,30.25,1020.0,10.0,,,CLR
2020-10-02 02:00:00,33053.958821,FST,55.9,35.1,45.4,160.0,5.0,30.25,1020.4,10.0,,,CLR
2020-10-02 03:00:00,31929.78949,FST,55.9,36.0,47.05,160.0,5.0,30.25,1020.0,10.0,,,CLR
2020-10-02 04:00:00,31358.2819,FST,55.9,36.0,47.05,130.0,5.0,30.24,1019.5,10.0,,,CLR
2020-10-02 05:00:00,31438.652465,FST,55.9,36.0,47.05,130.0,5.0,30.23,1019.5,10.0,,,CLR
2020-10-02 06:00:00,32480.590219,FST,51.1,37.0,58.36,360.0,6.0,30.24,1020.5,10.0,,,CLR
2020-10-02 07:00:00,34620.491643,FST,51.1,41.0,68.23,150.0,5.0,30.25,1020.8,10.0,,,CLR
2020-10-02 08:00:00,35910.217782,FST,53.1,39.0,58.64,140.0,9.0,30.26,1020.8,10.0,,,CLR
2020-10-02 09:00:00,36825.280405,FST,59.0,43.0,55.28,150.0,10.0,30.25,1021.0,10.0,,,CLR
2020-10-02 10:00:00,38070.736796,FST,64.0,43.0,46.32,180.0,11.0,30.27,1021.2,10.0,,,CLR
2020-10-02 11:00:00,39670.111166,FST,69.1,43.0,38.82,150.0,11.0,30.26,1020.7,10.0,,,CLR
2020-10-02 12:00:00,41056.619426,FST,75.0,43.0,31.79,140.0,11.0,30.25,1020.0,10.0,15.0,,CLR
2020-10-02 13:00:00,42387.331155,FST,79.0,43.0,27.84,150.0,15.0,30.23,1018.6,10.0,18.0,,CLR
2020-10-02 14:00:00,44131.422453,FST,82.0,42.1,24.38,160.0,16.0,30.19,1017.6,10.0,21.0,80.09,CLR
2020-10-02 15:00:00,45834.747723,FST,84.0,42.1,22.85,160.0,15.0,30.16,1016.3,10.0,20.0,81.43,CLR
2020-10-02 16:00:00,47224.343326,FST,84.9,37.9,18.86,200.0,14.0,30.12,1015.0,10.0,17.0,81.91,CLR
2020-10-02 17:00:00,48028.593564,FST,84.9,37.9,18.86,200.0,16.0,30.09,1014.1,10.0,22.0,81.91,CLR
2020-10-02 18:00:00,47567.025805,FST,84.9,41.0,21.28,190.0,14.0,30.07,1014.0,10.0,15.0,82.03,CLR
2020-10-02 19:00:00,45577.174419,FST,82.0,41.0,23.37,160.0,16.0,30.06,1013.8,10.0,21.0,80.04,CLR
2020-10-02 20:00:00,43975.165591,FST,77.0,42.1,28.73,160.0,15.0,30.06,1014.2,10.0,19.0,,CLR
2020-10-02 21:00:00,42705.374761,FST,73.0,44.1,35.46,160.0,13.0,30.06,1014.3,10.0,18.0,,CLR
2020-10-02 22:00:00,40765.365238,FST,71.1,46.9,42.05,160.0,14.0,30.07,1014.5,10.0,18.0,,CLR
2020-10-02 23:00:00,38537.478511,FST,69.1,48.0,46.92,160.0,15.0,30.08,1014.5,10.0,,,CLR
2020-10-03 00:00:00,36148.250325,FST,68.0,46.9,46.76,160.0,14.0,30.08,1013.9,10.0,17.0,,CLR
2020-10-03 01:00:00,34072.042688,FST,66.0,46.9,50.1,160.0,13.0,30.07,1013.3,10.0,18.0,,CLR
2020-10-03 02:00:00,32504.189194,FST,64.0,46.0,51.93,160.0,15.0,30.05,1012.6,10.0,19.0,,CLR
2020-10-03 03:00:00,31477.555991,FST,62.1,46.0,55.51,170.0,13.0,30.03,1012.3,10.0,,,CLR
2020-10-03 04:00:00,30768.724125,FST,61.0,45.0,55.57,170.0,10.0,30.02,1011.8,10.0,,,CLR
2020-10-03 05:00:00,30538.733288,FST,57.0,45.0,64.12,170.0,8.0,30.01,1011.8,10.0,,,CLR
2020-10-03 06:00:00,30834.161746,FST,60.1,44.1,55.44,190.0,8.0,30.0,1011.4,10.0,,,CLR
2020-10-03 07:00:00,31620.083646,FST,61.0,43.0,51.48,200.0,9.0,30.0,1011.6,10.0,,,CLR
2020-10-03 08:00:00,32358.789661,FST,57.9,42.1,55.55,190.0,8.0,30.01,1012.3,10.0,,,CLR
2020-10-03 09:00:00,33686.975104,FST,64.9,42.1,43.36,200.0,10.0,30.02,1012.5,10.0,,,CLR
2020-10-03 10:00:00,35595.781492,FST,73.9,43.0,32.98,180.0,10.0,30.03,1012.3,10.0,,,CLR
2020-10-03 11:00:00,37443.633514,FST,82.0,41.0,23.37,230.0,10.0,30.03,1012.3,10.0,,80.04,CLR
2020-10-03 12:00:00,39292.138444,FST,86.0,39.9,19.68,230.0,11.0,30.03,1012.2,10.0,,82.81,CLR
2020-10-03 13:00:00,41092.90203,FST,88.0,36.0,15.85,280.0,11.0,30.03,1011.9,10.0,,84.29,CLR
2020-10-03 14:00:00,43129.384361,FST,89.1,36.0,15.31,250.0,8.0,30.02,1011.2,10.0,,85.21,CLR
2020-10-03 15:00:00,45356.173338,FST,91.0,36.0,14.42,270.0,7.0,30.0,1010.4,10.0,,86.83,CLR
2020-10-03 16:00:00,47368.275869,FST,91.9,35.1,13.53,230.0,8.0,29.97,1009.7,10.0,,87.6,CLR
2020-10-03 17:00:00,48618.019663,FST,91.0,34.0,13.32,300.0,5.0,29.96,1009.8,10.0,,86.79,CLR
2020-10-03 18:00:00,48685.237147,FST,91.0,35.1,13.91,330.0,5.0,29.95,1009.6,10.0,,86.81,CLR
2020-10-03 19:00:00,47030.876816,FST,87.1,37.9,17.58,140.0,16.0,29.97,1010.2,10.0,21.0,83.61,CLR
2020-10-03 20:00:00,45638.343167,FST,82.0,39.9,22.39,140.0,16.0,30.0,1011.8,10.0,21.0,79.98,CLR
2020-10-03 21:00:00,44239.605312,FST,77.0,46.9,34.5,140.0,15.0,30.03,1012.8,10.0,19.0,,CLR
2020-10-03 22:00:00,42260.008501,FST,73.9,50.0,42.97,140.0,14.0,30.05,1013.2,10.0,19.0,,CLR
2020-10-03 23:00:00,39989.363695,FST,72.0,52.0,49.33,150.0,16.0,30.07,1013.7,10.0,19.0,,CLR
2020-10-04 00:00:00,37522.973796,FST,70.0,51.1,51.07,180.0,14.0,30.1,1014.3,10.0,,,CLR
2020-10-04 01:00:00,35199.386307,FST,69.1,51.1,52.67,170.0,13.0,30.1,1014.3,10.0,,,CLR
2020-10-04 02:00:00,33323.761012,FST,68.0,50.0,52.51,170.0,13.0,30.11,1014.5,10.0,,,CLR
2020-10-04 03:00:00,32087.789868,FST,62.1,48.9,61.91,170.0,8.0,30.15,1016.2,10.0,,,CLR
2020-10-04 04:00:00,31309.084675,FST,63.0,51.1,65.09,120.0,5.0,30.15,1016.3,10.0,,,CLR
2020-10-04 05:00:00,30903.636284,FST,61.0,51.1,69.86,190.0,5.0,30.16,1016.9,10.0,,,CLR
2020-10-04 06:00:00,30768.422995,FST,59.0,48.0,66.83,260.0,8.0,30.18,1017.6,10.0,,,CLR
2020-10-04 07:00:00,31104.942381,FST,55.9,46.9,71.69,340.0,4.0,30.21,1018.8,10.0,,,CLR
2020-10-04 08:00:00,31498.312658,FST,55.0,48.0,77.21,270.0,4.0,30.23,1019.8,10.0,,,CLR
2020-10-04 09:00:00,32834.441426,FST,55.9,48.0,74.72,320.0,5.0,30.26,1021.1,10.0,,,CLR
2020-10-04 10:00:00,35160.238953,FST,61.0,48.9,64.37,360.0,7.0,30.28,1021.6,10.0,,,CLR
2020-10-04 11:00:00,37592.200609,FST,64.0,50.0,60.34,340.0,5.0,30.29,1022.1,10.0,,,CLR
2020-10-04 12:00:00,40214.556297,FST,68.0,50.0,52.51,360.0,8.0,30.3,1022.0,10.0,,,CLR
2020-10-04 13:00:00,42705.24121,FST,71.1,50.0,47.23,360.0,7.0,30.29,1021.6,10.0,,,CLR
2020-10-04 14:00:00,45045.797763,FST,73.9,50.0,42.97,360.0,5.0,30.28,1020.6,10.0,,,CLR
2020-10-04 15:00:00,47043.865295,FST,77.0,50.0,38.74,340.0,5.0,30.26,1019.7,10.0,,,CLR
2020-10-04 16:00:00,48490.834164,FST,80.1,46.9,31.15,360.0,4.0,30.23,1018.6,10.0,,79.33,CLR
2020-10-04 17:00:00,49228.002827,FST,82.0,46.0,28.3,190.0,8.0,30.2,1018.2,10.0,,80.36,CLR
2020-10-04 18:00:00,49011.342282,FST,82.0,46.9,29.28,170.0,8.0,30.19,1017.9,10.0,,80.43,CLR
2020-10-04 19:00:00,47688.439454,FST,81.0,48.0,31.52,130.0,9.0,30.18,1017.9,10.0,,79.92,CLR
2020-10-04 20:00:00,46871.588117,FST,78.1,48.0,34.67,130.0,11.0,30.18,1018.1,10.0,,,CLR
2020-10-04 21:00:00,45572.138214,FST,75.0,50.0,41.41,140.0,8.0,30.18,1018.4,10.0,,,CLR
2020-10-04 22:00:00,43243.287718,FST,70.0,50.0,49.03,150.0,7.0,30.19,1018.6,10.0,,,CLR
2020-10-04 23:00:00,40392.003833,FST,69.1,50.0,50.56,160.0,8.0,30.19,1018.5,10.0,,,CLR
2020-10-05 00:00:00,37436.573234,FST,69.1,51.1,52.67,160.0,12.0,30.18,1018.2,10.0,,,CLR
2020-10-05 01:00:00,34990.192673,FST,68.0,52.0,56.55,180.0,13.0,30.17,1017.8,10.0,,,CLR
2020-10-05 02:00:00,33419.448351,FST,66.9,53.1,61.16,180.0,10.0,30.17,1017.4,10.0,,,CLR
2020-10-05 03:00:00,32455.076375,FST,66.0,53.1,63.1,170.0,9.0,30.16,1017.1,10.0,,,CLR
2020-10-05 04:00:00,31976.005058,FST,63.0,53.1,70.07,180.0,7.0,30.15,1016.9,10.0,,,CLR
2020-10-05 05:00:00,32222.455018,FST,61.0,52.0,72.22,190.0,4.0,30.14,1016.5,10.0,,,CLR
2020-10-05 06:00:00,33556.215569,FST,63.0,52.0,67.29,230.0,10.0,30.14,1016.4,10.0,,,CLR
2020-10-05 07:00:00,35947.017521,FST,62.1,52.0,69.46,210.0,11.0,30.15,1016.8,10.0,,,CLR
2020-10-05 08:00:00,37244.028803,FST,64.0,51.1,62.85,220.0,12.0,30.15,1016.9,10.0,,,CLR
2020-10-05 09:00:00,38056.000742,FST,66.9,48.9,52.35,200.0,10.0,30.16,1017.2,10.0,,,CLR
2020-10-05 10:00:00,39415.681482,FST,73.0,48.0,41.1,210.0,11.0,30.17,1017.4,10.0,,,CLR
2020-10-05 11:00:00,40814.644137,FST,79.0,46.0,31.21,200.0,9.0,30.17,1017.3,10.0,,,CLR
2020-10-05 12:00:00,42783.205761,FST,84.9,46.0,25.77,240.0,11.0,30.15,1016.5,10.0,,82.35,CLR
2020-10-05 13:00:00,44968.597088,FST,88.0,43.0,20.82,270.0,8.0,30.13,1015.5,10.0,,84.58,CLR
2020-10-05 14:00:00,47301.227149,FST,89.1,39.0,17.22,280.0,5.0,30.11,1014.6,10.0,,85.3,CLR
2020-10-05 15:00:00,49328.355389,FST,91.0,37.0,15.0,280.0,8.0,30.1,1013.2,10.0,,86.86,CLR
2020-10-05 16:00:00,50943.170911,FST,91.0,37.0,15.0,300.0,8.0,30.06,1012.5,10.0,,86.86,CLR
2020-10-05 17:00:00,51833.411135,FST,91.9,36.0,14.02,360.0,8.0,30.04,1011.8,10.0,,87.62,CLR
2020-10-05 18:00:00,52032.77687,FST,91.9,35.1,13.53,350.0,7.0,30.02,1011.4,10.0,,87.6,CLR
2020-10-05 19:00:00,50273.976551,FST,90.0,37.9,16.04,20.0,3.0,30.01,1011.4,10.0,,86.03,CLR
2020-10-05 20:00:00,48984.103313,FST,81.0,37.0,20.65,160.0,3.0,30.0,1011.6,10.0,,79.24,CLR
2020-10-05 21:00:00,47461.348393,FST,79.0,39.0,23.85,190.0,10.0,30.02,1012.3,10.0,,,CLR
2020-10-05 22:00:00,44880.273195,FST,75.9,41.0,28.56,150.0,11.0,30.04,1012.7,10.0,,,CLR
2020-10-05 23:00:00,41583.713314,FST,73.9,44.1,34.4,160.0,11.0,30.05,1012.7,10.0,,,CLR
2020-10-06 00:00:00,38315.169755,FST,71.1,42.1,35.02,160.0,11.0,30.05,1012.5,10.0,,,CLR
2020-10-06 01:00:00,35782.347498,FST,69.1,39.9,34.43,170.0,11.0,30.04,1012.2,10.0,,,CLR
2020-10-06 02:00:00,34112.956898,FST,66.0,39.0,37.0,190.0,10.0,30.04,1012.1,10.0,,,CLR
2020-10-06 03:00:00,32996.213097,FST,68.0,36.0,30.69,220.0,14.0,30.03,1011.7,10.0,,,CLR
2020-10-06 04:00:00,32447.742821,FST,69.1,34.0,27.29,220.0,15.0,30.02,1011.4,10.0,,,CLR
2020-10-06 05:00:00,32591.538142,FST,66.9,34.0,29.44,220.0,14.0,30.02,1011.3,10.0,,,CLR
2020-10-06 06:00:00,33810.588328,FST,68.0,33.1,27.34,210.0,14.0,30.02,1011.6,10.0,,,CLR
2020-10-06 07:00:00,36156.329905,FST,68.0,33.1,27.34,220.0,13.0,30.04,1012.1,10.0,,,CLR
2020-10-06 08:00:00,37485.526561,FST,66.9,33.1,28.39,220.0,13.0,30.05,1013.1,10.0,,,CLR
2020-10-06 09:00:00,38334.336904,FST,66.0,36.0,32.88,300.0,11.0,30.08,1014.3,10.0,,,CLR
2020-10-06 10:00:00,39901.417397,FST,75.0,37.0,25.17,270.0,9.0,30.1,1014.7,10.0,,,CLR
2020-10-06 11:00:00,42021.271929,FST,80.1,35.1,19.72,310.0,10.0,30.12,1015.2,10.0,,78.74,CLR
2020-10-06 12:00:00,44595.537109,FST,80.1,30.0,16.07,340.0,10.0,30.13,1015.5,10.0,,78.57,CLR
2020-10-06 13:00:00,47456.588907,FST,84.0,30.9,14.68,360.0,6.0,30.13,1015.2,10.0,,81.12,CLR
2020-10-06 14:00:00,50322.202596,FST,87.1,30.9,13.3,340.0,7.0,30.12,1014.5,10.0,,83.51,CLR
2020-10-06 15:00:00,52979.645586,FST,89.1,30.9,12.48,340.0,5.0,30.1,1013.4,10.0,,85.04,CLR
2020-10-06 16:00:00,54895.390155,FST,91.0,30.0,11.33,350.0,5.0,30.07,1012.7,10.0,,86.38,CLR
2020-10-06 17:00:00,56107.671211,FST,90.0,30.0,11.7,220.0,7.0,30.05,1012.3,10.0,,85.63,CLR
2020-10-06 18:00:00,55665.607932,FST,91.9,30.0,11.33,210.0,6.0,30.04,1012.1,10.0,,87.07,CLR
2020-10-06 19:00:00,53469.590457,FST,89.1,32.0,13.05,140.0,9.0,30.04,1012.2,10.0,,85.15,FEW
2020-10-06 20:00:00,51750.383816,FST,82.9,42.1,23.68,140.0,11.0,30.05,1013.0,10.0,15.0,80.68,CLR
2020-10-06 21:00:00,49773.98268,FST,79.0,45.0,30.05,150.0,11.0,30.07,1013.7,10.0,16.0,,CLR
2020-10-06 22:00:00,46809.082847,FST,75.9,46.0,34.58,150.0,11.0,30.09,1014.2,10.0,,,CLR
2020-10-06 23:00:00,43358.386697,FST,73.9,45.0,35.6,150.0,11.0,30.1,1014.6,10.0,,,CLR
2020-10-07 00:00:00,39874.977465,FST,72.0,45.0,37.96,160.0,14.0,30.1,1014.6,10.0,,,CLR
2020-10-07 01:00:00,37109.085191,FST,70.0,45.0,40.63,160.0,11.0,30.1,1014.3,10.0,,,CLR
2020-10-07 02:00:00,35235.439594,FST,70.0,45.0,40.63,160.0,13.0,30.09,1013.9,10.0,,,CLR
2020-10-07 03:00:00,33896.796889,FST,69.1,45.0,41.9,170.0,16.0,30.08,1013.7,10.0,,,CLR
2020-10-07 04:00:00,33132.274554,FST,66.0,45.0,46.62,170.0,11.0,30.08,1013.5,10.0,,,CLR
2020-10-07 05:00:00,33202.118575,FST,66.0,44.1,45.05,170.0,10.0,30.08,1013.5,10.0,,,CLR
2020-10-07 06:00:00,34285.265447,FST,62.1,44.1,51.64,180.0,9.0,30.09,1014.3,10.0,,,CLR
2020-10-07 07:00:00,36540.949362,FST,64.0,43.0,46.32,190.0,9.0,30.1,1014.6,10.0,,,CLR
2020-10-07 08:00:00,37752.665557,FST,59.0,43.0,55.28,170.0,8.0,30.11,1015.5,10.0,,,CLR
2020-10-07 09:00:00,38456.401644,FST,63.0,44.1,50.03,190.0,7.0,30.13,1016.1,10.0,,,CLR
2020-10-07 10:00:00,40338.514319,FST,73.9,42.1,31.86,210.0,7.0,30.13,1015.9,10.0,,,CLR
2020-10-07 11:00:00,42662.090713,FST,81.0,42.1,25.19,200.0,9.0,30.14,1015.6,10.0,14.0,79.49,CLR
2020-10-07 12:00:00,45515.372464,FST,84.9,37.0,18.2,170.0,16.0,30.13,1015.2,10.0,14.0,81.88,CLR
2020-10-07 13:00:00,48590.114075,FST,86.0,34.0,15.6,170.0,11.0,30.12,1014.9,10.0,17.0,82.66,CLR
2020-10-07 14:00:00,51752.698032,FST,87.1,35.1,15.74,190.0,11.0,30.11,1013.9,10.0,,83.55,CLR
2020-10-07 15:00:00,54396.015509,FST,88.0,34.0,14.64,180.0,10.0,30.08,1012.9,10.0,19.0,84.26,CLR
2020-10-07 16:00:00,56177.993333,FST,89.1,34.0,14.14,160.0,10.0,30.06,1012.3,10.0,,85.17,CLR
2020-10-07 17:00:00,56902.641135,FST,88.0,35.1,15.29,130.0,13.0,30.04,1012.1,10.0,,84.28,CLR
2020-10-07 18:00:00,56447.179729,FST,87.1,37.0,16.97,150.0,13.0,30.03,1012.2,10.0,,83.59,CLR
2020-10-07 19:00:00,54141.092485,FST,84.0,37.0,18.74,120.0,15.0,30.03,1012.4,10.0,19.0,81.23,CLR
2020-10-07 20:00:00,52503.120807,FST,80.1,37.9,22.03,130.0,14.0,30.05,1013.3,10.0,,78.85,CLR
2020-10-07 21:00:00,50428.535493,FST,75.9,39.0,26.42,140.0,11.0,30.06,1014.0,10.0,,,CLR
2020-10-07 22:00:00,47745.000918,FST,73.0,44.1,35.46,150.0,10.0,30.07,1014.0,10.0,,,CLR
2020-10-07 23:00:00,44698.650428,FST,70.0,46.0,42.2,160.0,10.0,30.08,1014.1,10.0,,,CLR
2020-10-08 00:00:00,41320.668214,FST,68.0,48.0,48.73,160.0,9.0,30.08,1013.9,10.0,,,CLR
2020-10-08 01:00:00,38707.50333,FST,66.9,48.9,52.35,160.0,10.0,30.08,1013.6,10.0,,,CLR
2020-10-08 02:00:00,36766.666537,FST,66.0,50.0,56.27,160.0,9.0,30.07,1013.3,10.0,,,CLR
2020-10-08 03:00:00,35480.555833,FST,64.9,48.9,56.12,160.0,11.0,30.06,1013.0,10.0,,,CLR
2020-10-08 04:00:00,34716.229371,FST,64.0,50.0,60.34,160.0,10.0,30.05,1012.7,10.0,,,CLR
2020-10-08 05:00:00,34568.466645,FST,64.0,51.1,62.85,160.0,9.0,30.04,1012.7,10.0,,,CLR
2020-10-08 06:00:00,35610.597107,FST,63.0,51.1,65.09,190.0,9.0,30.05,1013.1,10.0,,,CLR
2020-10-08 07:00:00,37901.612161,FST,64.0,52.0,64.97,180.0,10.0,30.06,1013.4,10.0,,,CLR
2020-10-08 08:00:00,39260.851624,FST,59.0,51.1,75.02,180.0,8.0,30.07,1014.1,10.0,,,CLR
2020-10-08 09:00:00,39943.588691,FST,63.0,51.1,65.09,170.0,9.0,30.08,1014.6,10.0,,,CLR
2020-10-08 10:00:00,41528.49684,FST,69.1,52.0,54.45,160.0,7.0,30.09,1014.9,10.0,,,CLR
2020-10-08 11:00:00,43735.120396,FST,75.9,48.9,38.57,210.0,5.0,30.1,1014.9,10.0,,,CLR
2020-10-08 12:00:00,46337.600208,FST,80.1,48.9,33.58,180.0,6.0,30.1,1014.3,10.0,,79.5,CLR
2020-10-08 13:00:00,48984.448397,FST,82.9,46.0,27.48,250.0,5.0,30.08,1013.6,10.0,,80.94,CLR
2020-10-08 14:00:00,51714.949841,FST,86.0,45.0,23.95,220.0,5.0,30.06,1012.5,10.0,,83.1,CLR
2020-10-08 15:00:00,53741.321033,FST,89.1,39.9,17.84,270.0,5.0,30.03,1011.2,10.0,,85.34,CLR
2020-10-08 16:00:00,54914.3327,FST,88.0,37.9,17.08,330.0,5.0,30.0,1010.5,10.0,,84.34,CLR
2020-10-08 17:00:00,55308.350824,FST,90.0,37.0,15.48,320.0,5.0,29.98,1009.9,10.0,,86.0,CLR
2020-10-08 18:00:00,54710.828276,FST,90.0,35.1,14.36,350.0,7.0,29.96,1009.6,10.0,,85.95,CLR
2020-10-08 19:00:00,53181.199384,FST,84.9,46.0,25.77,360.0,17.0,29.96,1010.1,10.0,17.0,82.35,CLR
2020-10-08 20:00:00,52461.525014,FST,81.0,45.0,28.15,130.0,16.0,29.98,1011.0,10.0,18.0,79.68,CLR
2020-10-08 21:00:00,51307.307038,FST,78.1,45.0,30.95,140.0,11.0,30.0,1011.6,10.0,,,CLR
2020-10-08 22:00:00,49192.656065,FST,73.9,46.0,36.98,140.0,14.0,30.01,1011.8,10.0,19.0,,CLR
2020-10-08 23:00:00,46314.775632,FST,72.0,48.0,42.51,160.0,14.0,30.01,1011.8,10.0,19.0,,CLR
2020-10-09 00:00:00,43401.933589,FST,70.0,46.9,43.66,160.0,15.0,30.01,1011.4,10.0,,,CLR
2020-10-09 01:00:00,40943.39129,FST,69.1,45.0,41.9,160.0,14.0,30.0,1010.8,10.0,18.0,,CLR
2020-10-09 02:00:00,39094.242955,FST,68.0,44.1,42.04,170.0,11.0,29.99,1010.4,10.0,,,CLR
2020-10-09 03:00:00,37915.832571,FST,66.9,43.0,41.87,170.0,10.0,29.98,1009.9,10.0,,,CLR
2020-10-09 04:00:00,37220.411926,FST,66.0,43.0,43.2,170.0,9.0,29.97,1009.7,10.0,,,CLR
2020-10-09 05:00:00,37440.777371,FST,62.1,43.0,49.52,170.0,9.0,29.96,1009.6,10.0,,,CLR
2020-10-09 06:00:00,38612.116535,FST,64.0,42.1,44.74,170.0,11.0,29.95,1009.5,10.0,,,CLR
2020-10-09 07:00:00,40767.062959,FST,62.1,42.1,47.83,170.0,11.0,29.96,1010.1,10.0,,,CLR
2020-10-09 08:00:00,42184.185423,FST,62.1,42.1,47.83,170.0,11.0,29.98,1010.8,10.0,,,CLR
2020-10-09 09:00:00,42924.900937,FST,64.0,43.0,46.32,170.0,10.0,29.99,1011.3,10.0,,,CLR
2020-10-09 10:00:00,44233.105689,FST,72.0,45.0,37.96,170.0,11.0,30.0,1011.3,10.0,,,CLR
2020-10-09 11:00:00,45969.91973,FST,80.1,41.0,24.86,240.0,9.0,30.0,1011.1,10.0,,78.98,CLR
2020-10-09 12:00:00,48024.188125,FST,84.0,42.1,22.85,350.0,5.0,30.0,1011.1,10.0,,81.43,CLR
2020-10-09 13:00:00,50344.804349,FST,88.0,37.0,16.49,330.0,3.0,30.0,1010.2,10.0,,84.32,CLR
2020-10-09 14:00:00,52577.30215,FST,91.0,35.1,13.91,360.0,6.0,29.98,1009.3,10.0,,86.81,CLR
2020-10-09 15:00:00,54096.189588,FST,93.9,30.0,10.36,350.0,13.0,29.95,1008.0,10.0,18.0,88.6,CLR
2020-10-09 16:00:00,55035.717704,FST,93.9,30.0,10.36,350.0,10.0,29.92,1007.5,10.0,,88.6,CLR
2020-10-09 17:00:00,55148.262407,FST,93.9,28.9,9.9,360.0,10.0,29.9,1007.2,10.0,,88.48,CLR
2020-10-09 18:00:00,54355.074099,FST,93.0,28.0,9.81,360.0,9.0,29.89,1007.0,10.0,,87.7,CLR
2020-10-09 19:00:00,52383.417265,FST,89.1,30.0,12.03,70.0,8.0,29.89,1007.4,10.0,,84.95,CLR
2020-10-09 20:00:00,50967.015064,FST,82.9,28.9,14.02,110.0,4.0,29.9,1008.0,10.0,,80.3,CLR
2020-10-09 21:00:00,49218.032842,FST,77.0,28.9,17.01,160.0,8.0,29.92,1008.9,10.0,,,CLR
2020-10-09 22:00:00,46969.65733,FST,75.9,43.0,30.85,180.0,10.0,29.93,1009.0,10.0,,,CLR
2020-10-09 23:00:00,44304.486166,FST,75.0,45.0,34.31,190.0,11.0,29.93,1008.7,10.0,,,CLR
2020-10-10 00:00:00,41591.906645,FST,73.0,43.0,34.0,200.0,10.0,29.93,1008.5,10.0,,,CLR
2020-10-10 01:00:00,38925.351855,FST,71.1,42.1,35.02,220.0,14.0,29.93,1008.0,10.0,,,CLR
2020-10-10 02:00:00,36817.035731,FST,72.0,37.9,28.85,230.0,15.0,29.92,1007.8,10.0,,,CLR
2020-10-10 03:00:00,35317.59228,FST,71.1,39.0,31.05,230.0,14.0,29.92,1007.8,10.0,,,CLR
2020-10-10 04:00:00,34203.766547,FST,69.1,39.0,33.25,220.0,13.0,29.92,1007.6,10.0,,,CLR
2020-10-10 05:00:00,33656.512833,FST,69.1,36.0,29.55,230.0,15.0,29.91,1007.6,10.0,,,CLR
2020-10-10 06:00:00,33703.249116,FST,68.0,33.1,27.34,220.0,14.0,29.92,1007.9,10.0,,,CLR
2020-10-10 07:00:00,34310.458912,FST,68.0,32.0,26.15,230.0,14.0,29.93,1008.5,10.0,,,CLR
2020-10-10 08:00:00,34937.846273,FST,68.0,30.0,24.12,230.0,15.0,29.94,1009.3,10.0,,,CLR
2020-10-10 09:00:00,36432.534144,FST,70.0,30.0,22.52,220.0,14.0,29.96,1010.2,10.0,,,CLR
2020-10-10 10:00:00,39168.259647,FST,80.1,32.0,17.42,230.0,13.0,29.99,1010.4,10.0,,78.63,CLR
2020-10-10 11:00:00,42171.436157,FST,84.9,34.0,16.16,280.0,11.0,29.99,1010.6,10.0,,81.82,CLR
2020-10-10 12:00:00,45589.871221,FST,90.0,30.0,11.7,310.0,11.0,30.0,1010.4,10.0,,85.63,CLR
2020-10-10 13:00:00,49160.627181,FST,93.0,28.9,10.18,330.0,11.0,29.99,1009.8,10.0,,87.79,CLR
2020-10-10 14:00:00,52546.001724,FST,93.9,28.0,9.54,330.0,11.0,29.98,1009.0,10.0,16.0,88.39,CLR
2020-10-10 15:00:00,55497.552674,FST,96.1,28.0,8.92,340.0,11.0,29.95,1008.0,10.0,19.0,90.13,CLR
2020-10-10 16:00:00,57582.215119,FST,96.1,28.0,8.92,320.0,11.0,29.92,1007.2,10.0,19.0,90.13,CLR
2020-10-10 17:00:00,58701.524814,FST,96.1,27.0,8.56,310.0,14.0,29.9,1006.9,10.0,16.0,90.03,CLR
2020-10-10 18:00:00,58324.613311,FST,95.0,26.1,8.53,360.0,13.0,29.89,1006.8,10.0,,89.03,CLR
2020-10-10 19:00:00,55989.213502,FST,91.9,28.0,10.15,350.0,8.0,29.89,1007.1,10.0,,86.87,CLR
2020-10-10 20:00:00,53643.34758,FST,82.0,30.0,15.1,360.0,5.0,29.9,1008.0,10.0,,79.69,CLR
2020-10-10 21:00:00,51249.709696,FST,79.0,28.0,15.35,160.0,5.0,29.92,1008.4,10.0,,,CLR
2020-10-10 22:00:00,48567.427174,FST,77.0,27.0,15.74,180.0,8.0,29.93,1008.4,10.0,,,CLR
2020-10-10 23:00:00,45764.26372,FST,75.0,26.1,16.21,180.0,9.0,29.93,1008.4,10.0,,,CLR
2020-10-11 00:00:00,43078.759471,FST,71.1,32.0,23.52,220.0,11.0,29.94,1008.5,10.0,,,CLR
2020-10-11 01:00:00,40582.027017,FST,73.9,34.0,23.19,210.0,12.0,29.94,1008.0,10.0,,,CLR
2020-10-11 02:00:00,38600.93974,FST,73.0,30.0,20.34,230.0,11.0,29.92,1007.6,10.0,,,CLR
2020-10-11 03:00:00,37138.734298,FST,71.1,28.0,19.99,240.0,11.0,29.92,1007.6,10.0,,,CLR
2020-10-11 04:00:00,36022.942293,FST,70.0,27.0,19.92,230.0,10.0,29.92,1007.5,10.0,,,CLR
2020-10-11 05:00:00,35409.998722,FST,69.1,27.0,20.54,240.0,11.0,29.91,1007.5,10.0,,,CLR
2020-10-11 06:00:00,35234.675876,FST,66.0,28.0,23.82,230.0,11.0,29.91,1007.8,10.0,,,CLR
2020-10-11 07:00:00,35466.187043,FST,66.0,28.0,23.82,220.0,13.0,29.93,1008.6,10.0,,,CLR
2020-10-11 08:00:00,35795.76978,FST,68.0,26.1,20.55,220.0,13.0,29.95,1009.7,10.0,,,CLR
2020-10-11 09:00:00,37462.240505,FST,71.1,28.9,20.74,220.0,12.0,29.96,1010.1,10.0,,,CLR
2020-10-11 10:00:00,40734.707613,FST,77.0,32.0,19.3,230.0,13.0,29.99,1010.7,10.0,,,CLR
2020-10-11 11:00:00,44541.321182,FST,84.9,33.1,15.59,270.0,11.0,29.99,1010.4,10.0,,81.81,CLR
2020-10-11 12:00:00,48694.547923,FST,91.0,30.0,11.33,300.0,13.0,29.99,1010.1,10.0,17.0,86.38,CLR
2020-10-11 13:00:00,52901.911815,FST,91.9,30.0,11.02,310.0,11.0,29.98,1009.3,10.0,14.0,87.07,CLR
2020-10-11 14:00:00,56569.468692,FST,93.0,32.0,11.55,310.0,11.0,29.96,1008.5,10.0,,,CLR
2020-10-11 15:00:00,59653.610171,FST,93.9,32.0,11.23,340.0,11.0,29.94,1007.4,10.0,,88.85,CLR
2020-10-11 16:00:00,61987.700539,FST,93.9,30.9,10.74,300.0,8.0,29.9,1006.5,10.0,,88.71,CLR
2020-10-11 17:00:00,63059.594587,FST,93.9,30.9,10.74,280.0,7.0,29.88,1005.9,10.0,,88.71,CLR
2020-10-11 18:00:00,62514.146124,FST,93.9,32.0,11.23,330.0,11.0,29.86,1005.9,10.0,,88.85,CLR
2020-10-11 19:00:00,59705.404433,FST,91.0,33.1,12.85,340.0,11.0,29.87,1006.5,10.0,,86.74,CLR
2020-10-11 20:00:00,57679.130208,FST,82.9,33.1,16.62,350.0,5.0,29.89,1007.5,10.0,,80.36,CLR
2020-10-11 21:00:00,55240.8757,FST,80.1,33.1,18.21,340.0,8.0,29.92,1008.4,10.0,,78.67,CLR
2020-10-11 22:00:00,52436.808084,FST,75.9,33.1,20.92,320.0,8.0,29.94,1009.2,10.0,,,CLR
2020-10-11 23:00:00,49342.015202,FST,73.9,34.0,23.19,290.0,8.0,29.97,1009.9,10.0,,,CLR
2020-10-12 00:00:00,46043.312208,FST,73.0,34.0,23.9,240.0,9.0,29.99,1010.2,10.0,,,CLR
2020-10-12 01:00:00,43178.362299,FST,73.9,34.0,23.19,200.0,9.0,29.99,1009.9,10.0,,,CLR
2020-10-12 02:00:00,41155.966252,FST,75.0,34.0,22.35,190.0,10.0,29.98,1009.6,10.0,,,CLR
2020-10-12 03:00:00,39724.293047,FST,68.0,35.1,29.61,190.0,9.0,29.98,1009.8,10.0,,,CLR
2020-10-12 04:00:00,39077.467473,FST,66.9,35.1,30.75,220.0,10.0,29.99,1010.4,10.0,,,CLR
2020-10-12 05:00:00,39111.617923,FST,68.0,35.1,29.61,240.0,9.0,30.0,1010.8,10.0,,,CLR
2020-10-12 06:00:00,40008.259086,FST,66.0,36.0,32.88,230.0,11.0,30.02,1011.4,10.0,,,CLR
2020-10-12 07:00:00,41435.944931,FST,64.0,34.0,32.56,330.0,11.0,30.08,1013.7,10.0,,,CLR
2020-10-12 08:00:00,42105.334458,FST,57.9,32.0,37.31,360.0,10.0,30.14,1016.3,10.0,,,CLR
2020-10-12 09:00:00,42796.68382,FST,60.1,32.0,34.49,350.0,7.0,30.21,1018.9,8.0,,,BKN
2020-10-12 10:00:00,44705.831985,FST,66.0,30.9,26.81,360.0,13.0,30.24,1019.8,7.0,,,OVC
2020-10-12 11:00:00,47078.173153,FST,69.1,26.1,21.35,50.0,15.0,30.26,1020.5,10.0,19.0,,OVC
2020-10-12 12:00:00,49550.548502,FST,72.0,25.0,17.13,360.0,11.0,30.26,1020.1,10.0,,,CLR
2020-10-12 13:00:00,51906.320888,FST,73.9,25.0,16.06,360.0,11.0,30.24,1019.3,10.0,,,CLR
2020-10-12 14:00:00,54175.791266,FST,73.9,25.0,16.06,180.0,11.0,30.23,1018.4,10.0,,,CLR
2020-10-12 15:00:00,56008.394794,FST,75.9,25.0,15.02,110.0,8.0,30.2,1017.3,10.0,,,CLR
2020-10-12 16:00:00,57085.965155,FST,79.0,26.1,14.19,350.0,8.0,30.16,1016.4,10.0,,,CLR
2020-10-12 17:00:00,57332.541368,FST,79.0,26.1,14.19,100.0,5.0,30.14,1015.8,10.0,,,CLR
2020-10-12 18:00:00,56257.72462,FST,80.1,26.1,13.69,80.0,8.0,30.13,1015.5,10.0,,78.45,CLR
2020-10-12 19:00:00,53782.798829,FST,77.0,27.0,15.74,80.0,4.0,30.11,1015.6,10.0,,,CLR
2020-10-12 20:00:00,51993.667368,FST,72.0,27.0,18.61,70.0,4.0,30.13,1016.7,10.0,,,CLR
2020-10-12 21:00:00,49787.253069,FST,72.0,27.0,18.61,90.0,4.0,30.14,1017.1,10.0,,,CLR
2020-10-12 22:00:00,46703.160087,FST,69.1,30.0,23.22,150.0,4.0,30.16,1017.4,10.0,,,CLR
2020-10-12 23:00:00,43253.422492,FST,66.9,27.0,22.15,160.0,5.0,30.17,1017.8,10.0,,,CLR
2020-10-13 00:00:00,39694.167617,FST,63.0,28.9,27.44,170.0,6.0,30.18,1018.1,10.0,,,CLR
2020-10-13 01:00:00,37001.394012,FST,64.0,30.0,27.71,170.0,8.0,30.18,1017.7,10.0,,,CLR
2020-10-13 02:00:00,35113.089351,FST,62.1,30.9,30.73,170.0,10.0,30.17,1017.4,10.0,,,CLR
2020-10-13 03:00:00,33890.869373,FST,64.0,30.9,28.74,170.0,10.0,30.16,1017.2,10.0,,,CLR
2020-10-13 04:00:00,33231.768041,FST,64.0,32.0,30.05,170.0,8.0,30.16,1016.8,10.0,,,CLR
2020-10-13 05:00:00,33355.56026,FST,64.0,30.9,28.74,180.0,8.0,30.15,1016.4,10.0,,,CLR
2020-10-13 06:00:00,34622.199317,FST,64.9,30.9,27.85,200.0,7.0,30.15,1016.5,10.0,,,CLR
2020-10-13 07:00:00,36936.479311,FST,63.0,32.0,31.12,190.0,8.0,30.16,1017.1,10.0,,,CLR
2020-10-13 08:00:00,38232.893803,FST,64.0,33.1,31.41,210.0,7.0,30.17,1018.0,10.0,,,CLR
2020-10-13 09:00:00,38917.610861,FST,63.0,35.1,35.24,270.0,7.0,30.19,1018.4,10.0,,,CLR
2020-10-13 10:00:00,40377.322232,FST,71.1,36.0,27.6,230.0,5.0,30.2,1018.7,10.0,,,CLR
2020-10-13 11:00:00,42248.687872,FST,73.9,37.0,26.12,310.0,5.0,30.21,1018.8,10.0,,,CLR
2020-10-13 12:00:00,44553.383212,FST,79.0,35.1,20.45,320.0,4.0,30.21,1018.6,10.0,,,CLR
2020-10-13 13:00:00,46941.653527,FST,81.0,34.0,18.33,360.0,5.0,30.2,1018.4,10.0,,79.13,CLR
2020-10-13 14:00:00,49614.557846,FST,82.9,33.1,16.62,360.0,5.0,30.2,1017.2,10.0,,80.36,CLR
2020-10-13 15:00:00,51928.899064,FST,88.0,30.9,12.92,360.0,5.0,30.16,1015.8,10.0,,84.22,CLR
2020-10-13 16:00:00,53863.558755,FST,90.0,30.0,11.7,340.0,9.0,30.13,1015.0,10.0,,85.63,CLR
2020-10-13 17:00:00,55060.251311,FST,89.1,28.9,11.5,140.0,5.0,30.11,1014.9,10.0,,84.84,CLR
2020-10-13 18:00:00,54560.037346,FST,90.0,30.0,11.7,150.0,7.0,30.11,1014.6,10.0,,85.63,CLR
2020-10-13 19:00:00,52363.861721,FST,84.9,46.0,25.77,130.0,13.0,30.1,1014.7,10.0,,82.35,CLR
2020-10-13 20:00:00,50937.53377,FST,80.1,45.0,28.99,150.0,11.0,30.1,1015.2,10.0,,79.18,CLR
2020-10-13 21:00:00,48956.08218,FST,77.0,46.0,33.34,150.0,10.0,30.11,1015.7,10.0,,,CLR
2020-10-13 22:00:00,46313.75203,FST,73.9,51.1,44.76,160.0,10.0,30.13,1015.9,10.0,,,CLR
2020-10-13 23:00:00,43000.309748,FST,72.0,53.1,51.37,160.0,11.0,30.13,1016.0,10.0,,,CLR
2020-10-14 00:00:00,39745.851413,FST,71.1,55.9,58.65,160.0,11.0,30.13,1015.5,10.0,,,CLR
2020-10-14 01:00:00,37197.837344,FST,70.0,57.0,63.37,160.0,12.0,30.12,1015.2,10.0,,,CLR
2020-10-14 02:00:00,35426.650625,FST,69.1,57.9,67.5,170.0,11.0,30.11,1014.5,10.0,,,CLR
2020-10-14 03:00:00,34221.750592,FST,68.0,59.0,72.92,190.0,11.0,30.09,1014.0,10.0,,,CLR
2020-10-14 04:00:00,33681.317373,FST,64.9,57.0,75.56,180.0,9.0,30.09,1013.4,10.0,,,CLR
2020-10-14 05:00:00,33795.714765,FST,69.1,52.0,54.45,210.0,11.0,30.07,1012.6,10.0,,,CLR
2020-10-14 06:00:00,34955.281274,FST,68.0,50.0,52.51,220.0,13.0,30.05,1012.6,10.0,,,CLR
2020-10-14 07:00:00,37356.121657,FST,68.0,46.0,45.19,220.0,14.0,30.05,1013.0,10.0,,,CLR
2020-10-14 08:00:00,38738.360857,FST,68.0,45.0,43.51,220.0,14.0,30.06,1013.4,10.0,,,CLR
2020-10-14 09:00:00,39532.276515,FST,71.1,44.1,37.81,220.0,13.0,30.06,1013.6,10.0,,,CLR
2020-10-14 10:00:00,41285.890801,FST,78.1,46.0,32.15,230.0,12.0,30.07,1013.8,10.0,,,CLR
2020-10-14 11:00:00,43843.620936,FST,84.9,46.9,26.66,230.0,11.0,30.08,1013.6,10.0,,82.42,CLR
2020-10-14 12:00:00,46937.12352,FST,90.0,44.1,20.39,230.0,10.0,30.07,1013.0,10.0,,86.38,CLR
2020-10-14 13:00:00,50022.227079,FST,93.9,35.1,12.71,300.0,12.0,30.04,1012.1,10.0,16.0,89.29,CLR
2020-10-14 14:00:00,53409.291811,FST,95.0,30.9,10.38,290.0,7.0,30.0,1010.8,10.0,,89.56,CLR
2020-10-14 15:00:00,56294.289317,FST,96.1,28.9,9.25,340.0,10.0,29.96,1009.3,10.0,15.0,90.23,CLR
2020-10-14 16:00:00,58626.422013,FST,98.1,26.1,7.76,300.0,18.0,29.96,1008.5,10.0,22.0,91.6,CLR
2020-10-14 17:00:00,59724.371209,FST,97.0,28.0,8.67,300.0,14.0,29.93,1007.9,10.0,22.0,90.87,CLR
2020-10-14 18:00:00,59192.348613,FST,95.0,28.0,9.22,300.0,14.0,29.92,1007.6,10.0,21.0,89.22,CLR
2020-10-14 19:00:00,56646.057352,FST,91.9,30.0,11.02,290.0,11.0,29.91,1007.6,10.0,,87.07,CLR
2020-10-14 20:00:00,55192.252279,FST,84.9,30.0,13.75,250.0,9.0,29.9,1007.9,10.0,,81.79,CLR
2020-10-14 21:00:00,53386.084288,FST,82.0,28.9,14.44,240.0,10.0,29.9,1007.8,10.0,,79.67,CLR
2020-10-14 22:00:00,50824.485691,FST,75.0,30.0,19.02,220.0,10.0,29.92,1008.2,10.0,,,CLR
2020-10-14 23:00:00,47561.934733,FST,73.0,30.9,21.1,210.0,11.0,29.92,1008.2,10.0,,,CLR
2020-10-15 00:00:00,44180.697657,FST,73.9,28.0,18.19,220.0,12.0,29.91,1007.4,10.0,,,CLR
2020-10-15 01:00:00,41419.93096,FST,72.0,28.9,20.12,220.0,13.0,29.9,1007.0,10.0,,,CLR
2020-10-15 02:00:00,39251.991449,FST,72.0,28.9,20.12,220.0,13.0,29.9,1006.8,10.0,,,CLR
2020-10-15 03:00:00,37864.769107,FST,72.0,27.0,18.61,220.0,13.0,29.89,1006.7,10.0,,,CLR
2020-10-15 04:00:00,37105.881702,FST,72.0,26.1,17.93,230.0,13.0,29.89,1006.5,10.0,,,CLR
2020-10-15 05:00:00,37192.288715,FST,71.1,25.0,17.66,240.0,11.0,29.88,1006.5,10.0,,,CLR
2020-10-15 06:00:00,38361.311198,FST,66.9,25.0,20.39,320.0,13.0,29.94,1008.5,10.0,15.0,,CLR
2020-10-15 07:00:00,40856.092259,FST,62.1,28.0,28.38,360.0,17.0,30.03,1012.1,10.0,22.0,,CLR
2020-10-15 08:00:00,42082.865677,FST,57.9,30.9,35.69,350.0,10.0,30.1,1015.0,6.0,,,OVC
2020-10-15 09:00:00,42886.873324,FST,59.0,36.0,43.63,320.0,11.0,30.15,1016.9,7.0,,,OVC
2020-10-15 10:00:00,44784.821533,FST,62.1,36.0,37.69,340.0,19.0,30.18,1018.2,10.0,,,CLR
2020-10-15 11:00:00,46462.640023,FST,64.0,36.0,35.26,360.0,15.0,30.2,1018.8,10.0,,,CLR
2020-10-15 12:00:00,48238.690764,FST,66.0,35.1,31.73,360.0,15.0,30.21,1018.8,10.0,18.0,,CLR
2020-10-15 13:00:00,49888.776027,FST,68.0,35.1,29.61,360.0,16.0,30.21,1018.7,10.0,19.0,,M
2020-10-15 14:00:00,51472.203671,FST,69.1,34.0,27.29,360.0,15.0,30.2,1017.6,10.0,26.0,,CLR
2020-10-15 15:00:00,52862.726917,FST,71.1,35.1,26.63,360.0,14.0,30.17,1016.6,10.0,16.0,,CLR
2020-10-15 16:00:00,53597.631545,FST,73.0,37.0,26.92,360.0,15.0,30.14,1015.8,10.0,16.0,,CLR
2020-10-15 17:00:00,53469.648517,FST,73.9,37.0,26.12,20.0,9.0,30.12,1015.6,10.0,,,CLR
2020-10-15 18:00:00,52142.053372,FST,73.0,36.0,25.88,30.0,12.0,30.12,1016.0,9.0,,,FEW
2020-10-15 19:00:00,50118.143421,FST,71.1,35.1,26.63,50.0,10.0,30.13,1016.6,10.0,,,CLR
2020-10-15 20:00:00,49269.654325,FST,66.0,33.1,29.29,60.0,5.0,30.15,1017.5,10.0,,,CLR
2020-10-15 21:00:00,47756.795749,FST,63.0,32.0,31.12,60.0,5.0,30.17,1018.6,10.0,,,CLR
2020-10-15 22:00:00,45660.131733,FST,61.0,33.1,34.91,80.0,7.0,30.2,1019.4,10.0,,,CLR
2020-10-15 23:00:00,42806.275166,FST,63.0,34.0,33.72,80.0,11.0,30.22,1019.9,10.0,,,CLR
2020-10-16 00:00:00,39618.135167,FST,61.0,33.1,34.91,80.0,11.0,30.23,1020.2,10.0,,,CLR
2020-10-16 01:00:00,37362.429616,FST,59.0,32.0,35.87,90.0,11.0,30.24,1020.7,10.0,,,CLR
2020-10-16 02:00:00,35448.189949,FST,57.0,32.0,38.54,80.0,11.0,30.26,1021.4,10.0,,,CLR
2020-10-16 03:00:00,34017.800465,FST,55.9,30.9,38.36,80.0,11.0,30.28,1021.8,10.0,15.0,,CLR
2020-10-16 04:00:00,33087.230066,FST,54.0,30.9,41.11,90.0,11.0,30.29,1022.2,10.0,,,CLR
2020-10-16 05:00:00,32879.96167,FST,52.0,32.0,46.25,100.0,10.0,30.3,1022.7,10.0,,,CLR
2020-10-16 06:00:00,33698.604853,FST,50.0,32.0,49.81,120.0,7.0,30.32,1023.4,10.0,,,CLR
2020-10-16 07:00:00,35658.626229,FST,50.0,32.0,49.81,120.0,5.0,30.34,1024.4,10.0,,,CLR
2020-10-16 08:00:00,36874.663801,FST,48.0,32.0,53.67,120.0,5.0,30.37,1025.6,10.0,,46.98,CLR
2020-10-16 09:00:00,37253.919589,FST,51.1,33.1,49.98,120.0,4.0,30.39,1026.5,10.0,,,CLR
2020-10-16 10:00:00,37966.492176,FST,55.0,33.1,43.31,110.0,11.0,30.41,1027.1,10.0,17.0,,CLR
2020-10-16 11:00:00,38503.939207,FST,57.9,30.9,35.69,120.0,16.0,30.42,1026.9,10.0,,,CLR
2020-10-16 12:00:00,38888.036384,FST,62.1,33.1,33.58,120.0,15.0,30.42,1026.1,10.0,,,CLR
2020-10-16 13:00:00,39093.205354,FST,64.0,36.0,35.26,140.0,10.0,30.39,1025.2,10.0,,,CLR
2020-10-16 14:00:00,39508.086516,FST,66.9,37.9,34.35,140.0,11.0,30.37,1023.7,10.0,,,CLR
2020-10-16 15:00:00,39716.637584,FST,69.1,37.9,31.85,130.0,10.0,30.32,1022.1,10.0,,,CLR
2020-10-16 16:00:00,39974.01654,FST,71.1,39.0,31.05,150.0,13.0,30.28,1020.7,10.0,20.0,,CLR
2020-10-16 17:00:00,40157.403086,FST,71.1,39.0,31.05,140.0,11.0,30.24,1020.1,10.0,,,CLR
2020-10-16 18:00:00,39844.603388,FST,71.1,39.0,31.05,140.0,11.0,30.22,1019.5,10.0,,,CLR
2020-10-16 19:00:00,39096.642047,FST,70.0,39.0,32.24,140.0,11.0,30.2,1019.0,10.0,,,CLR
2020-10-16 20:00:00,39166.685488,FST,66.0,39.9,38.32,130.0,10.0,30.18,1019.1,10.0,,,CLR
2020-10-16 21:00:00,38382.740141,FST,64.9,39.9,39.82,130.0,10.0,30.18,1019.3,10.0,,,CLR
2020-10-16 22:00:00,37340.928,FST,62.1,39.9,43.93,140.0,10.0,30.19,1019.1,10.0,,,CLR
2020-10-16 23:00:00,35985.47089,FST,59.0,39.9,49.04,160.0,10.0,30.18,1018.9,10.0,,,CLR
2020-10-17 00:00:00,34117.140066,FST,59.0,39.9,49.04,170.0,10.0,30.18,1018.2,10.0,,,CLR
2020-10-17 01:00:00,32661.90379,FST,59.0,41.0,51.18,170.0,11.0,30.16,1017.3,10.0,,,CLR
2020-10-17 02:00:00,31541.409372,FST,59.0,41.0,51.18,170.0,10.0,30.14,1016.3,10.0,,,CLR
2020-10-17 03:00:00,30845.516933,FST,57.9,41.0,53.24,170.0,10.0,30.11,1015.8,10.0,,,CLR
2020-10-17 04:00:00,30422.707467,FST,55.9,41.0,57.23,170.0,10.0,30.1,1015.3,10.0,,,CLR
2020-10-17 05:00:00,30444.203238,FST,55.0,41.0,59.13,170.0,11.0,30.09,1014.8,10.0,,,CLR
2020-10-17 06:00:00,30864.865836,FST,55.0,42.1,61.69,170.0,10.0,30.06,1014.2,10.0,,,CLR
2020-10-17 07:00:00,31881.624258,FST,55.0,42.1,61.69,160.0,11.0,30.05,1014.2,10.0,,,CLR
2020-10-17 08:00:00,32983.41159,FST,54.0,42.1,63.98,170.0,11.0,30.05,1014.3,10.0,,,CLR
2020-10-17 09:00:00,34225.636192,FST,57.0,42.1,57.38,180.0,10.0,30.05,1014.3,10.0,,,CLR
2020-10-17 10:00:00,35723.505241,FST,70.0,44.1,39.26,190.0,10.0,30.07,1014.4,10.0,,,CLR
2020-10-17 11:00:00,36853.860364,FST,77.0,46.0,33.34,240.0,9.0,30.07,1014.4,10.0,,,CLR
2020-10-17 12:00:00,37900.01394,FST,82.9,44.1,25.57,260.0,13.0,30.07,1013.9,10.0,18.0,80.8,CLR
2020-10-17 13:00:00,38845.235285,FST,87.1,43.0,21.42,260.0,11.0,30.06,1013.0,10.0,16.0,83.84,CLR
2020-10-17 14:00:00,39682.909595,FST,90.0,43.0,19.55,250.0,11.0,30.04,1011.6,10.0,16.0,86.29,CLR
2020-10-17 15:00:00,40372.144855,FST,91.9,39.9,16.34,280.0,11.0,30.0,1010.1,10.0,16.0,87.78,CLR
2020-10-17 16:00:00,41310.016676,FST,91.9,39.0,15.77,340.0,10.0,29.96,1009.2,10.0,,87.74,CLR
2020-10-17 17:00:00,42152.475997,FST,93.0,39.0,15.24,280.0,8.0,29.93,1008.6,10.0,,88.73,CLR
2020-10-17 18:00:00,42576.297995,FST,93.0,37.0,14.09,310.0,10.0,29.92,1008.2,10.0,,88.63,CLR
2020-10-17 19:00:00,42423.463824,FST,89.1,36.0,15.31,310.0,9.0,29.91,1008.4,10.0,,85.21,CLR
2020-10-17 20:00:00,43102.654748,FST,82.0,34.0,17.74,300.0,5.0,29.92,1009.1,10.0,,79.77,CLR
2020-10-17 21:00:00,42577.28026,FST,78.1,39.9,25.44,280.0,9.0,29.93,1009.6,10.0,,,CLR
2020-10-17 22:00:00,41589.052756,FST,73.9,45.0,35.6,170.0,10.0,29.94,1009.5,10.0,,,CLR
2020-10-17 23:00:00,40259.409628,FST,71.1,45.0,39.13,170.0,11.0,29.94,1009.5,10.0,,,CLR
2020-10-18 00:00:00,38652.416504,FST,73.0,45.0,36.7,180.0,11.0,29.95,1008.9,10.0,,,CLR
2020-10-18 01:00:00,36958.634203,FST,71.1,45.0,39.13,200.0,11.0,29.94,1008.7,10.0,,,CLR
2020-10-18 02:00:00,35654.133062,FST,69.1,44.1,40.48,220.0,13.0,29.94,1008.7,10.0,,,CLR
2020-10-18 03:00:00,34728.784775,FST,69.1,42.1,37.5,220.0,14.0,29.94,1008.5,10.0,,,CLR
2020-10-18 04:00:00,34117.835347,FST,72.0,41.0,32.56,220.0,14.0,29.94,1008.3,10.0,,,CLR
2020-10-18 05:00:00,33707.243707,FST,71.1,42.1,35.02,220.0,15.0,29.93,1008.2,10.0,,,CLR
2020-10-18 06:00:00,33735.603872,FST,71.1,41.0,33.57,220.0,15.0,29.94,1008.6,10.0,,,CLR
2020-10-18 07:00:00,34137.214159,FST,71.1,41.0,33.57,220.0,14.0,29.95,1009.1,10.0,,,CLR
2020-10-18 08:00:00,34535.796131,FST,70.0,41.0,34.85,220.0,14.0,29.96,1009.9,10.0,,,CLR
2020-10-18 09:00:00,35833.05794,FST,72.0,39.9,31.2,230.0,13.0,29.99,1010.8,10.0,17.0,,CLR
2020-10-18 10:00:00,38594.569635,FST,75.9,41.0,28.56,290.0,11.0,30.03,1012.1,10.0,,,CLR
2020-10-18 11:00:00,41469.010721,FST,81.0,37.0,20.65,300.0,10.0,30.03,1012.4,10.0,,79.24,CLR
2020-10-18 12:00:00,44147.779404,FST,87.1,33.1,14.53,290.0,11.0,30.03,1011.7,10.0,,83.52,M
2020-10-18 13:00:00,46915.050339,FST,90.0,30.9,12.13,340.0,13.0,30.03,1011.0,10.0,,85.72,CLR
2020-10-18 14:00:00,49504.071838,FST,91.9,28.9,10.54,330.0,10.0,30.01,1010.3,10.0,,86.95,CLR
2020-10-18 15:00:00,51595.621676,FST,93.0,28.9,10.18,360.0,11.0,29.99,1009.5,10.0,,87.79,CLR
2020-10-18 16:00:00,53203.397184,FST,93.0,28.9,10.18,360.0,10.0,29.96,1008.7,10.0,,87.79,CLR
2020-10-18 17:00:00,54021.730815,FST,91.9,27.0,9.75,350.0,7.0,29.95,1008.5,10.0,,86.77,CLR
2020-10-18 18:00:00,53692.721556,FST,91.9,27.0,9.75,70.0,5.0,29.94,1008.4,10.0,,86.77,CLR
2020-10-18 19:00:00,51955.384582,FST,87.1,28.0,11.81,60.0,7.0,29.94,1008.9,10.0,,83.29,CLR
2020-10-18 20:00:00,51310.887964,FST,82.9,30.0,14.67,130.0,8.0,29.96,1009.9,10.0,,80.31,CLR
2020-10-18 21:00:00,49555.319808,FST,79.0,48.0,33.66,150.0,11.0,29.98,1010.4,10.0,,,CLR
2020-10-18 22:00:00,46982.895635,FST,75.9,48.9,38.57,170.0,11.0,29.98,1010.6,10.0,,,CLR
2020-10-18 23:00:00,43759.227622,FST,73.0,51.1,46.13,160.0,11.0,29.99,1010.9,10.0,,,CLR
2020-10-19 00:00:00,40555.698899,FST,71.1,52.0,50.86,160.0,11.0,30.01,1011.0,10.0,,,CLR
2020-10-19 01:00:00,38020.74798,FST,64.9,51.1,60.9,350.0,8.0,30.01,1011.1,10.0,,,CLR
2020-10-19 02:00:00,36365.113136,FST,63.0,48.9,59.98,120.0,6.0,30.0,1010.9,10.0,,,CLR
2020-10-19 03:00:00,35462.816922,FST,60.1,46.9,61.65,110.0,7.0,30.0,1011.3,10.0,,,CLR
2020-10-19 04:00:00,35121.560083,FST,60.1,50.0,69.24,130.0,5.0,30.0,1011.0,10.0,,,CLR
2020-10-19 05:00:00,35326.46818,FST,55.0,46.9,74.08,360.0,4.0,30.0,1011.5,10.0,,,CLR
2020-10-19 06:00:00,36742.259678,FST,53.1,46.0,76.75,360.0,5.0,30.03,1012.4,10.0,,,CLR
2020-10-19 07:00:00,39174.330245,FST,50.0,44.1,80.06,360.0,6.0,30.05,1013.6,10.0,,,CLR
2020-10-19 08:00:00,40680.947963,FST,48.0,42.1,79.91,320.0,5.0,30.06,1014.2,10.0,,46.1,CLR
2020-10-19 09:00:00,41390.333138,FST,48.0,41.0,76.58,310.0,7.0,30.09,1015.5,10.0,,44.8,CLR
2020-10-19 10:00:00,42918.711517,FST,52.0,43.0,71.28,350.0,7.0,30.12,1016.3,10.0,,,CLR
2020-10-19 11:00:00,44733.776901,FST,55.0,44.1,66.61,340.0,7.0,30.13,1016.6,10.0,,,CLR
2020-10-19 12:00:00,46584.916235,FST,61.0,45.0,55.57,330.0,5.0,30.12,1015.8,10.0,,,CLR
2020-10-19 13:00:00,48303.531637,FST,64.9,45.0,48.44,340.0,5.0,30.1,1015.1,10.0,,,CLR
2020-10-19 14:00:00,49698.852175,FST,70.0,46.9,43.66,360.0,5.0,30.08,1013.7,10.0,,,CLR
2020-10-19 15:00:00,50512.2159,FST,75.9,48.9,38.57,130.0,7.0,30.04,1012.1,10.0,,,CLR
2020-10-19 16:00:00,51077.915873,FST,81.0,53.1,38.09,110.0,9.0,30.0,1010.6,10.0,,80.47,CLR
2020-10-19 17:00:00,51439.551382,FST,82.9,55.0,38.38,80.0,11.0,29.96,1010.2,10.0,,82.03,CLR
2020-10-19 18:00:00,50764.363901,FST,82.9,55.0,38.38,70.0,11.0,29.95,1009.9,10.0,,82.03,CLR
2020-10-19 19:00:00,49547.016633,FST,82.0,57.9,43.89,120.0,14.0,29.94,1010.2,10.0,18.0,81.92,CLR
2020-10-19 20:00:00,49277.1983,FST,79.0,59.0,50.36,130.0,14.0,29.96,1010.8,10.0,,,CLR
2020-10-19 21:00:00,47985.364884,FST,75.9,61.0,59.92,130.0,13.0,29.97,1011.6,10.0,,,CLR
2020-10-19 22:00:00,45941.166234,FST,73.9,62.1,66.61,140.0,13.0,29.98,1011.6,10.0,18.0,,CLR
2020-10-19 23:00:00,43204.233579,FST,73.0,62.1,68.66,150.0,13.0,29.98,1011.6,10.0,15.0,,CLR
2020-10-20 00:00:00,40315.231077,FST,72.0,61.0,68.31,150.0,11.0,29.98,1011.1,10.0,,,CLR
2020-10-20 01:00:00,38181.264466,FST,71.1,60.1,68.21,160.0,14.0,29.97,1010.6,10.0,17.0,,CLR
2020-10-20 02:00:00,36726.125746,FST,70.0,59.0,68.09,160.0,14.0,29.96,1010.3,10.0,17.0,,CLR
2020-10-20 03:00:00,35711.399547,FST,69.1,57.9,67.5,160.0,14.0,29.95,1009.6,10.0,,,CLR
2020-10-20 04:00:00,35296.744682,FST,68.0,57.0,67.86,170.0,11.0,29.95,1009.3,10.0,,,CLR
2020-10-20 05:00:00,35467.03978,FST,66.0,57.0,72.72,190.0,11.0,29.94,1009.3,10.0,,,CLR
2020-10-20 06:00:00,36680.130826,FST,64.9,55.9,72.61,170.0,9.0,29.94,1009.1,10.0,,,CLR
2020-10-20 07:00:00,39086.592933,FST,64.0,55.9,74.93,160.0,9.0,29.94,1009.5,10.0,,,CLR
2020-10-20 08:00:00,40548.677527,FST,62.1,55.9,80.11,190.0,9.0,29.96,1010.1,10.0,,,CLR
2020-10-20 09:00:00,41243.061448,FST,63.0,57.0,80.76,220.0,8.0,29.97,1010.8,10.0,,,CLR
2020-10-20 10:00:00,43115.853642,FST,69.1,59.0,70.21,160.0,8.0,30.0,1011.6,10.0,,,CLR
2020-10-20 11:00:00,45459.186749,FST,73.9,60.1,62.05,150.0,11.0,30.0,1011.3,10.0,,,CLR
2020-10-20 12:00:00,48425.025067,FST,79.0,60.1,52.38,150.0,11.0,29.99,1010.8,10.0,,,CLR
2020-10-20 13:00:00,51227.737999,FST,84.0,59.0,42.8,150.0,10.0,29.98,1009.8,10.0,,83.75,CLR
2020-10-20 14:00:00,53673.638063,FST,88.0,52.0,29.21,340.0,7.0,29.96,1008.6,10.0,,85.6,CLR
2020-10-20 15:00:00,55666.955558,FST,91.0,55.0,29.66,150.0,11.0,29.93,1007.2,10.0,,89.03,CLR
2020-10-20 16:00:00,56898.994153,FST,91.9,42.1,17.79,330.0,11.0,29.9,1006.7,10.0,,,CLR
2020-10-20 17:00:00,57316.523258,FST,90.0,55.0,30.61,320.0,11.0,29.88,1006.4,10.0,14.0,88.06,CLR
2020-10-20 18:00:00,56380.890239,FST,87.1,55.0,33.55,150.0,17.0,29.88,1007.0,10.0,22.0,85.4,CLR
2020-10-20 19:00:00,54077.016832,FST,84.0,55.9,38.28,150.0,16.0,29.89,1007.5,10.0,,83.03,FEW
2020-10-20 20:00:00,53098.363618,FST,79.0,59.0,50.36,150.0,17.0,29.91,1008.5,10.0,23.0,,CLR
2020-10-20 21:00:00,51404.24782,FST,77.0,60.1,55.95,150.0,17.0,29.91,1008.8,10.0,22.0,,CLR
2020-10-20 22:00:00,48981.546143,FST,75.9,61.0,59.92,150.0,17.0,29.93,1009.1,10.0,23.0,,CLR
2020-10-20 23:00:00,45836.956595,FST,73.9,61.0,64.07,150.0,17.0,29.94,1009.4,10.0,24.0,,CLR
2020-10-21 00:00:00,42548.465542,FST,73.0,59.0,61.5,160.0,17.0,29.94,1009.3,10.0,21.0,,CLR
2020-10-21 01:00:00,39774.060413,FST,72.0,57.9,61.15,160.0,17.0,29.94,1008.7,10.0,23.0,,CLR
2020-10-21 02:00:00,37918.189722,FST,71.1,57.9,63.05,160.0,15.0,29.94,1008.6,10.0,19.0,,CLR
2020-10-21 03:00:00,36767.627324,FST,71.1,57.9,63.05,170.0,14.0,29.94,1008.7,10.0,,,CLR
2020-10-21 04:00:00,36020.86891,FST,70.0,57.9,65.45,160.0,13.0,29.94,1008.6,10.0,,,CLR
2020-10-21 05:00:00,36098.663119,FST,69.1,57.9,67.5,160.0,15.0,29.94,1008.5,10.0,21.0,,CLR
2020-10-21 06:00:00,37424.289376,FST,66.9,57.9,72.81,180.0,14.0,29.95,1009.4,10.0,,,CLR
2020-10-21 07:00:00,39895.088854,FST,66.0,57.9,75.12,160.0,11.0,29.97,1010.3,10.0,,,CLR
2020-10-21 08:00:00,41356.11377,FST,64.9,59.0,81.19,160.0,11.0,29.98,1010.9,10.0,,,CLR
2020-10-21 09:00:00,42118.323136,FST,66.0,60.1,81.27,150.0,11.0,29.99,1011.4,10.0,,,CLR
2020-10-21 10:00:00,43784.660032,FST,70.0,61.0,73.11,150.0,13.0,30.01,1011.9,10.0,,,CLR
2020-10-21 11:00:00,45965.305954,FST,73.9,61.0,64.07,150.0,14.0,30.02,1012.0,10.0,,,CLR
2020-10-21 12:00:00,48267.941852,FST,79.0,60.1,52.38,150.0,13.0,30.02,1011.5,10.0,,,CLR
2020-10-21 13:00:00,50605.448279,FST,84.0,59.0,42.8,150.0,14.0,30.01,1010.4,10.0,,83.75,CLR
2020-10-21 14:00:00,53173.204065,FST,88.0,57.9,36.21,150.0,14.0,29.98,1009.2,10.0,19.0,86.96,CLR
2020-10-21 15:00:00,55339.917752,FST,89.1,55.9,32.53,140.0,17.0,29.93,1008.2,10.0,23.0,87.44,CLR
2020-10-21 16:00:00,56907.480623,FST,89.1,54.0,30.36,130.0,17.0,29.91,1007.7,10.0,24.0,86.98,CLR
2020-10-21 17:00:00,57572.653784,FST,86.0,55.9,35.9,140.0,16.0,29.91,1007.8,10.0,26.0,84.66,FEW
2020-10-21 18:00:00,56603.505967,FST,84.0,57.9,42.63,150.0,17.0,29.94,1009.2,10.0,23.0,82.85,FEW
2020-10-21 19:00:00,54317.645086,FST,82.9,57.9,45.34,140.0,16.0,29.95,1008.6,10.0,22.0,82.41,CLR
2020-10-21 20:00:00,53214.741328,FST,78.1,59.0,51.88,150.0,18.0,29.93,1009.1,10.0,25.0,,FEW
2020-10-21 21:00:00,51450.562473,FST,77.0,59.0,53.8,150.0,18.0,29.95,1009.8,10.0,24.0,,CLR
2020-10-21 22:00:00,48793.5511,FST,75.0,59.0,57.5,150.0,18.0,29.95,1009.3,10.0,25.0,,OVC
2020-10-21 23:00:00,45401.271296,FST,73.9,59.0,59.66,150.0,21.0,29.94,1009.4,10.0,31.0,,CLR
2020-10-22 00:00:00,42018.438213,FST,73.0,57.9,59.12,150.0,21.0,29.94,1009.0,10.0,28.0,,CLR
2020-10-22 01:00:00,39532.853161,FST,72.0,57.0,59.2,150.0,22.0,29.93,1008.4,10.0,26.0,,CLR
2020-10-22 02:00:00,37840.9364,FST,71.1,57.0,61.04,160.0,19.0,29.92,1007.6,10.0,26.0,,CLR
2020-10-22 03:00:00,36586.009255,FST,70.0,57.0,63.37,160.0,17.0,29.91,1007.6,10.0,23.0,,CLR
2020-10-22 04:00:00,35943.493616,FST,69.1,57.0,65.35,170.0,20.0,29.91,1007.6,10.0,22.0,,CLR
2020-10-22 05:00:00,36058.533061,FST,68.0,57.0,67.86,170.0,18.0,29.91,1008.0,10.0,22.0,,CLR
2020-10-22 06:00:00,37389.073251,FST,68.0,57.0,67.86,160.0,14.0,29.91,1008.2,10.0,20.0,,CLR
2020-10-22 07:00:00,39923.361923,FST,66.0,57.0,72.72,150.0,14.0,29.92,1008.6,10.0,,,CLR
2020-10-22 08:00:00,41404.662729,FST,64.9,57.9,78.05,150.0,11.0,29.93,1009.0,10.0,,,CLR
2020-10-22 09:00:00,42117.008448,FST,66.0,59.0,78.14,150.0,9.0,29.94,1009.5,10.0,,,CLR
2020-10-22 10:00:00,43870.234335,FST,70.0,59.0,68.09,150.0,13.0,29.96,1010.2,10.0,,,CLR
2020-10-22 11:00:00,46051.777114,FST,73.9,60.1,62.05,150.0,14.0,29.97,1010.2,10.0,19.0,,CLR
2020-10-22 12:00:00,48442.045304,FST,77.0,60.1,55.95,150.0,13.0,29.96,1009.8,10.0,14.0,,CLR
2020-10-22 13:00:00,50985.282379,FST,82.9,59.0,44.34,140.0,11.0,29.95,1008.5,10.0,16.0,82.86,CLR
2020-10-22 14:00:00,53498.708732,FST,90.0,51.1,26.52,230.0,13.0,29.92,1006.9,10.0,19.0,87.24,CLR
2020-10-22 15:00:00,55289.130934,FST,91.0,51.1,25.7,230.0,17.0,29.88,1005.7,10.0,18.0,88.18,CLR
2020-10-22 16:00:00,56613.062868,FST,91.9,48.0,22.26,240.0,15.0,29.85,1005.1,10.0,20.0,88.53,CLR
2020-10-22 17:00:00,57044.791394,FST,91.9,46.9,21.36,270.0,13.0,29.83,1004.8,10.0,15.0,88.39,CLR
2020-10-22 18:00:00,55921.351308,FST,91.0,46.9,21.97,360.0,10.0,29.83,1004.9,10.0,,87.55,SCT
2020-10-22 19:00:00,53949.671975,FST,88.0,48.0,25.17,360.0,5.0,29.83,1005.5,10.0,,85.02,SCT
2020-10-22 20:00:00,53136.490709,FST,84.9,50.0,29.94,210.0,11.0,29.85,1006.1,10.0,,82.76,CLR
2020-10-22 21:00:00,51160.528595,FST,79.0,57.9,48.41,160.0,16.0,29.88,1007.5,10.0,22.0,,CLR
2020-10-22 22:00:00,48980.572965,FST,75.9,59.0,55.8,160.0,16.0,29.9,1008.1,10.0,17.0,,CLR
2020-10-22 23:00:00,46385.169878,FST,73.9,59.0,59.66,170.0,15.0,29.92,1008.6,10.0,,,CLR
2020-10-23 00:00:00,43176.501568,FST,73.0,57.9,59.12,180.0,14.0,29.93,1008.9,10.0,,,CLR
2020-10-23 01:00:00,40565.009777,FST,71.1,57.9,63.05,170.0,11.0,29.93,1008.7,10.0,,,CLR
2020-10-23 02:00:00,38809.775125,FST,68.0,57.9,70.1,170.0,11.0,29.93,1008.5,10.0,,,CLR
2020-10-23 03:00:00,37610.266796,FST,64.9,57.0,75.56,170.0,11.0,29.94,1008.8,10.0,,,CLR
2020-10-23 04:00:00,36938.489401,FST,63.0,55.9,77.61,180.0,9.0,29.94,1008.9,10.0,,,CLR
2020-10-23 05:00:00,36936.342474,FST,64.0,51.1,62.85,200.0,9.0,29.94,1008.9,10.0,,,CLR
2020-10-23 06:00:00,37943.114237,FST,66.9,44.1,43.67,220.0,12.0,29.94,1008.9,10.0,,,CLR
2020-10-23 07:00:00,40100.233332,FST,66.0,39.9,38.32,220.0,12.0,29.96,1009.8,10.0,,,CLR
2020-10-23 08:00:00,41618.410651,FST,63.0,41.0,44.41,300.0,13.0,30.03,1012.5,10.0,,,CLR
2020-10-23 09:00:00,42469.866935,FST,53.1,43.0,68.46,340.0,22.0,30.14,1017.0,10.0,26.0,,CLR
2020-10-23 10:00:00,44026.804153,FST,,,,330.0,20.0,30.22,,10.0,,,BKN
2020-10-23 11:00:00,45422.481693,FST,53.1,41.0,63.38,330.0,19.0,30.25,1021.1,10.0,,,OVC
2020-10-23 12:00:00,46590.23045,FST,55.0,41.0,59.13,350.0,16.0,30.27,1021.4,10.0,,,OVC
2020-10-23 13:00:00,47769.14573,FST,55.9,41.0,57.23,350.0,14.0,30.27,1021.6,10.0,17.0,,OVC
2020-10-23 14:00:00,48558.036578,FST,60.1,42.1,51.35,350.0,16.0,30.27,1021.0,10.0,21.0,,OVC
2020-10-23 15:00:00,48296.872614,FST,60.1,42.1,51.35,360.0,15.0,30.25,1020.2,10.0,,,OVC
2020-10-23 16:00:00,46532.854131,FST,60.1,41.0,49.21,360.0,12.0,30.22,1019.9,10.0,16.0,,BKN
2020-10-23 17:00:00,46123.129663,FST,60.1,41.0,49.21,360.0,13.0,30.22,1019.9,10.0,,,CLR
2020-10-23 18:00:00,44856.787844,FST,59.0,41.0,51.18,360.0,11.0,30.23,1020.2,10.0,,,CLR
2020-10-23 19:00:00,42981.356568,FST,57.0,39.0,50.88,360.0,10.0,30.23,1020.3,10.0,,,CLR
2020-10-23 20:00:00,42149.275672,FST,53.1,37.9,56.17,40.0,9.0,30.24,1021.3,10.0,,,CLR
2020-10-23 21:00:00,40526.855768,FST,51.1,37.0,58.36,40.0,5.0,30.26,1022.4,10.0,,,CLR
2020-10-23 22:00:00,38738.216848,FST,50.0,36.0,58.44,70.0,6.0,30.27,1022.9,10.0,,,CLR
2020-10-23 23:00:00,36747.625568,FST,48.0,34.0,58.16,80.0,5.0,30.28,1023.2,10.0,,45.4,CLR
2020-10-24 00:00:00,34533.832535,FST,46.0,33.1,60.49,80.0,5.0,30.28,1023.1,10.0,,43.02,CLR
2020-10-24 01:00:00,32794.55763,FST,44.1,33.1,65.02,90.0,5.0,30.28,1022.6,10.0,,41.55,CLR
2020-10-24 02:00:00,31561.783124,FST,44.1,33.1,65.02,110.0,5.0,30.26,1022.3,10.0,,41.55,CLR
2020-10-24 03:00:00,30740.712274,FST,44.1,33.1,65.02,140.0,5.0,30.26,1022.0,10.0,,41.55,CLR
2020-10-24 04:00:00,30267.379585,FST,43.0,32.0,64.88,150.0,5.0,30.25,1021.4,10.0,,,CLR
2020-10-24 05:00:00,30162.54626,FST,42.1,32.0,67.17,170.0,4.0,30.23,1021.0,10.0,,39.21,CLR
2020-10-24 06:00:00,30664.140923,FST,42.1,32.0,67.17,170.0,4.0,30.21,1020.7,10.0,,39.21,CLR
2020-10-24 07:00:00,31570.848543,FST,42.1,32.0,67.17,140.0,5.0,30.21,1020.7,10.0,,40.23,CLR
2020-10-24 08:00:00,32805.8628,FST,41.0,32.0,70.08,120.0,3.0,30.21,1021.1,10.0,,38.98,CLR
2020-10-24 09:00:00,34024.800516,FST,42.1,32.0,67.17,150.0,5.0,30.21,1020.5,10.0,,38.39,CLR
2020-10-24 10:00:00,35127.936289,FST,46.9,34.0,60.61,150.0,5.0,30.2,1020.6,10.0,,44.82,CLR
2020-10-24 11:00:00,35790.529251,FST,52.0,36.0,54.26,150.0,5.0,30.2,1019.8,10.0,,,CLR
2020-10-24 12:00:00,35982.55478,FST,57.0,37.0,47.04,170.0,5.0,30.18,1018.5,10.0,,,CLR
2020-10-24 13:00:00,35864.960953,FST,63.0,39.0,41.09,150.0,7.0,30.14,1016.6,10.0,,,CLR
2020-10-24 14:00:00,35670.847104,FST,66.9,41.0,38.76,150.0,5.0,30.09,1014.4,10.0,,,CLR
2020-10-24 15:00:00,35621.45394,FST,72.0,43.0,35.16,130.0,5.0,30.03,1012.3,10.0,,,CLR
2020-10-24 16:00:00,35844.523772,FST,77.0,44.1,31.02,160.0,5.0,29.98,1010.8,10.0,,,CLR
2020-10-24 17:00:00,36128.399227,FST,79.0,45.0,30.05,80.0,7.0,29.94,1010.0,10.0,,,CLR
2020-10-24 18:00:00,36263.103448,FST,80.1,45.0,28.99,90.0,7.0,29.92,1009.7,10.0,,79.18,CLR
2020-10-24 19:00:00,36570.031795,FST,77.0,46.0,33.34,110.0,5.0,29.91,1009.4,10.0,,,CLR
2020-10-24 20:00:00,37446.535846,FST,73.9,46.0,36.98,140.0,10.0,29.91,1009.6,10.0,,,CLR
2020-10-24 21:00:00,37016.90263,FST,71.1,46.9,42.05,150.0,10.0,29.91,1009.9,10.0,,,CLR
2020-10-24 22:00:00,36259.660628,FST,64.9,45.0,48.44,170.0,10.0,29.91,1010.0,10.0,,,CLR
2020-10-24 23:00:00,34976.512327,FST,68.0,45.0,43.51,190.0,10.0,29.91,1009.6,10.0,,,CLR
2020-10-25 00:00:00,33410.078943,FST,62.1,44.1,51.64,190.0,10.0,29.91,1009.4,10.0,,,CLR
2020-10-25 01:00:00,32143.355237,FST,64.9,43.0,44.88,220.0,11.0,29.9,1008.7,10.0,,,CLR
2020-10-25 02:00:00,31063.298908,FST,64.9,41.0,41.55,220.0,14.0,29.89,1008.0,10.0,,,CLR
2020-10-25 03:00:00,30382.380607,FST,64.9,41.0,41.55,220.0,15.0,29.88,1007.8,10.0,,,CLR
2020-10-25 04:00:00,30007.582397,FST,66.0,42.1,41.73,220.0,13.0,29.88,1007.4,10.0,,,CLR
2020-10-25 05:00:00,29871.782905,FST,66.0,42.1,41.73,220.0,15.0,29.88,1007.2,10.0,,,CLR
2020-10-25 06:00:00,30090.355053,FST,66.0,42.1,41.73,220.0,13.0,29.88,1007.3,10.0,,,CLR
2020-10-25 07:00:00,30805.278978,FST,66.9,41.0,38.76,220.0,14.0,29.89,1007.8,10.0,,,CLR
2020-10-25 08:00:00,31883.749136,FST,66.0,41.0,39.99,220.0,11.0,29.9,1008.3,10.0,,,CLR
2020-10-25 09:00:00,33013.165954,FST,69.1,41.0,35.94,230.0,11.0,29.91,1008.7,10.0,,,CLR
2020-10-25 10:00:00,34484.699458,FST,75.9,42.1,29.8,230.0,13.0,29.92,1009.0,10.0,,,CLR
2020-10-25 11:00:00,35813.710619,FST,84.0,43.0,23.66,230.0,10.0,29.93,1008.6,10.0,,81.48,CLR
2020-10-25 12:00:00,36926.544668,FST,86.0,42.1,21.43,300.0,7.0,29.92,1008.4,10.0,,82.92,CLR
2020-10-25 13:00:00,38024.06895,FST,90.0,39.9,17.34,320.0,10.0,29.91,1007.0,10.0,,86.11,CLR
2020-10-25 14:00:00,39011.22431,FST,91.0,37.9,15.54,310.0,11.0,29.88,1005.7,10.0,,86.9,CLR
2020-10-25 15:00:00,39766.949833,FST,91.9,35.1,13.53,260.0,13.0,29.84,1004.1,10.0,17.0,87.6,CLR
2020-10-25 16:00:00,40562.052366,FST,93.9,34.0,12.17,310.0,8.0,29.8,1002.9,10.0,,89.13,CLR
2020-10-25 17:00:00,41249.569519,FST,93.0,34.0,12.51,290.0,14.0,29.77,1002.5,10.0,18.0,88.42,CLR
2020-10-25 18:00:00,41795.678078,FST,91.0,39.9,16.8,260.0,14.0,29.76,1002.6,10.0,18.0,86.98,CLR
2020-10-25 19:00:00,42343.971684,FST,84.0,48.9,29.58,130.0,14.0,29.77,1003.1,10.0,,81.97,CLR
2020-10-25 20:00:00,43139.318331,FST,79.0,50.0,36.27,130.0,11.0,29.78,1003.8,10.0,,,CLR
2020-10-25 21:00:00,42585.497042,FST,77.0,48.9,37.19,150.0,15.0,29.79,1004.4,10.0,,,CLR
2020-10-25 22:00:00,41342.844037,FST,72.0,54.0,53.09,130.0,16.0,29.82,1005.4,10.0,21.0,,CLR
2020-10-25 23:00:00,39255.279064,FST,71.1,54.0,57.72,120.0,16.0,29.84,1006.0,10.0,17.0,,CLR
2020-10-26 00:00:00,36953.146651,FST,57.0,45.0,64.12,60.0,17.0,29.86,1006.8,10.0,20.0,,CLR
2020-10-26 01:00:00,35174.192328,FST,55.0,45.0,73.89,360.0,16.0,29.93,1009.2,10.0,19.0,,CLR
2020-10-26 02:00:00,33975.95232,FST,51.1,44.1,80.06,360.0,16.0,29.97,1010.6,10.0,21.0,,OVC
2020-10-26 03:00:00,33397.971448,FST,48.0,45.0,89.29,360.0,16.0,30.02,1012.4,10.0,18.0,42.37,OVC
2020-10-26 04:00:00,33286.34505,FST,46.9,45.0,100.0,360.0,16.0,30.03,1012.8,5.0,,40.66,OVC
2020-10-26 05:00:00,33858.288659,FST,43.0,42.1,96.6,30.0,14.0,30.06,1014.1,9.0,17.0,36.37,OVC
2020-10-26 06:00:00,35416.178943,FST,41.0,41.0,100.0,40.0,14.0,30.08,1014.8,5.0,19.0,32.76,OVC
2020-10-26 07:00:00,38113.991164,FST,39.9,39.9,100.0,40.0,14.0,30.11,1016.2,9.0,,32.06,BKN
2020-10-26 08:00:00,39828.789291,FST,37.9,37.0,100.0,50.0,11.0,30.12,1017.0,10.0,,31.38,BKN
2020-10-26 09:00:00,40670.001431,FST,37.0,37.0,100.0,40.0,11.0,30.14,1017.9,5.0,,29.24,OVC
2020-10-26 10:00:00,41905.401189,FST,36.0,35.1,96.49,50.0,11.0,30.16,1018.9,10.0,,27.98,BKN
2020-10-26 11:00:00,43232.074594,FST,37.0,36.0,96.49,40.0,13.0,30.18,1019.9,10.0,17.0,29.73,OVC
2020-10-26 12:00:00,44394.625692,FST,37.0,34.0,92.35,50.0,11.0,30.18,1019.9,10.0,,29.73,OVC
2020-10-26 13:00:00,45397.090612,FST,37.0,34.0,88.78,40.0,11.0,30.17,1019.4,10.0,,30.27,OVC
2020-10-26 14:00:00,45950.148477,FST,37.0,35.1,96.49,40.0,11.0,30.15,1018.8,9.0,,30.27,OVC
2020-10-26 15:00:00,46011.898055,FST,37.9,34.0,85.69,40.0,11.0,30.13,1017.8,10.0,,30.85,OVC
2020-10-26 16:00:00,46350.222866,FST,37.0,33.1,85.64,30.0,10.0,30.1,1017.6,10.0,,30.27,OVC
2020-10-26 17:00:00,46416.944413,FST,37.0,33.1,85.64,40.0,10.0,30.09,1017.5,10.0,,29.73,OVC
2020-10-26 18:00:00,46338.260707,FST,36.0,34.0,92.35,40.0,11.0,30.09,1018.0,10.0,,28.49,OVC
2020-10-26 19:00:00,46158.827123,FST,36.0,34.0,96.46,40.0,13.0,30.1,1018.5,6.0,16.0,26.69,BKN
2020-10-26 20:00:00,46042.605148,FST,33.1,32.0,95.67,40.0,13.0,30.11,1019.2,10.0,,23.86,OVC
2020-10-26 21:00:00,45060.099377,FST,33.1,32.0,95.67,60.0,13.0,30.13,1019.6,7.0,,24.88,BKN
2020-10-26 22:00:00,43575.063987,FST,32.0,32.0,100.0,60.0,14.0,30.15,1020.5,5.0,17.0,22.0,OVC
2020-10-26 23:00:00,41273.290593,FST,30.0,28.9,95.61,40.0,15.0,30.15,1020.7,10.0,16.0,19.94,BKN
2020-10-27 00:00:00,39004.230446,FST,30.0,28.9,95.61,40.0,11.0,30.17,1021.1,6.0,,21.03,BKN
2020-10-27 01:00:00,37175.854143,FST,28.9,28.0,96.38,50.0,11.0,30.17,1021.1,3.5,,20.29,OVC
2020-10-27 02:00:00,35931.821822,FST,28.9,28.4,100.0,60.0,9.0,30.16,1020.6,3.0,,20.29,BKN
2020-10-27 03:00:00,35163.397093,FST,28.9,28.0,100.0,60.0,9.0,30.15,1020.7,4.0,,22.71,BKN
2020-10-27 04:00:00,34950.239643,FST,28.0,28.0,100.0,30.0,8.0,30.14,1020.2,6.0,,20.71,BKN
2020-10-27 05:00:00,35412.773216,FST,28.0,28.0,100.0,360.0,11.0,30.13,1020.0,3.0,,20.71,BKN
2020-10-27 06:00:00,37141.819649,FST,28.0,27.0,100.0,40.0,9.0,30.13,1019.7,5.0,,20.71,BKN
2020-10-27 07:00:00,40161.77667,FST,28.0,27.0,95.97,30.0,10.0,30.13,1020.4,7.0,,20.71,BKN
2020-10-27 08:00:00,42416.240609,FST,28.0,27.0,96.35,360.0,10.0,30.15,1021.1,10.0,,19.19,BKN
2020-10-27 09:00:00,43520.893903,FST,28.4,27.0,95.97,360.0,11.0,30.18,1021.9,5.0,,19.04,BKN
2020-10-27 10:00:00,44325.647434,FST,28.0,27.0,100.0,360.0,13.0,30.19,1022.5,5.0,,18.54,OVC
2020-10-27 11:00:00,45069.371223,FST,28.0,27.0,96.35,360.0,12.0,30.2,1022.8,7.0,,17.95,OVC
2020-10-27 12:00:00,45516.305097,FST,28.9,28.0,96.38,360.0,11.0,30.2,1022.0,9.0,,19.04,BKN
2020-10-27 13:00:00,45679.51,FST,30.0,28.0,96.38,360.0,11.0,30.18,1021.1,8.0,,21.65,OVC
2020-10-27 14:00:00,45709.340381,FST,30.9,28.9,95.61,360.0,11.0,30.15,1020.1,9.0,,21.59,BKN
2020-10-27 15:00:00,45497.124384,FST,30.9,28.0,92.15,360.0,11.0,30.12,1018.9,10.0,,22.76,BKN
2020-10-27 16:00:00,45382.321422,FST,30.9,28.9,92.18,360.0,11.0,30.09,1018.1,10.0,,22.76,BKN
2020-10-27 17:00:00,45558.525667,FST,30.9,28.9,92.18,360.0,13.0,30.06,1018.1,10.0,,21.59,SCT
2020-10-27 18:00:00,45808.55741,FST,30.9,30.0,96.41,350.0,15.0,30.09,1019.1,10.0,,21.08,BKN
2020-10-27 19:00:00,46299.234578,FST,30.0,28.9,95.61,340.0,15.0,30.1,1019.4,4.0,,19.46,BKN
2020-10-27 20:00:00,46423.093373,FST,30.0,28.9,95.61,330.0,15.0,30.12,1020.3,6.0,,19.94,BKN
2020-10-27 21:00:00,45385.809897,FST,30.0,28.9,95.61,340.0,13.0,30.15,1021.1,10.0,,22.34,BKN
2020-10-27 22:00:00,43707.179292,FST,28.9,28.0,96.38,330.0,13.0,30.17,1022.0,6.0,,19.08,BKN
2020-10-27 23:00:00,41307.47465,FST,30.0,28.9,96.38,320.0,12.0,30.18,1022.1,9.0,,20.46,OVC
2020-10-28 00:00:00,39195.493574,FST,28.9,28.0,96.38,300.0,11.0,30.18,1021.9,10.0,,19.08,OVC
2020-10-28 01:00:00,37761.410744,FST,28.9,27.0,92.49,290.0,9.0,30.17,1021.2,10.0,,21.8,OVC
2020-10-28 02:00:00,36882.48975,FST,28.9,27.0,92.49,290.0,9.0,30.15,1020.8,10.0,,20.29,BKN
2020-10-28 03:00:00,36444.145449,FST,28.9,27.0,92.49,290.0,9.0,30.15,1020.6,10.0,,20.29,FEW
2020-10-28 04:00:00,36479.960374,FST,28.9,27.0,92.49,290.0,10.0,30.13,1020.1,10.0,,20.29,OVC
2020-10-28 05:00:00,37167.566603,FST,28.9,27.0,92.49,280.0,9.0,30.12,1019.3,10.0,,19.9,BKN
2020-10-28 06:00:00,39143.055899,FST,28.0,25.0,88.33,270.0,9.0,30.1,1018.8,10.0,,19.9,CLR
2020-10-28 07:00:00,42149.703414,FST,27.0,24.1,88.65,250.0,9.0,30.08,1018.7,10.0,,17.95,CLR
2020-10-28 08:00:00,44229.956786,FST,27.0,24.1,88.65,220.0,11.0,30.08,1018.5,10.0,,16.15,CLR
2020-10-28 09:00:00,44999.094357,FST,30.0,26.1,85.21,240.0,11.0,30.08,1018.5,10.0,,19.94,CLR
2020-10-28 10:00:00,45338.022141,FST,32.0,28.9,88.17,240.0,11.0,30.08,1018.4,10.0,,23.51,CLR
2020-10-28 11:00:00,45272.294231,FST,37.0,30.9,78.37,260.0,13.0,30.09,1018.7,10.0,,28.37,CLR
2020-10-28 12:00:00,44705.832,FST,41.0,30.9,67.03,270.0,15.0,30.09,1017.9,10.0,17.0,33.84,CLR
2020-10-28 13:00:00,43899.468448,FST,45.0,33.1,62.83,300.0,16.0,30.08,1016.8,10.0,21.0,38.89,CLR
2020-10-28 14:00:00,42959.725179,FST,48.0,30.0,49.49,300.0,21.0,30.04,1015.4,10.0,27.0,40.81,BKN
2020-10-28 15:00:00,42044.967361,FST,51.1,30.0,44.09,300.0,20.0,30.02,1014.6,10.0,29.0,,CLR
2020-10-28 16:00:00,41407.767445,FST,52.0,30.0,42.65,310.0,20.0,30.0,1013.9,10.0,26.0,,CLR
2020-10-28 17:00:00,41311.856751,FST,54.0,28.9,37.89,300.0,21.0,29.99,1013.9,10.0,28.0,,CLR
2020-10-28 18:00:00,41278.990091,FST,55.0,30.0,38.21,300.0,20.0,29.98,1013.6,10.0,24.0,,CLR
2020-10-28 19:00:00,41816.265063,FST,52.0,30.0,42.65,320.0,20.0,30.0,1014.5,10.0,22.0,,CLR
2020-10-28 20:00:00,42938.89583,FST,48.9,30.9,49.63,320.0,11.0,30.02,1015.5,10.0,,44.16,CLR
2020-10-28 21:00:00,42529.556348,FST,46.0,30.9,55.36,330.0,14.0,30.04,1016.4,10.0,,39.82,CLR
2020-10-28 22:00:00,41415.875101,FST,43.0,32.0,64.88,320.0,11.0,30.07,1017.4,10.0,,37.19,CLR
2020-10-28 23:00:00,39482.486824,FST,42.1,32.0,67.17,320.0,8.0,30.11,1018.3,10.0,,37.09,CLR
2020-10-29 00:00:00,37665.000748,FST,41.0,32.0,70.08,270.0,10.0,30.12,1018.7,10.0,,34.7,CLR
2020-10-29 01:00:00,36588.407903,FST,41.0,32.0,70.08,280.0,11.0,30.13,1018.8,10.0,,34.7,CLR
2020-10-29 02:00:00,36106.343432,FST,46.0,33.1,60.49,290.0,15.0,30.16,1019.5,10.0,18.0,39.82,BKN
2020-10-29 03:00:00,35926.252796,FST,46.0,33.1,60.49,310.0,13.0,30.18,1019.2,10.0,17.0,41.36,BKN
2020-10-29 04:00:00,36072.843604,FST,43.0,33.1,67.82,300.0,7.0,30.18,1019.9,10.0,,38.19,CLR
2020-10-29 05:00:00,36914.886427,FST,44.1,34.0,67.41,300.0,12.0,30.21,1020.8,10.0,,37.4,OVC
2020-10-29 06:00:00,38936.63937,FST,43.0,34.0,70.3,290.0,7.0,30.23,1021.7,10.0,,38.19,CLR
2020-10-29 07:00:00,42139.365356,FST,42.1,33.1,70.2,260.0,8.0,30.24,1022.4,10.0,,36.55,CLR
2020-10-29 08:00:00,44129.860991,FST,41.0,33.1,73.25,260.0,9.0,30.26,1023.3,10.0,,34.7,CLR
2020-10-29 09:00:00,44270.542507,FST,43.0,33.1,67.82,290.0,10.0,30.31,1024.7,10.0,,36.76,CLR
2020-10-29 10:00:00,43967.501488,FST,48.9,35.1,58.75,330.0,9.0,30.35,1026.2,10.0,,44.53,CLR
2020-10-29 11:00:00,43717.247204,FST,54.0,35.1,48.65,350.0,15.0,30.36,1026.4,10.0,,,CLR
2020-10-29 12:00:00,43150.884304,FST,55.9,34.0,43.46,350.0,17.0,30.36,1026.0,10.0,22.0,,CLR
2020-10-29 13:00:00,42322.023347,FST,57.9,33.1,39.0,350.0,16.0,30.35,1025.2,10.0,19.0,,CLR
2020-10-29 14:00:00,41239.125832,FST,60.1,33.1,36.05,350.0,13.0,30.34,1024.1,10.0,19.0,,CLR
2020-10-29 15:00:00,40086.036903,FST,62.1,33.1,33.58,360.0,11.0,30.3,1022.7,10.0,,,CLR
2020-10-29 16:00:00,39320.064863,FST,63.0,33.1,32.53,360.0,11.0,30.27,1022.3,10.0,16.0,,CLR
2020-10-29 17:00:00,38822.307474,FST,64.0,33.1,31.41,360.0,7.0,30.26,1022.2,10.0,,,CLR
2020-10-29 18:00:00,38518.23516,FST,64.0,32.0,30.05,360.0,7.0,30.26,1022.2,10.0,,,CLR
2020-10-29 19:00:00,39108.911814,FST,61.0,33.1,34.91,350.0,5.0,30.26,1022.5,10.0,,,CLR
2020-10-29 20:00:00,40544.280234,FST,55.0,34.0,44.9,0.0,0.0,30.27,1023.1,10.0,,,CLR
2020-10-29 21:00:00,40409.774451,FST,52.0,34.0,50.12,240.0,3.0,30.29,1023.8,10.0,,,CLR
2020-10-29 22:00:00,39442.550111,FST,51.1,33.1,49.98,240.0,5.0,30.3,1023.8,10.0,,,CLR
2020-10-29 23:00:00,37671.78576,FST,48.0,34.0,58.16,230.0,5.0,30.3,1023.9,10.0,,46.1,CLR
2020-10-30 00:00:00,36011.342355,FST,45.0,34.0,65.13,130.0,5.0,30.3,1023.9,10.0,,,CLR
2020-10-30 01:00:00,34873.081043,FST,43.0,32.0,64.88,170.0,8.0,30.3,1023.8,10.0,,38.19,CLR
2020-10-30 02:00:00,34326.162552,FST,48.0,33.1,56.1,180.0,9.0,30.3,1023.4,10.0,,43.41,CLR
2020-10-30 03:00:00,34328.871049,FST,45.0,33.1,62.83,180.0,9.0,30.29,1023.3,10.0,,40.63,CLR
2020-10-30 04:00:00,34643.615202,FST,43.0,33.1,67.82,190.0,8.0,30.29,1023.2,10.0,,38.19,CLR
2020-10-30 05:00:00,35676.677024,FST,43.0,33.1,67.82,190.0,9.0,30.28,1022.8,10.0,,37.66,CLR
2020-10-30 06:00:00,37892.57142,FST,39.9,32.0,73.14,170.0,9.0,30.27,1022.9,10.0,,33.34,CLR
2020-10-30 07:00:00,41168.539935,FST,41.0,32.0,70.08,170.0,8.0,30.28,1023.3,10.0,,36.37,CLR
2020-10-30 08:00:00,43305.688581,FST,37.9,32.0,79.08,180.0,8.0,30.29,1023.9,10.0,,31.97,CLR
2020-10-30 09:00:00,43331.934866,FST,41.0,33.1,73.25,170.0,8.0,30.3,1024.3,10.0,,36.37,CLR
2020-10-30 10:00:00,42121.525974,FST,48.9,35.1,58.75,160.0,5.0,30.32,1024.6,10.0,,48.01,CLR
2020-10-30 11:00:00,40930.317586,FST,57.0,36.0,45.22,140.0,4.0,30.32,1024.3,10.0,,,CLR
2020-10-30 12:00:00,39692.089153,FST,64.9,36.0,34.17,170.0,8.0,30.32,1023.3,10.0,,,CLR
2020-10-30 13:00:00,38559.516068,FST,68.0,36.0,30.69,160.0,11.0,30.29,1022.0,10.0,,,CLR
2020-10-30 14:00:00,37856.440145,FST,71.1,36.0,27.6,160.0,11.0,30.26,1020.3,10.0,,,CLR
2020-10-30 15:00:00,37418.447988,FST,73.0,36.0,25.88,170.0,11.0,30.21,1019.1,10.0,,,CLR
2020-10-30 16:00:00,37175.234262,FST,73.9,36.0,25.11,160.0,11.0,30.18,1018.0,10.0,,,CLR
2020-10-30 17:00:00,37126.501763,FST,73.9,36.0,25.11,170.0,11.0,30.15,1017.5,10.0,16.0,,CLR
2020-10-30 18:00:00,37123.923404,FST,72.0,35.1,25.83,150.0,16.0,30.14,1017.6,10.0,18.0,,CLR
2020-10-30 19:00:00,37112.169677,FST,68.0,34.0,28.34,140.0,15.0,30.13,1017.6,10.0,18.0,,CLR
2020-10-30 20:00:00,37847.396321,FST,64.0,34.0,32.56,140.0,13.0,30.14,1018.4,10.0,16.0,,CLR
2020-10-30 21:00:00,37349.270653,FST,61.0,35.1,37.81,140.0,13.0,30.16,1019.0,10.0,16.0,,CLR
2020-10-30 22:00:00,36559.424318,FST,59.0,35.1,40.61,160.0,14.0,30.17,1018.9,10.0,,,CLR
2020-10-30 23:00:00,35525.166058,FST,57.0,35.1,43.63,160.0,14.0,30.17,1018.8,10.0,17.0,,CLR
2020-10-31 00:00:00,34396.57,FST,55.9,35.1,45.4,160.0,15.0,30.17,1018.4,10.0,,,CLR
2020-10-31 01:00:00,33325.301868,FST,54.0,35.1,48.65,160.0,15.0,30.16,1017.9,10.0,,,CLR
2020-10-31 02:00:00,32727.02924,FST,52.0,35.1,52.36,170.0,13.0,30.15,1017.2,10.0,,,CLR
2020-10-31 03:00:00,32516.342105,FST,51.1,35.1,54.13,170.0,11.0,30.14,1017.3,10.0,,,CLR
2020-10-31 04:00:00,32619.060316,FST,48.9,35.1,58.75,170.0,11.0,30.14,1016.6,10.0,,44.16,CLR
2020-10-31 05:00:00,33081.904835,FST,46.9,35.1,63.33,170.0,11.0,30.12,1016.5,10.0,,41.65,CLR
2020-10-31 06:00:00,34094.211524,FST,46.9,35.1,63.33,170.0,11.0,30.11,1016.5,10.0,,41.3,CLR
2020-10-31 07:00:00,35785.875444,FST,46.0,35.1,65.52,210.0,11.0,30.13,1017.4,10.0,,43.02,CLR
2020-10-31 08:00:00,37545.745859,FST,44.1,35.1,70.43,220.0,5.0,30.14,1017.9,10.0,,40.77,CLR
2020-10-31 09:00:00,38676.735327,FST,45.0,35.1,68.05,220.0,5.0,30.15,1018.4,10.0,,,CLR
2020-10-31 10:00:00,38666.029118,FST,54.0,37.0,52.45,0.0,0.0,30.17,1018.8,10.0,,,CLR
2020-10-31 11:00:00,37968.091947,FST,64.0,37.9,38.0,0.0,0.0,30.19,1019.1,10.0,,,CLR
2020-10-31 12:00:00,37189.851557,FST,71.1,37.9,29.74,340.0,3.0,30.18,1018.6,10.0,,,CLR
2020-10-31 13:00:00,36518.854967,FST,75.9,37.0,24.43,30.0,4.0,30.17,1018.0,10.0,,,CLR
2020-10-31 14:00:00,36154.080621,FST,78.1,37.0,22.71,,4.0,30.15,1017.5,10.0,,,CLR
2020-10-31 15:00:00,36136.668481,FST,80.1,35.1,19.72,320.0,7.0,30.13,1016.7,10.0,,78.74,CLR
2020-10-31 16:00:00,36448.654952,FST,81.0,34.0,18.33,,3.0,30.12,1016.6,10.0,,79.13,CLR
2020-10-31 17:00:00,36805.967264,FST,82.0,33.1,17.12,320.0,7.0,30.12,1016.5,10.0,,79.75,CLR
2020-10-31 18:00:00,36831.362451,FST,80.1,33.1,18.21,30.0,6.0,30.13,1016.8,10.0,,78.67,CLR
2020-10-31 19:00:00,36361.529044,FST,73.9,34.0,23.19,0.0,0.0,30.14,1017.6,10.0,,,CLR
2020-10-31 20:00:00,36469.156783,FST,71.1,33.1,24.59,60.0,3.0,30.16,1018.5,10.0,,,CLR
2020-10-31 21:00:00,35697.472797,FST,66.9,35.1,30.75,160.0,5.0,30.19,1019.7,10.0,,,CLR
2020-10-31 22:00:00,34891.897999,FST,64.9,34.0,31.55,180.0,4.0,30.22,1020.2,10.0,,,CLR
2020-10-31 23:00:00,33840.779927,FST,66.9,33.1,28.39,0.0,0.0,30.24,1020.4,10.0,,,CLR
2020-11-01 00:00:00,32551.59874,FST,63.0,35.1,35.24,250.0,4.0,30.26,1021.0,10.0,,,CLR
2020-11-01 01:00:00,31398.504661,FST,63.0,35.1,37.81,350.0,6.0,30.3,1022.0,10.0,,,CLR
2020-11-01 02:00:00,30650.118113,FST,57.9,34.0,40.43,340.0,3.0,30.32,1022.9,10.0,,,CLR
2020-11-01 03:00:00,30005.218299,FST,57.0,34.0,41.76,40.0,4.0,30.34,1023.5,10.0,,,CLR
2020-11-01 04:00:00,30098.902154,FST,55.0,37.0,50.58,50.0,5.0,30.36,1024.2,10.0,,,CLR
2020-11-01 05:00:00,30457.54353,FST,52.0,37.9,58.48,0.0,0.0,30.39,1025.6,10.0,,,CLR
2020-11-01 06:00:00,31140.446003,FST,52.0,37.9,58.48,10.0,5.0,30.42,1027.0,10.0,,,CLR
2020-11-01 07:00:00,32142.937033,FST,50.0,37.9,62.98,330.0,3.0,30.46,1028.5,10.0,,,CLR
2020-11-01 08:00:00,33204.278175,FST,50.0,39.9,68.1,280.0,3.0,30.5,1030.0,10.0,,,CLR
2020-11-01 09:00:00,34278.450853,FST,54.0,41.0,61.32,270.0,3.0,30.54,1031.2,10.0,,,CLR
2020-11-01 10:00:00,34941.014496,FST,61.0,43.0,51.48,50.0,5.0,30.55,1031.4,10.0,,,CLR
2020-11-01 11:00:00,35291.705991,FST,64.9,43.0,44.88,50.0,7.0,30.55,1031.4,10.0,,,CLR
2020-11-01 12:00:00,35739.670022,FST,64.9,42.1,43.36,40.0,6.0,30.54,1030.9,10.0,,,CLR
2020-11-01 13:00:00,36227.077478,FST,68.0,39.9,35.76,60.0,9.0,30.51,1029.8,10.0,,,CLR
2020-11-01 14:00:00,36719.641899,FST,69.1,39.0,33.25,30.0,7.0,30.48,1028.8,10.0,,,CLR
2020-11-01 15:00:00,37110.886339,FST,72.0,37.9,28.85,,6.0,30.46,1028.0,10.0,,,CLR
2020-11-01 16:00:00,37494.367527,FST,71.1,37.0,28.71,90.0,6.0,30.45,1027.8,10.0,,,CLR
2020-11-01 17:00:00,37637.619985,FST,70.0,36.0,28.65,90.0,6.0,30.45,1028.1,10.0,,,CLR
2020-11-01 18:00:00,37979.308686,FST,68.0,37.0,31.92,60.0,4.0,30.45,1028.2,10.0,,,CLR
2020-11-01 19:00:00,38867.682965,FST,64.0,37.0,36.68,70.0,3.0,30.45,1028.6,10.0,,,CLR
2020-11-01 20:00:00,38204.634588,FST,62.1,36.0,37.69,100.0,6.0,30.47,1029.3,10.0,,,CLR
2020-11-01 21:00:00,37047.897996,FST,59.0,36.0,42.08,100.0,6.0,30.48,1029.5,10.0,,,CLR
2020-11-01 22:00:00,35612.715845,FST,57.0,36.0,45.22,130.0,5.0,30.48,1029.4,10.0,,,CLR
2020-11-01 23:00:00,33714.77948,FST,54.0,36.0,50.42,150.0,7.0,30.48,1029.3,10.0,,,CLR
2020-11-02 00:00:00,32029.544886,FST,51.1,36.0,56.1,160.0,5.0,30.47,1029.1,10.0,,,CLR
2020-11-02 01:00:00,30862.408349,FST,53.1,37.0,54.21,150.0,6.0,30.47,1028.7,10.0,,,CLR
2020-11-02 02:00:00,30397.730703,FST,52.0,37.0,56.45,140.0,7.0,30.47,1028.8,10.0,,,CLR
2020-11-02 03:00:00,30412.384143,FST,50.0,37.0,60.79,120.0,7.0,30.46,1028.5,10.0,,,CLR
2020-11-02 04:00:00,30834.189185,FST,53.1,37.9,56.17,150.0,11.0,30.45,1028.1,10.0,,,CLR
2020-11-02 05:00:00,31997.616532,FST,50.0,37.0,60.79,120.0,4.0,30.46,1028.6,10.0,,,CLR
2020-11-02 06:00:00,34376.405942,FST,50.0,39.0,65.75,160.0,9.0,30.47,1029.0,10.0,,,CLR
2020-11-02 07:00:00,37836.677439,FST,50.0,39.9,68.1,170.0,10.0,30.47,1029.2,10.0,,,CLR
2020-11-02 08:00:00,39407.7333,FST,52.0,39.9,63.24,170.0,10.0,30.49,1029.8,10.0,,,CLR
2020-11-02 09:00:00,39318.92816,FST,57.0,39.9,52.7,170.0,15.0,30.5,1030.2,10.0,,,CLR
2020-11-02 10:00:00,38977.194182,FST,62.1,41.0,45.84,160.0,15.0,30.5,1029.8,10.0,,,CLR
2020-11-02 11:00:00,38645.460253,FST,64.9,42.1,43.36,150.0,11.0,30.49,1029.5,10.0,,,CLR
2020-11-02 12:00:00,38439.578957,FST,68.0,41.0,37.32,130.0,8.0,30.46,1028.4,10.0,,,CLR
2020-11-02 13:00:00,38299.839234,FST,71.1,37.9,29.74,160.0,10.0,30.42,1026.9,10.0,,,CLR
2020-11-02 14:00:00,38579.802345,FST,73.0,35.1,24.97,170.0,10.0,30.39,1025.5,10.0,,,CLR
2020-11-02 15:00:00,38753.713289,FST,73.9,33.1,22.37,160.0,11.0,30.37,1024.4,10.0,,,CLR
2020-11-02 16:00:00,38933.051425,FST,73.9,33.1,22.37,150.0,14.0,30.34,1023.7,10.0,19.0,,CLR
2020-11-02 17:00:00,38990.877523,FST,73.0,34.0,23.9,150.0,13.0,30.33,1023.8,10.0,17.0,,CLR
2020-11-02 18:00:00,39201.562144,FST,69.1,36.0,29.55,140.0,13.0,30.33,1023.9,10.0,16.0,,CLR
2020-11-02 19:00:00,40051.417831,FST,64.9,36.0,34.17,140.0,13.0,30.33,1024.3,10.0,,,CLR
2020-11-02 20:00:00,39158.173272,FST,62.1,37.0,39.21,140.0,14.0,30.34,1024.7,10.0,16.0,,CLR
2020-11-02 21:00:00,38191.895994,FST,60.1,37.9,43.61,150.0,14.0,30.34,1024.6,10.0,18.0,,CLR
2020-11-02 22:00:00,36861.849187,FST,59.0,39.0,47.35,150.0,13.0,30.34,1024.4,10.0,17.0,,CLR
2020-11-02 23:00:00,34815.286201,FST,57.0,39.9,52.7,160.0,15.0,30.34,1024.0,10.0,18.0,,CLR
2020-11-03 00:00:00,33050.149708,FST,57.0,39.9,52.7,160.0,16.0,30.33,1023.3,10.0,19.0,,CLR
2020-11-03 01:00:00,32058.261671,FST,55.9,39.9,54.83,170.0,15.0,30.31,1022.9,10.0,,,CLR
2020-11-03 02:00:00,31581.938986,FST,54.0,39.0,56.74,180.0,11.0,30.31,1022.4,10.0,,,CLR
2020-11-03 03:00:00,31510.231904,FST,53.1,39.0,58.64,180.0,13.0,30.29,1022.0,10.0,,,CLR
2020-11-03 04:00:00,31827.49664,FST,52.0,39.0,61.06,170.0,11.0,30.28,1021.6,10.0,,,CLR
2020-11-03 05:00:00,32964.06431,FST,48.9,39.0,68.51,180.0,9.0,30.26,1021.5,10.0,,44.93,CLR
2020-11-03 06:00:00,35253.078058,FST,48.9,39.0,68.51,180.0,8.0,30.26,1021.7,10.0,,44.93,CLR
2020-11-03 07:00:00,38343.666855,FST,46.9,37.9,70.73,170.0,9.0,30.26,1022.0,10.0,,43.48,CLR
2020-11-03 08:00:00,39451.395794,FST,48.9,39.0,68.51,190.0,7.0,30.26,1022.2,10.0,,46.47,CLR
2020-11-03 09:00:00,39313.168564,FST,55.9,41.0,57.23,170.0,5.0,30.28,1022.6,10.0,,,CLR
2020-11-03 10:00:00,38809.411909,FST,64.9,42.1,43.36,180.0,5.0,30.29,1022.3,10.0,,,CLR
2020-11-03 11:00:00,38492.484195,FST,68.0,42.1,38.94,120.0,5.0,30.29,1021.9,10.0,,,CLR
2020-11-03 12:00:00,38469.512399,FST,73.0,41.0,31.47,130.0,5.0,30.27,1021.0,10.0,,,CLR
2020-11-03 13:00:00,38731.028233,FST,78.1,39.9,25.44,120.0,6.0,30.25,1019.4,10.0,,,CLR
2020-11-03 14:00:00,39255.178262,FST,81.0,36.0,19.85,220.0,9.0,30.21,1018.0,10.0,,79.2,CLR
2020-11-03 15:00:00,39676.717444,FST,80.1,35.1,19.72,240.0,11.0,30.17,1017.3,10.0,15.0,78.74,CLR
2020-11-03 16:00:00,40006.65463,FST,81.0,35.1,19.15,240.0,13.0,30.15,1016.8,10.0,,79.17,CLR
2020-11-03 17:00:00,40028.380334,FST,79.0,35.1,20.45,200.0,14.0,30.14,1016.9,10.0,15.0,,CLR
2020-11-03 18:00:00,39987.971606,FST,75.9,34.0,21.69,180.0,14.0,30.14,1017.2,10.0,,,CLR
2020-11-03 19:00:00,40733.195302,FST,70.0,37.9,30.88,180.0,12.0,30.16,1018.2,10.0,,,CLR
2020-11-03 20:00:00,39833.674876,FST,66.0,37.0,34.21,160.0,17.0,30.18,1019.0,10.0,19.0,,CLR
2020-11-03 21:00:00,38557.291583,FST,63.0,37.0,37.99,160.0,16.0,30.18,1018.8,10.0,20.0,,CLR
2020-11-03 22:00:00,36956.702524,FST,60.1,37.0,42.09,160.0,14.0,30.18,1018.7,10.0,,,CLR
2020-11-03 23:00:00,34937.029574,FST,59.0,37.0,43.78,160.0,14.0,30.19,1018.8,10.0,,,CLR
2020-11-04 00:00:00,33110.981813,FST,57.9,37.0,45.54,170.0,13.0,30.19,1018.4,10.0,,,CLR
2020-11-04 01:00:00,31847.198738,FST,55.9,37.0,48.95,180.0,10.0,30.18,1018.0,10.0,,,CLR
2020-11-04 02:00:00,31088.520817,FST,55.9,37.0,48.95,180.0,10.0,30.17,1017.6,10.0,,,CLR
2020-11-04 03:00:00,30819.53292,FST,54.0,36.0,50.42,160.0,10.0,30.16,1017.4,10.0,,,CLR
2020-11-04 04:00:00,30935.191689,FST,53.1,36.0,52.11,170.0,10.0,30.15,1017.1,10.0,,,CLR
2020-11-04 05:00:00,31757.156412,FST,52.0,35.1,52.36,180.0,10.0,30.15,1017.2,10.0,,,CLR
2020-11-04 06:00:00,33753.022622,FST,53.1,34.0,48.13,200.0,11.0,30.15,1017.4,10.0,,,CLR
2020-11-04 07:00:00,36742.552192,FST,52.0,34.0,50.12,200.0,10.0,30.16,1018.2,10.0,,,CLR
2020-11-04 08:00:00,37980.709125,FST,53.1,34.0,48.13,180.0,9.0,30.17,1018.6,10.0,,,CLR
2020-11-04 09:00:00,38174.25322,FST,61.0,37.0,40.77,160.0,9.0,30.2,1019.3,10.0,,,CLR
2020-11-04 10:00:00,38174.678368,FST,75.0,35.1,23.35,230.0,11.0,30.21,1019.1,10.0,,,CLR
2020-11-04 11:00:00,38434.343839,FST,80.1,34.0,18.88,300.0,7.0,30.21,1018.8,10.0,,78.7,CLR
2020-11-04 12:00:00,38923.985521,FST,82.0,35.1,18.54,340.0,5.0,30.2,1018.4,10.0,,79.8,CLR
2020-11-04 13:00:00,39531.740414,FST,84.0,35.1,17.38,350.0,8.0,30.19,1017.6,10.0,,81.18,CLR
2020-11-04 14:00:00,40311.405966,FST,86.0,35.1,16.3,360.0,7.0,30.16,1016.5,10.0,,82.68,CLR
2020-11-04 15:00:00,40927.378879,FST,84.9,34.0,16.16,360.0,7.0,30.14,1016.0,10.0,,81.82,CLR
2020-11-04 16:00:00,41303.032228,FST,84.9,36.0,17.5,120.0,7.0,30.12,1016.1,10.0,,81.86,CLR
2020-11-04 17:00:00,41316.348959,FST,82.9,35.1,18.01,110.0,10.0,30.13,1016.4,10.0,,80.41,CLR
2020-11-04 18:00:00,41240.69666,FST,77.0,35.1,21.85,130.0,11.0,30.14,1017.0,10.0,,,CLR
2020-11-04 19:00:00,41888.345394,FST,73.0,34.0,23.9,150.0,13.0,30.16,1017.8,10.0,18.0,,CLR
2020-11-04 20:00:00,40949.176718,FST,69.1,34.0,27.29,160.0,14.0,30.17,1018.4,10.0,,,CLR
2020-11-04 21:00:00,39703.136912,FST,66.9,35.1,30.75,160.0,14.0,30.17,1018.3,10.0,,,CLR
2020-11-04 22:00:00,37989.230039,FST,64.9,37.9,36.82,160.0,13.0,30.18,1018.1,10.0,,,CLR
2020-11-04 23:00:00,35773.213557,FST,64.0,41.0,42.88,160.0,11.0,30.19,1018.0,10.0,,,CLR
2020-11-05 00:00:00,33464.285713,FST,62.1,41.0,45.84,160.0,11.0,30.19,1018.2,10.0,,,CLR
2020-11-05 01:00:00,31824.013921,FST,59.0,41.0,51.18,170.0,8.0,30.19,1018.1,10.0,,,CLR
2020-11-05 02:00:00,30833.440646,FST,55.9,39.9,54.83,170.0,9.0,30.19,1017.9,10.0,,,CLR
2020-11-05 03:00:00,30348.850411,FST,55.0,39.0,54.7,180.0,9.0,30.18,1018.1,10.0,,,CLR
2020-11-05 04:00:00,30151.909122,FST,57.0,35.1,43.63,200.0,7.0,30.19,1018.2,10.0,,,CLR
2020-11-05 05:00:00,30587.100667,FST,55.9,33.1,41.92,260.0,9.0,30.2,1018.5,10.0,,,CLR
2020-11-05 06:00:00,32129.090493,FST,55.9,32.0,40.1,250.0,11.0,30.21,1019.3,10.0,,,CLR
2020-11-05 07:00:00,34697.51002,FST,55.0,33.1,43.31,260.0,13.0,30.23,1020.3,10.0,,,CLR
2020-11-05 08:00:00,35969.754635,FST,55.9,33.1,41.92,260.0,11.0,30.25,1021.2,10.0,,,CLR
2020-11-05 09:00:00,36918.557724,FST,63.0,35.1,35.24,270.0,11.0,30.27,1021.7,10.0,,,CLR
2020-11-05 10:00:00,37883.333748,FST,68.0,37.0,31.92,300.0,13.0,30.29,1022.1,10.0,,,CLR
2020-11-05 11:00:00,39021.064004,FST,72.0,35.1,25.83,300.0,11.0,30.29,1021.8,10.0,,,CLR
2020-11-05 12:00:00,40224.734386,FST,75.0,35.1,23.35,360.0,8.0,30.28,1021.2,10.0,,,CLR
2020-11-05 13:00:00,41286.339955,FST,78.1,34.0,20.16,360.0,10.0,30.27,1020.2,10.0,,,CLR
2020-11-05 14:00:00,42362.11912,FST,80.1,35.1,19.72,360.0,7.0,30.24,1019.4,10.0,,78.74,CLR
2020-11-05 15:00:00,43174.638432,FST,81.0,35.1,19.15,360.0,8.0,30.21,1018.7,10.0,,79.17,CLR
2020-11-05 16:00:00,43554.043596,FST,81.0,34.0,18.33,50.0,6.0,30.19,1018.3,10.0,,79.13,CLR
2020-11-05 17:00:00,43343.348388,FST,80.1,33.1,18.21,100.0,7.0,30.18,1018.2,10.0,,78.67,CLR
2020-11-05 18:00:00,42672.929151,FST,75.0,33.1,21.56,110.0,3.0,30.18,1018.3,10.0,,,CLR
2020-11-05 19:00:00,42922.12497,FST,66.9,33.1,28.39,170.0,5.0,30.19,1019.2,10.0,,,CLR
2020-11-05 20:00:00,41746.495624,FST,64.9,34.0,31.55,170.0,6.0,30.2,1019.5,10.0,,,CLR
2020-11-05 21:00:00,40302.609175,FST,64.0,34.0,32.56,170.0,7.0,30.2,1019.1,10.0,,,CLR
2020-11-05 22:00:00,38608.66571,FST,64.0,37.0,36.68,180.0,9.0,30.2,1018.9,10.0,,,CLR
2020-11-05 23:00:00,36294.900505,FST,57.9,37.9,47.18,180.0,9.0,30.2,1019.0,10.0,,,CLR
2020-11-06 00:00:00,33855.126925,FST,60.1,39.0,45.53,210.0,9.0,30.19,1018.3,10.0,,,CLR
2020-11-06 01:00:00,32075.160383,FST,57.0,37.9,48.73,220.0,13.0,30.18,1017.8,10.0,,,CLR
2020-11-06 02:00:00,30965.110043,FST,57.0,39.0,50.88,220.0,13.0,30.17,1017.5,10.0,,,CLR
2020-11-06 03:00:00,30320.561554,FST,55.9,39.9,54.83,220.0,11.0,30.16,1017.0,10.0,,,CLR
2020-11-06 04:00:00,30055.884173,FST,53.1,39.9,60.73,220.0,9.0,30.15,1016.9,10.0,,,CLR
2020-11-06 05:00:00,30440.245425,FST,52.0,39.9,63.24,210.0,5.0,30.14,1017.0,10.0,,,CLR
2020-11-06 06:00:00,31916.165214,FST,54.0,39.9,58.76,210.0,5.0,30.14,1017.1,10.0,,,CLR
2020-11-06 07:00:00,34321.746599,FST,53.1,39.9,60.73,220.0,10.0,30.14,1017.7,10.0,,,CLR
2020-11-06 08:00:00,35665.464419,FST,54.0,39.9,58.76,200.0,5.0,30.15,1018.0,10.0,,,CLR
2020-11-06 09:00:00,36875.097129,FST,63.0,42.1,46.34,180.0,7.0,30.17,1018.1,10.0,,,CLR
2020-11-06 10:00:00,38037.983939,FST,68.0,43.0,40.31,310.0,4.0,30.17,1017.9,10.0,,,CLR
2020-11-06 11:00:00,39201.364387,FST,73.0,44.1,35.46,120.0,5.0,30.16,1017.4,10.0,,,CLR
2020-11-06 12:00:00,40287.97504,FST,77.0,41.0,27.53,130.0,5.0,30.12,1016.2,10.0,,,CLR
2020-11-06 13:00:00,41311.99697,FST,78.1,39.0,24.56,100.0,11.0,30.08,1014.7,10.0,17.0,,CLR
2020-11-06 14:00:00,42368.740606,FST,81.0,37.9,21.39,130.0,12.0,30.04,1013.3,10.0,17.0,79.28,CLR
2020-11-06 15:00:00,42927.378956,FST,81.0,36.0,19.85,130.0,8.0,30.02,1012.5,10.0,,79.2,CLR
2020-11-06 16:00:00,43076.204035,FST,80.1,37.9,22.03,130.0,13.0,30.0,1012.1,10.0,19.0,78.85,CLR
2020-11-06 17:00:00,42575.399743,FST,78.1,39.0,24.56,130.0,13.0,30.0,1012.2,10.0,,,CLR
2020-11-06 18:00:00,41964.816539,FST,73.9,41.0,30.54,130.0,11.0,30.0,1012.3,10.0,,,CLR
2020-11-06 19:00:00,41843.570242,FST,70.0,43.0,37.64,140.0,13.0,30.0,1012.7,10.0,,,CLR
2020-11-06 20:00:00,40488.79813,FST,66.9,46.0,46.94,150.0,14.0,30.01,1012.9,10.0,,,CLR
2020-11-06 21:00:00,39221.709265,FST,64.9,50.0,58.47,150.0,13.0,30.03,1013.3,10.0,,,CLR
2020-11-06 22:00:00,37854.144902,FST,64.0,50.0,60.34,150.0,17.0,30.02,1013.0,10.0,23.0,,CLR
2020-11-06 23:00:00,36150.144092,FST,63.0,50.0,62.49,160.0,16.0,30.02,1012.5,10.0,,,CLR
2020-11-07 00:00:00,34180.984332,FST,62.1,50.0,64.5,150.0,17.0,30.0,1011.8,10.0,24.0,,CLR
2020-11-07 01:00:00,32582.731845,FST,61.0,48.9,64.37,150.0,15.0,29.99,1011.6,10.0,22.0,,CLR
2020-11-07 02:00:00,31438.928589,FST,60.1,50.0,69.24,160.0,12.0,29.99,1011.2,10.0,20.0,,CLR
2020-11-07 03:00:00,30716.998069,FST,59.0,48.9,69.12,160.0,16.0,29.97,1010.9,10.0,24.0,,CLR
2020-11-07 04:00:00,30469.54285,FST,59.0,48.9,69.12,140.0,10.0,29.98,1011.1,10.0,19.0,,CLR
2020-11-07 05:00:00,30433.887986,FST,57.0,48.9,74.27,170.0,12.0,29.98,1011.3,10.0,,,CLR
2020-11-07 06:00:00,31002.458322,FST,55.9,48.0,74.72,170.0,14.0,29.99,1011.8,10.0,,,CLR
2020-11-07 07:00:00,32069.848043,FST,55.9,48.9,77.28,160.0,12.0,29.99,1012.1,10.0,,,CLR
2020-11-07 08:00:00,33054.747296,FST,55.9,48.9,77.28,150.0,12.0,30.0,1012.5,10.0,,,CLR
2020-11-07 09:00:00,34656.183969,FST,61.0,48.9,64.37,160.0,9.0,30.01,1012.9,10.0,,,CLR
2020-11-07 10:00:00,36199.285139,FST,68.0,48.0,48.73,160.0,11.0,30.0,1012.2,10.0,,,CLR
2020-11-07 11:00:00,37617.88164,FST,75.0,46.0,35.64,150.0,12.0,29.98,1011.2,10.0,,,CLR
2020-11-07 12:00:00,39001.797244,FST,77.0,46.9,34.5,120.0,15.0,29.96,1010.3,10.0,,,CLR
2020-11-07 13:00:00,40328.060145,FST,79.0,46.0,31.21,150.0,14.0,29.92,1009.0,10.0,20.0,,CLR
2020-11-07 14:00:00,41409.763314,FST,79.0,45.0,30.05,140.0,15.0,29.89,1007.9,10.0,24.0,,CLR
2020-11-07 15:00:00,42275.699382,FST,79.0,44.1,29.04,150.0,18.0,29.87,1007.4,10.0,24.0,,CLR
2020-11-07 16:00:00,42693.773316,FST,78.1,43.0,28.68,150.0,17.0,29.86,1007.0,10.0,25.0,,CLR
2020-11-07 17:00:00,42381.398637,FST,75.9,41.0,28.56,160.0,16.0,29.85,1007.0,10.0,25.0,,CLR
2020-11-07 18:00:00,41821.869213,FST,72.0,48.0,42.51,150.0,12.0,29.85,1007.0,10.0,22.0,,CLR
2020-11-07 19:00:00,41863.247343,FST,68.0,51.1,54.7,140.0,16.0,29.86,1007.9,10.0,23.0,,CLR
2020-11-07 20:00:00,40545.59578,FST,66.0,50.0,56.27,140.0,14.0,29.87,1008.0,10.0,24.0,,CLR
2020-11-07 21:00:00,39445.660623,FST,64.9,50.0,58.47,140.0,17.0,29.86,1007.5,10.0,22.0,,CLR
2020-11-07 22:00:00,37982.685813,FST,64.0,51.1,62.85,150.0,21.0,29.84,1006.7,10.0,31.0,,CLR
2020-11-07 23:00:00,36287.297811,FST,63.0,51.1,65.09,150.0,20.0,29.83,1006.1,10.0,31.0,,CLR
2020-11-08 00:00:00,34604.168813,FST,62.1,51.1,67.19,160.0,20.0,29.82,1005.7,10.0,28.0,,CLR
2020-11-08 01:00:00,33122.317985,FST,61.0,50.0,67.06,160.0,17.0,29.82,1005.5,10.0,26.0,,CLR
2020-11-08 02:00:00,32047.823122,FST,60.1,48.9,66.46,170.0,20.0,29.8,1005.1,10.0,29.0,,CLR
2020-11-08 03:00:00,31365.406799,FST,59.0,48.9,69.12,160.0,17.0,29.8,1004.9,10.0,23.0,,CLR
2020-11-08 04:00:00,30941.537501,FST,59.0,48.9,69.12,160.0,10.0,29.8,1005.1,10.0,,,CLR
2020-11-08 05:00:00,30788.598062,FST,57.9,48.0,69.52,160.0,14.0,29.8,1005.3,10.0,,,CLR
2020-11-08 06:00:00,31076.781836,FST,57.9,48.0,69.52,170.0,11.0,29.82,1006.0,10.0,,,CLR
2020-11-08 07:00:00,31611.169525,FST,57.0,46.9,68.9,130.0,7.0,29.84,1006.8,10.0,,,CLR
2020-11-08 08:00:00,32361.369102,FST,57.9,46.9,66.7,160.0,9.0,29.85,1007.3,10.0,,,CLR
2020-11-08 09:00:00,34326.738031,FST,64.0,48.0,55.99,160.0,12.0,29.86,1007.5,10.0,,,CLR
2020-11-08 10:00:00,36188.977479,FST,75.9,45.0,33.3,200.0,14.0,29.89,1007.8,10.0,18.0,,CLR
2020-11-08 11:00:00,37726.933604,FST,80.1,43.0,26.85,210.0,15.0,29.88,1007.4,10.0,20.0,79.04,CLR
2020-11-08 12:00:00,39060.931975,FST,82.9,42.1,23.68,220.0,13.0,29.86,1006.7,10.0,,80.68,CLR
2020-11-08 13:00:00,40360.642071,FST,84.0,42.1,22.85,210.0,14.0,29.83,1005.8,10.0,21.0,81.43,CLR
2020-11-08 14:00:00,41464.785898,FST,84.9,42.1,22.2,210.0,11.0,29.81,1005.0,10.0,,82.08,CLR
2020-11-08 15:00:00,42402.237265,FST,84.9,42.1,22.2,200.0,13.0,29.8,1004.7,10.0,20.0,82.08,CLR
2020-11-08 16:00:00,42991.114725,FST,84.0,42.1,22.85,180.0,14.0,29.8,1004.9,10.0,,81.43,CLR
2020-11-08 17:00:00,43018.146722,FST,84.0,39.9,20.99,190.0,13.0,29.81,1005.1,10.0,,81.33,FEW
2020-11-08 18:00:00,42926.757126,FST,80.1,43.0,26.85,160.0,13.0,29.82,1005.6,10.0,,79.04,FEW
2020-11-08 19:00:00,43475.102488,FST,73.9,50.0,42.97,150.0,14.0,29.84,1006.5,10.0,23.0,,CLR
2020-11-08 20:00:00,42708.81263,FST,71.1,54.0,54.73,150.0,20.0,29.85,1007.1,10.0,30.0,,CLR
2020-11-08 21:00:00,41467.713747,FST,69.1,54.0,58.6,150.0,17.0,29.86,1007.4,10.0,23.0,,CLR
2020-11-08 22:00:00,39997.350162,FST,68.0,54.0,60.86,150.0,17.0,29.86,1006.8,10.0,27.0,,CLR
2020-11-08 23:00:00,37862.423667,FST,66.9,54.0,63.21,140.0,16.0,29.86,1006.5,10.0,24.0,,SCT
2020-11-09 00:00:00,35733.860238,FST,66.0,54.0,65.21,150.0,19.0,29.85,1006.1,10.0,24.0,,FEW
2020-11-09 01:00:00,34021.135381,FST,64.9,54.0,67.76,150.0,17.0,29.84,1005.9,10.0,22.0,,CLR
2020-11-09 02:00:00,32975.584313,FST,63.0,53.1,70.07,160.0,15.0,29.84,1005.9,10.0,23.0,,CLR
2020-11-09 03:00:00,32442.924326,FST,63.0,53.1,70.07,150.0,12.0,29.84,1006.0,10.0,,,CLR
2020-11-09 04:00:00,32380.222723,FST,62.1,53.1,72.33,150.0,11.0,29.84,1005.9,10.0,,,CLR
2020-11-09 05:00:00,32936.268304,FST,62.1,54.0,74.75,150.0,12.0,29.84,1006.2,10.0,,,CLR
2020-11-09 06:00:00,34587.150162,FST,61.0,54.0,77.72,160.0,12.0,29.85,1006.5,10.0,,,CLR
2020-11-09 07:00:00,37092.612462,FST,60.1,53.1,77.65,160.0,8.0,29.86,1007.2,10.0,,,CLR
2020-11-09 08:00:00,38572.982921,FST,59.0,53.1,80.75,140.0,8.0,29.88,1008.0,10.0,,,CLR
2020-11-09 09:00:00,39912.04984,FST,69.1,48.9,48.53,180.0,15.0,29.88,1007.8,10.0,,,CLR
2020-11-09 10:00:00,41453.976782,FST,77.0,45.0,32.1,200.0,16.0,29.89,1007.7,10.0,23.0,,CLR
2020-11-09 11:00:00,43068.129906,FST,79.0,44.1,29.04,220.0,17.0,29.87,1007.2,10.0,27.0,,CLR
2020-11-09 12:00:00,44694.900064,FST,81.0,44.1,27.2,220.0,18.0,29.85,1006.4,10.0,25.0,79.62,CLR
2020-11-09 13:00:00,46223.735634,FST,82.9,42.1,23.68,240.0,12.0,29.82,1005.4,10.0,23.0,80.68,CLR
2020-11-09 14:00:00,47620.947892,FST,84.9,39.0,19.69,240.0,18.0,29.8,1004.5,10.0,25.0,81.95,CLR
2020-11-09 15:00:00,48637.404941,FST,84.9,39.0,19.69,250.0,15.0,29.78,1004.0,10.0,,81.95,CLR
2020-11-09 16:00:00,49011.942184,FST,84.9,39.0,19.69,240.0,16.0,29.78,1003.9,10.0,21.0,81.95,CLR
2020-11-09 17:00:00,48600.337721,FST,84.0,37.0,18.74,230.0,16.0,29.78,1004.1,10.0,20.0,81.23,CLR
2020-11-09 18:00:00,47816.24844,FST,80.1,37.0,21.27,220.0,11.0,29.79,1004.6,10.0,,78.81,CLR
2020-11-09 19:00:00,47838.475746,FST,72.0,37.0,27.85,220.0,7.0,29.82,1005.9,10.0,,,CLR
2020-11-09 20:00:00,46440.379936,FST,71.1,52.0,50.86,160.0,12.0,29.83,1006.6,10.0,,,CLR
2020-11-09 21:00:00,44782.366088,FST,69.1,57.0,65.35,150.0,12.0,29.83,1006.2,10.0,20.0,,CLR
2020-11-09 22:00:00,42780.343236,FST,68.0,57.9,70.1,160.0,13.0,29.83,1005.6,10.0,,,CLR
2020-11-09 23:00:00,40358.517219,FST,66.9,54.0,63.21,270.0,8.0,29.88,1007.5,10.0,,,CLR
2020-11-10 00:00:00,37840.059786,FST,64.0,46.0,51.93,360.0,5.0,29.91,1008.4,10.0,,,CLR
2020-11-10 01:00:00,35878.066501,FST,62.1,36.0,37.69,310.0,8.0,29.92,1008.8,10.0,,,CLR
2020-11-10 02:00:00,34596.79172,FST,60.1,34.0,37.37,320.0,7.0,29.94,1009.4,10.0,,,CLR
2020-11-10 03:00:00,33769.128992,FST,55.0,32.0,41.44,310.0,7.0,29.95,1010.2,10.0,,,CLR
2020-11-10 04:00:00,33569.379657,FST,55.0,28.9,36.54,310.0,9.0,29.98,1010.9,10.0,,,CLR
2020-11-10 05:00:00,33957.585671,FST,51.1,28.9,42.16,360.0,7.0,30.01,1012.3,10.0,,,CLR
2020-11-10 06:00:00,35363.79877,FST,46.9,26.1,43.95,330.0,4.0,30.04,1013.6,10.0,,44.82,CLR
2020-11-10 07:00:00,37883.75218,FST,46.0,26.1,45.47,310.0,6.0,30.06,1014.8,10.0,,42.39,CLR
2020-11-10 08:00:00,39326.781167,FST,46.9,25.0,41.99,310.0,6.0,30.08,1015.4,10.0,,43.48,CLR
2020-11-10 09:00:00,40735.133114,FST,52.0,21.9,30.49,360.0,7.0,30.1,1016.0,10.0,,,CLR
2020-11-10 10:00:00,42092.707783,FST,54.0,19.0,25.04,10.0,7.0,30.11,1016.3,10.0,,,CLR
2020-11-10 11:00:00,43198.040819,FST,57.0,21.0,24.45,360.0,6.0,30.09,1015.8,10.0,,,CLR
2020-11-10 12:00:00,44198.209138,FST,59.0,23.0,24.76,,4.0,30.07,1015.0,10.0,,,CLR
2020-11-10 13:00:00,45083.361186,FST,62.1,25.0,24.12,,5.0,30.04,1013.8,10.0,,,CLR
2020-11-10 14:00:00,45706.427189,FST,63.0,27.0,25.38,320.0,5.0,29.99,1012.2,10.0,,,CLR
2020-11-10 15:00:00,46074.988262,FST,63.0,28.0,26.45,0.0,0.0,29.97,1011.7,10.0,,,CLR
2020-11-10 16:00:00,45982.172045,FST,66.0,28.0,23.82,,4.0,29.95,1011.0,10.0,,,CLR
2020-11-10 17:00:00,45461.422452,FST,64.0,28.0,25.54,140.0,4.0,29.95,1011.1,10.0,,,CLR
2020-11-10 18:00:00,44966.71415,FST,62.1,27.0,26.2,100.0,7.0,29.94,1011.2,10.0,,,CLR
2020-11-10 19:00:00,45335.24374,FST,59.0,28.0,30.48,130.0,3.0,29.95,1011.6,10.0,,,CLR
2020-11-10 20:00:00,43958.790014,FST,55.9,27.0,32.71,170.0,5.0,29.97,1012.3,10.0,,,CLR
2020-11-10 21:00:00,42523.19693,FST,51.1,26.1,37.57,160.0,5.0,29.97,1012.4,10.0,,,CLR
2020-11-10 22:00:00,40779.122404,FST,48.0,25.0,40.29,130.0,4.0,29.98,1013.0,10.0,,46.1,CLR
2020-11-10 23:00:00,38480.518899,FST,50.0,27.0,40.62,200.0,8.0,29.98,1012.5,10.0,,,CLR
2020-11-11 00:00:00,36035.961759,FST,55.0,28.0,35.21,200.0,9.0,29.97,1011.9,10.0,,,CLR
2020-11-11 01:00:00,34146.530258,FST,54.0,28.0,36.52,200.0,10.0,29.97,1011.9,10.0,,,CLR
2020-11-11 02:00:00,33003.311369,FST,51.1,28.9,42.16,210.0,9.0,29.97,1012.0,10.0,,,CLR
2020-11-11 03:00:00,32387.157242,FST,48.9,28.0,44.1,230.0,8.0,29.99,1012.8,10.0,,44.93,CLR
2020-11-11 04:00:00,32267.679862,FST,48.9,28.0,44.1,260.0,9.0,29.99,1012.5,10.0,,44.53,CLR
2020-11-11 05:00:00,32806.719222,FST,48.9,27.0,42.32,240.0,7.0,29.99,1012.8,10.0,,45.38,CLR
2020-11-11 06:00:00,34336.827046,FST,45.0,27.0,49.02,240.0,7.0,30.01,1013.8,10.0,,40.63,CLR
2020-11-11 07:00:00,36972.460357,FST,46.9,28.0,47.54,240.0,7.0,30.03,1014.3,10.0,,42.94,CLR
2020-11-11 08:00:00,38312.497052,FST,46.9,28.0,47.54,230.0,7.0,30.05,1015.1,10.0,,42.94,CLR
2020-11-11 09:00:00,39123.941145,FST,54.0,28.9,37.89,230.0,8.0,30.07,1015.6,10.0,,,CLR
2020-11-11 10:00:00,39921.112392,FST,60.1,30.0,31.8,280.0,3.0,30.08,1015.9,10.0,,,CLR
2020-11-11 11:00:00,40900.858634,FST,63.0,28.9,27.44,0.0,0.0,30.06,1015.2,10.0,,,CLR
2020-11-11 12:00:00,41915.17461,FST,66.0,28.9,24.71,330.0,5.0,30.05,1014.3,10.0,,,CLR
2020-11-11 13:00:00,43170.788361,FST,68.0,30.9,25.02,240.0,4.0,30.02,1013.2,10.0,,,CLR
2020-11-11 14:00:00,44514.444478,FST,70.0,30.9,23.36,0.0,0.0,29.97,1011.8,10.0,,,CLR
2020-11-11 15:00:00,45433.025596,FST,73.0,32.0,22.06,,,29.95,1011.0,10.0,,,CLR
2020-11-11 16:00:00,45854.412314,FST,75.0,33.1,21.56,100.0,4.0,29.93,1010.1,10.0,,,CLR
2020-11-11 17:00:00,45573.796578,FST,73.9,37.9,27.06,90.0,9.0,29.94,1010.3,10.0,,,CLR
2020-11-11 18:00:00,44769.985096,FST,69.1,37.9,31.85,70.0,7.0,29.95,1011.2,10.0,,,CLR
2020-11-11 19:00:00,44737.386235,FST,64.0,39.0,39.67,100.0,5.0,29.97,1011.9,10.0,,,CLR
2020-11-11 20:00:00,43242.997202,FST,66.0,45.0,46.62,130.0,9.0,29.98,1012.4,10.0,,,CLR
2020-11-11 21:00:00,41732.503452,FST,62.1,44.1,51.64,150.0,9.0,29.98,1012.3,10.0,,,CLR
2020-11-11 22:00:00,39937.180314,FST,59.0,42.1,53.4,190.0,9.0,29.99,1012.5,10.0,,,CLR
2020-11-11 23:00:00,37475.284397,FST,57.0,42.1,57.38,190.0,8.0,30.0,1012.6,10.0,,,CLR
2020-11-12 00:00:00,35132.41632,FST,57.9,46.9,66.7,200.0,6.0,30.01,1012.7,10.0,,,CLR
2020-11-12 01:00:00,33377.743876,FST,55.9,46.9,71.69,180.0,7.0,30.0,1012.5,10.0,,,CLR
2020-11-12 02:00:00,32199.175874,FST,54.0,48.9,82.82,170.0,7.0,29.99,1012.1,10.0,,,CLR
2020-11-12 03:00:00,31542.181228,FST,53.1,50.0,89.18,170.0,5.0,29.98,1011.6,10.0,,,CLR
2020-11-12 04:00:00,31183.726264,FST,50.0,46.9,89.04,270.0,5.0,29.98,1011.9,10.0,,,CLR
2020-11-12 05:00:00,31599.109938,FST,48.0,41.0,76.58,220.0,10.0,30.0,1012.5,10.0,,43.03,CLR
2020-11-12 06:00:00,33159.665268,FST,48.0,39.0,70.85,220.0,8.0,30.0,1013.0,10.0,,43.82,CLR
2020-11-12 07:00:00,35786.713591,FST,46.9,37.0,68.27,220.0,10.0,30.02,1013.9,10.0,,41.65,CLR
2020-11-12 08:00:00,37142.584353,FST,50.0,37.0,60.79,220.0,9.0,30.03,1013.8,10.0,,,CLR
2020-11-12 09:00:00,38197.952881,FST,59.0,33.1,37.49,250.0,6.0,30.06,1014.6,9.0,,,CLR
2020-11-12 10:00:00,39286.814916,FST,64.0,34.0,32.56,270.0,3.0,30.08,1015.2,10.0,,,CLR
2020-11-12 11:00:00,40589.725442,FST,69.1,30.9,24.09,,3.0,30.08,1015.2,10.0,,,CLR
2020-11-12 12:00:00,42075.36184,FST,73.0,30.9,21.1,10.0,5.0,30.06,1014.4,10.0,,,CLR
2020-11-12 13:00:00,43564.723927,FST,73.9,32.0,21.4,40.0,5.0,30.04,1013.6,10.0,,,CLR
2020-11-12 14:00:00,44965.918369,FST,75.9,30.9,19.14,,4.0,30.01,1012.6,10.0,,,CLR
2020-11-12 15:00:00,45849.421489,FST,78.1,30.0,17.16,10.0,8.0,29.99,1011.9,10.0,,,CLR
2020-11-12 16:00:00,46144.85338,FST,78.1,28.0,15.81,40.0,7.0,30.0,1012.2,10.0,,,CLR
2020-11-12 17:00:00,45868.71487,FST,75.9,28.0,17.01,360.0,9.0,30.01,1012.9,10.0,,,CLR
2020-11-12 18:00:00,45497.730194,FST,71.1,28.0,19.99,40.0,5.0,30.01,1013.0,10.0,,,CLR
2020-11-12 19:00:00,45581.515739,FST,66.9,28.0,23.09,70.0,4.0,30.04,1014.2,10.0,,,CLR
2020-11-12 20:00:00,44299.320568,FST,66.9,28.9,23.95,160.0,5.0,30.05,1014.5,10.0,,,CLR
2020-11-12 21:00:00,42845.496068,FST,62.1,28.9,28.33,170.0,5.0,30.06,1014.5,10.0,,,CLR
2020-11-12 22:00:00,41150.336103,FST,61.0,28.9,29.45,180.0,8.0,30.07,1014.9,10.0,,,CLR
2020-11-12 23:00:00,38844.354705,FST,62.1,30.9,30.73,170.0,7.0,30.08,1014.8,10.0,,,BKN
2020-11-13 00:00:00,36381.277381,FST,60.1,39.0,45.53,140.0,5.0,30.08,1014.3,10.0,,,FEW
2020-11-13 01:00:00,34413.269801,FST,57.0,39.0,50.88,170.0,7.0,30.07,1014.3,10.0,,,CLR
2020-11-13 02:00:00,33158.377428,FST,55.9,37.9,50.71,170.0,5.0,30.07,1014.4,10.0,,,CLR
2020-11-13 03:00:00,32337.021744,FST,55.9,44.1,64.47,170.0,5.0,30.07,1014.3,10.0,,,CLR
2020-11-13 04:00:00,31943.084412,FST,54.0,45.0,71.5,170.0,6.0,30.06,1014.3,10.0,,,CLR
2020-11-13 05:00:00,32312.567256,FST,53.1,48.0,82.76,170.0,7.0,30.07,1014.5,10.0,,,CLR
2020-11-13 06:00:00,33788.228173,FST,51.1,44.1,76.86,340.0,7.0,30.1,1016.0,10.0,,,CLR
2020-11-13 07:00:00,36291.151409,FST,52.0,39.0,61.06,70.0,2.0,30.12,1016.7,10.0,,,CLR
2020-11-13 08:00:00,37691.140761,FST,53.1,39.9,63.24,300.0,7.0,30.15,1017.8,10.0,,,BKN
2020-11-13 09:00:00,38864.177784,FST,54.0,36.0,50.42,300.0,7.0,30.17,1018.8,10.0,,,OVC
2020-11-13 10:00:00,40048.321137,FST,54.0,37.0,52.45,310.0,10.0,30.2,1019.8,10.0,,,OVC
2020-11-13 11:00:00,41201.181609,FST,55.0,39.0,54.7,320.0,10.0,30.21,1019.6,10.0,,,OVC
2020-11-13 12:00:00,42305.917876,FST,57.0,41.0,54.99,330.0,8.0,30.19,1018.9,10.0,,,OVC
2020-11-13 13:00:00,43103.453083,FST,57.9,43.0,57.51,330.0,9.0,30.17,1017.6,10.0,,,OVC
2020-11-13 14:00:00,43773.483925,FST,57.9,44.1,59.98,360.0,7.0,30.13,1016.4,10.0,,,OVC
2020-11-13 15:00:00,44190.558898,FST,60.1,44.1,55.44,350.0,8.0,30.1,1015.9,10.0,,,OVC
2020-11-13 16:00:00,44358.674746,FST,62.1,44.1,51.64,360.0,7.0,30.08,1015.1,10.0,,,OVC
2020-11-13 17:00:00,44009.969888,FST,62.1,45.0,53.45,360.0,5.0,30.06,1014.7,10.0,,,SCT
2020-11-13 18:00:00,43960.161899,FST,60.1,44.1,55.44,360.0,5.0,30.05,1014.7,10.0,,,SCT
2020-11-13 19:00:00,43970.183631,FST,60.1,43.0,53.15,100.0,4.0,30.05,1014.9,10.0,,,OVC
2020-11-13 20:00:00,42844.773283,FST,60.1,42.1,51.35,360.0,2.0,30.06,1015.0,10.0,,,OVC
2020-11-13 21:00:00,41779.502328,FST,59.0,42.1,53.4,360.0,5.0,30.06,1014.9,10.0,,,OVC
2020-11-13 22:00:00,40578.143619,FST,59.0,42.1,53.4,360.0,5.0,30.06,1014.7,10.0,,,OVC
2020-11-13 23:00:00,38950.091694,FST,57.9,42.1,55.55,360.0,6.0,30.05,1014.5,10.0,,,OVC
2020-11-14 00:00:00,37015.22391,FST,57.9,42.1,55.55,360.0,7.0,30.04,1014.1,10.0,,,OVC
2020-11-14 01:00:00,35289.235533,FST,57.0,42.1,57.38,360.0,4.0,30.03,1013.3,10.0,,,OVC
2020-11-14 02:00:00,34059.182746,FST,52.0,41.0,66.0,260.0,5.0,30.01,1013.1,10.0,,,BKN
2020-11-14 03:00:00,33259.27031,FST,51.1,39.9,65.38,270.0,9.0,30.0,1012.7,10.0,,,CLR
2020-11-14 04:00:00,32801.662994,FST,54.0,41.0,61.32,250.0,11.0,29.99,1011.6,10.0,,,CLR
2020-11-14 05:00:00,32788.730321,FST,54.0,45.0,71.5,200.0,10.0,29.96,1010.9,10.0,,,CLR
2020-11-14 06:00:00,33305.691432,FST,57.0,50.0,77.38,220.0,10.0,29.94,1010.8,10.0,,,CLR
2020-11-14 07:00:00,34275.694692,FST,48.9,45.0,86.33,330.0,9.0,29.95,1011.3,10.0,,,CLR
2020-11-14 08:00:00,35328.912193,FST,55.9,50.0,80.52,250.0,11.0,29.96,1011.5,10.0,,,CLR
2020-11-14 09:00:00,37655.775727,FST,61.0,50.0,67.06,230.0,11.0,29.98,1012.1,10.0,,,CLR
2020-11-14 10:00:00,40189.77205,FST,70.0,42.1,36.36,250.0,11.0,29.98,1011.4,10.0,,,CLR
2020-11-14 11:00:00,42369.058591,FST,73.9,44.1,34.4,270.0,11.0,29.98,1011.2,10.0,,,CLR
2020-11-14 12:00:00,44254.318796,FST,78.1,37.0,22.71,260.0,16.0,29.97,1010.2,10.0,,,CLR
2020-11-14 13:00:00,45833.467644,FST,81.0,35.1,19.15,280.0,13.0,29.94,1008.6,10.0,17.0,79.17,CLR
2020-11-14 14:00:00,46793.722116,FST,82.9,32.0,15.91,290.0,13.0,29.9,1007.5,10.0,18.0,80.34,CLR
2020-11-14 15:00:00,47392.720378,FST,82.9,28.0,13.52,270.0,20.0,29.87,1007.3,10.0,24.0,80.29,CLR
2020-11-14 16:00:00,47434.668372,FST,82.9,25.0,11.94,300.0,18.0,29.87,1007.4,10.0,22.0,80.13,CLR
2020-11-14 17:00:00,46795.552583,FST,80.1,28.0,14.81,300.0,17.0,29.88,1007.9,10.0,21.0,78.51,CLR
2020-11-14 18:00:00,46464.681995,FST,75.9,27.0,16.32,300.0,15.0,29.91,1008.8,10.0,,,CLR
2020-11-14 19:00:00,46515.317939,FST,73.0,28.0,18.74,310.0,12.0,29.94,1010.5,10.0,,,CLR
2020-11-14 20:00:00,45151.290177,FST,70.0,28.0,20.75,330.0,10.0,29.98,1011.8,10.0,,,CLR
2020-11-14 21:00:00,43931.060447,FST,66.9,28.9,23.95,310.0,8.0,30.01,1012.8,10.0,,,CLR
2020-11-14 22:00:00,42662.224148,FST,66.0,30.0,25.85,290.0,10.0,30.04,1013.5,10.0,,,CLR
2020-11-14 23:00:00,40909.670039,FST,62.1,28.9,28.33,290.0,7.0,30.08,1014.8,10.0,,,CLR
2020-11-15 00:00:00,38854.713529,FST,57.9,28.9,32.9,310.0,7.0,30.12,1016.2,10.0,,,CLR
2020-11-15 01:00:00,36639.069917,FST,57.0,28.0,32.75,340.0,4.0,30.16,1017.4,10.0,,,CLR
2020-11-15 02:00:00,34716.675529,FST,57.9,23.0,25.76,10.0,9.0,30.19,1018.2,10.0,,,CLR
2020-11-15 03:00:00,33489.40365,FST,54.0,16.0,22.0,360.0,3.0,30.22,1019.6,10.0,,,CLR
2020-11-15 04:00:00,32738.335664,FST,52.0,14.0,21.7,320.0,4.0,30.25,1020.5,10.0,,,CLR
2020-11-15 05:00:00,32331.463868,FST,50.0,9.0,18.72,10.0,8.0,30.28,1021.8,10.0,,,CLR
2020-11-15 06:00:00,32259.223033,FST,46.9,8.1,20.19,20.0,6.0,30.3,1022.7,10.0,,43.48,CLR
2020-11-15 07:00:00,32616.66186,FST,44.1,15.1,30.63,100.0,7.0,30.32,1024.0,10.0,,39.53,CLR
2020-11-15 08:00:00,33032.11944,FST,45.0,16.0,30.77,100.0,6.0,30.35,1025.1,10.0,,41.19,CLR
2020-11-15 09:00:00,34046.586834,FST,48.9,16.0,26.57,110.0,6.0,30.39,1026.2,10.0,,45.88,CLR
2020-11-15 10:00:00,35293.409082,FST,53.1,16.0,22.74,130.0,13.0,30.4,1026.6,10.0,,,CLR
2020-11-15 11:00:00,36013.544262,FST,55.9,14.0,18.82,110.0,13.0,30.4,1026.5,10.0,,,CLR
2020-11-15 12:00:00,36219.965725,FST,59.0,17.1,19.26,110.0,8.0,30.37,1025.4,10.0,,,CLR
2020-11-15 13:00:00,36934.305179,FST,60.1,15.1,16.98,,5.0,30.34,1024.4,10.0,,,CLR
2020-11-15 14:00:00,37485.406192,FST,63.0,15.1,15.32,100.0,5.0,30.3,1022.9,10.0,,,CLR
2020-11-15 15:00:00,37793.984669,FST,64.9,15.1,14.34,100.0,6.0,30.27,1021.9,10.0,,,CLR
2020-11-15 16:00:00,37931.944429,FST,66.0,15.1,13.8,110.0,8.0,30.25,1021.4,10.0,,,CLR
2020-11-15 17:00:00,37812.295207,FST,64.9,14.0,13.66,110.0,8.0,30.23,1020.9,10.0,,,CLR
2020-11-15 18:00:00,38312.713171,FST,61.0,14.0,15.67,90.0,6.0,30.22,1021.0,10.0,,,CLR
2020-11-15 19:00:00,39146.532556,FST,55.9,12.9,17.93,100.0,8.0,30.24,1022.0,10.0,,,CLR
2020-11-15 20:00:00,38600.399625,FST,55.9,14.0,18.82,120.0,8.0,30.25,1022.3,10.0,,,CLR
2020-11-15 21:00:00,37821.41553,FST,55.0,15.1,20.4,130.0,7.0,30.26,1022.4,10.0,,,CLR
2020-11-15 22:00:00,36619.917714,FST,52.0,15.1,22.77,150.0,10.0,30.26,1022.4,10.0,,,CLR
2020-11-15 23:00:00,34932.769124,FST,50.0,14.0,23.37,170.0,10.0,30.27,1022.5,10.0,,,CLR
2020-11-16 00:00:00,33208.634128,FST,50.0,15.1,24.52,170.0,8.0,30.27,1022.4,10.0,,,CLR
2020-11-16 01:00:00,32038.640593,FST,48.0,15.1,26.42,170.0,9.0,30.26,1022.1,10.0,,43.41,CLR
2020-11-16 02:00:00,31448.269874,FST,46.0,15.1,28.49,160.0,8.0,30.25,1021.7,10.0,,41.36,CLR
2020-11-16 03:00:00,31271.132376,FST,45.0,14.0,28.2,160.0,8.0,30.24,1021.6,10.0,,40.13,CLR
2020-11-16 04:00:00,31532.658675,FST,46.0,15.1,28.49,160.0,9.0,30.24,1021.4,10.0,,40.92,CLR
2020-11-16 05:00:00,32571.10435,FST,45.0,14.0,28.2,0.0,0.0,30.25,1021.8,10.0,,,CLR
2020-11-16 06:00:00,35019.213491,FST,44.1,15.1,30.63,170.0,5.0,30.25,1022.1,10.0,,40.77,CLR
2020-11-16 07:00:00,38439.016381,FST,44.1,16.0,31.85,160.0,7.0,30.27,1022.9,10.0,,39.53,CLR
2020-11-16 08:00:00,40162.696418,FST,43.0,15.1,31.94,170.0,8.0,30.29,1023.8,10.0,,37.66,CLR
2020-11-16 09:00:00,40233.738221,FST,55.0,17.1,22.25,180.0,5.0,30.31,1023.8,10.0,,,CLR
2020-11-16 10:00:00,39722.217333,FST,64.0,19.0,17.51,190.0,6.0,30.31,1023.7,10.0,,,CLR
2020-11-16 11:00:00,39102.524936,FST,70.0,19.9,14.79,0.0,0.0,30.31,1023.5,10.0,,,CLR
2020-11-16 12:00:00,38925.4502,FST,73.0,21.0,14.0,10.0,9.0,30.3,1022.8,10.0,,,CLR
2020-11-16 13:00:00,39003.952874,FST,73.9,21.0,13.58,40.0,8.0,30.28,1022.2,10.0,,,CLR
2020-11-16 14:00:00,39142.533747,FST,75.9,21.0,12.7,40.0,7.0,30.26,1021.5,10.0,,,CLR
2020-11-16 15:00:00,39330.676086,FST,77.0,21.0,12.24,40.0,8.0,30.25,1021.1,10.0,,,CLR
2020-11-16 16:00:00,39476.280516,FST,77.0,19.9,11.68,60.0,7.0,30.24,1020.9,10.0,,,CLR
2020-11-16 17:00:00,39456.703294,FST,75.9,19.9,12.12,80.0,8.0,30.24,1020.9,10.0,,,CLR
2020-11-16 18:00:00,39886.951278,FST,68.0,19.0,15.24,100.0,6.0,30.25,1021.6,10.0,,,CLR
2020-11-16 19:00:00,40646.978228,FST,66.9,21.9,17.91,140.0,8.0,30.26,1022.2,10.0,,,CLR
2020-11-16 20:00:00,39843.094104,FST,60.1,21.9,22.73,150.0,7.0,30.28,1023.2,10.0,,,CLR
2020-11-16 21:00:00,38817.287756,FST,57.9,21.9,24.59,150.0,9.0,30.3,1023.2,10.0,,,CLR
2020-11-16 22:00:00,37586.770253,FST,55.0,21.0,26.29,160.0,10.0,30.31,1023.5,10.0,,,CLR
2020-11-16 23:00:00,35599.836218,FST,54.0,21.9,28.33,160.0,10.0,30.33,1023.8,10.0,,,CLR
2020-11-17 00:00:00,33783.180352,FST,54.0,21.9,28.33,160.0,12.0,30.33,1023.6,10.0,,,CLR
2020-11-17 01:00:00,32426.70944,FST,55.9,23.0,27.69,170.0,13.0,30.32,1023.3,10.0,,,CLR
2020-11-17 02:00:00,31753.183179,FST,55.9,24.1,29.0,180.0,13.0,30.32,1023.3,10.0,,,CLR
2020-11-17 03:00:00,31591.184124,FST,54.0,25.0,32.26,130.0,4.0,30.34,1023.7,10.0,,,CLR
2020-11-17 04:00:00,31861.990016,FST,48.9,25.0,38.95,140.0,7.0,30.34,1024.1,10.0,,45.38,CLR
2020-11-17 05:00:00,32807.316143,FST,48.9,25.0,38.95,160.0,7.0,30.34,1024.2,10.0,,45.38,CLR
2020-11-17 06:00:00,35073.806345,FST,51.1,26.1,37.57,130.0,8.0,30.36,1025.0,10.0,,,CLR
2020-11-17 07:00:00,38471.06844,FST,46.0,25.0,43.44,170.0,7.0,30.38,1026.2,10.0,,41.84,CLR
2020-11-17 08:00:00,40071.403745,FST,48.0,25.0,40.29,220.0,6.0,30.4,1027.2,10.0,,44.8,CLR
2020-11-17 09:00:00,39888.296596,FST,51.1,26.1,37.57,270.0,3.0,30.43,1028.0,10.0,,,CLR
2020-11-17 10:00:00,39216.718084,FST,55.0,21.9,27.31,0.0,0.0,30.45,1028.5,10.0,,,CLR
2020-11-17 11:00:00,38832.039444,FST,63.0,27.0,25.38,0.0,0.0,30.43,1027.6,10.0,,,CLR
2020-11-17 12:00:00,38822.678779,FST,69.1,33.1,26.32,130.0,10.0,30.4,1026.3,10.0,,,CLR
2020-11-17 13:00:00,38930.180091,FST,72.0,36.0,26.77,120.0,11.0,30.37,1025.1,10.0,,,CLR
2020-11-17 14:00:00,39339.830351,FST,71.1,37.9,29.74,130.0,14.0,30.33,1023.9,10.0,19.0,,CLR
2020-11-17 15:00:00,39783.62564,FST,72.0,39.0,30.12,130.0,14.0,30.31,1023.3,10.0,19.0,,CLR
2020-11-17 16:00:00,39823.158352,FST,72.0,41.0,32.56,130.0,16.0,30.3,1023.1,10.0,21.0,,CLR
2020-11-17 17:00:00,39781.125881,FST,70.0,43.0,37.64,140.0,15.0,30.31,1023.4,10.0,,,CLR
2020-11-17 18:00:00,40102.641872,FST,66.9,46.0,46.94,140.0,10.0,30.31,1023.4,10.0,,,CLR
2020-11-17 19:00:00,40964.994937,FST,64.0,46.9,53.72,140.0,13.0,30.31,1023.9,10.0,,,CLR
2020-11-17 20:00:00,40221.252899,FST,62.1,46.9,57.43,150.0,14.0,30.32,1024.2,10.0,21.0,,CLR
2020-11-17 21:00:00,39271.899456,FST,60.1,46.0,59.59,160.0,14.0,30.33,1024.4,10.0,,,CLR
2020-11-17 22:00:00,37837.171366,FST,59.0,45.0,59.67,160.0,16.0,30.33,1024.3,10.0,,,CLR
2020-11-17 23:00:00,35781.655749,FST,57.0,44.1,61.95,170.0,16.0,30.33,1024.0,10.0,,,CLR
2020-11-18 00:00:00,33797.097342,FST,55.9,42.1,59.71,160.0,14.0,30.32,1023.3,10.0,,,CLR
2020-11-18 01:00:00,32721.107228,FST,55.0,39.0,54.7,160.0,13.0,30.31,1023.0,10.0,,,CLR
2020-11-18 02:00:00,32080.961371,FST,54.0,37.0,52.45,170.0,12.0,30.31,1023.0,10.0,,,CLR
2020-11-18 03:00:00,31960.435639,FST,53.1,36.0,52.11,160.0,15.0,30.29,1022.4,10.0,,,CLR
2020-11-18 04:00:00,32065.457836,FST,52.0,34.0,50.12,160.0,13.0,30.28,1022.1,10.0,,,CLR
2020-11-18 05:00:00,33059.390411,FST,51.1,35.1,54.13,160.0,11.0,30.27,1022.1,10.0,,,CLR
2020-11-18 06:00:00,35157.140243,FST,51.1,37.0,58.36,160.0,11.0,30.27,1022.0,10.0,,,CLR
2020-11-18 07:00:00,38294.346751,FST,48.0,37.9,67.87,150.0,6.0,30.28,1022.7,10.0,,44.8,CLR
2020-11-18 08:00:00,39643.167344,FST,48.9,41.0,74.05,160.0,8.0,30.29,1023.2,10.0,,44.93,CLR
2020-11-18 09:00:00,39691.132596,FST,57.9,45.0,62.07,160.0,8.0,30.31,1023.4,10.0,,,CLR
2020-11-18 10:00:00,39460.443731,FST,66.9,46.0,46.94,200.0,11.0,30.31,1023.1,10.0,,,CLR
2020-11-18 11:00:00,39250.65397,FST,72.0,45.0,37.96,190.0,8.0,30.29,1022.4,10.0,,,CLR
2020-11-18 12:00:00,39349.602594,FST,75.0,45.0,34.31,180.0,10.0,30.26,1021.3,10.0,,,CLR
2020-11-18 13:00:00,39732.203094,FST,78.1,43.0,28.68,170.0,9.0,30.23,1019.9,10.0,,,CLR
2020-11-18 14:00:00,40171.70721,FST,80.1,42.1,25.94,190.0,10.0,30.19,1018.7,9.0,16.0,78.99,CLR
2020-11-18 15:00:00,40539.97002,FST,81.0,41.0,24.14,170.0,9.0,30.17,1018.0,10.0,,79.43,CLR
2020-11-18 16:00:00,40753.945905,FST,80.1,39.9,23.82,180.0,10.0,30.16,1017.8,10.0,,78.93,CLR
2020-11-18 17:00:00,40692.687247,FST,78.1,39.9,25.44,180.0,10.0,30.16,1017.9,10.0,,,CLR
2020-11-18 18:00:00,40998.663603,FST,71.1,42.1,35.02,150.0,13.0,30.17,1018.6,10.0,20.0,,CLR
2020-11-18 19:00:00,41721.360464,FST,66.0,42.1,41.73,150.0,17.0,30.2,1019.8,10.0,23.0,,CLR
2020-11-18 20:00:00,40798.428907,FST,63.0,46.9,55.64,160.0,17.0,30.21,1020.5,10.0,,,CLR
2020-11-18 21:00:00,39734.063039,FST,61.0,48.9,64.37,160.0,19.0,30.22,1020.4,10.0,27.0,,CLR
2020-11-18 22:00:00,38245.042238,FST,60.1,48.9,66.46,160.0,13.0,30.23,1020.1,10.0,24.0,,CLR
2020-11-18 23:00:00,36116.998138,FST,59.0,48.9,69.12,160.0,14.0,30.22,1019.8,10.0,25.0,,CLR
2020-11-19 00:00:00,34025.788569,FST,57.0,48.0,71.81,160.0,14.0,30.21,1019.5,10.0,,,CLR
2020-11-19 01:00:00,32521.117319,FST,55.9,48.0,74.72,160.0,10.0,30.2,1018.9,10.0,,,CLR
2020-11-19 02:00:00,31691.687327,FST,55.0,46.9,74.08,160.0,10.0,30.18,1018.3,10.0,,,CLR
2020-11-19 03:00:00,31077.836306,FST,54.0,46.0,74.26,160.0,9.0,30.17,1018.0,10.0,,,CLR
2020-11-19 04:00:00,31001.747891,FST,53.1,46.0,76.75,160.0,10.0,30.17,1017.9,10.0,,,CLR
2020-11-19 05:00:00,31630.06718,FST,52.0,45.0,76.94,160.0,9.0,30.17,1018.0,10.0,,,CLR
2020-11-19 06:00:00,33377.458873,FST,51.1,44.1,76.86,160.0,9.0,30.16,1018.2,10.0,,,CLR
2020-11-19 07:00:00,36120.395939,FST,51.1,44.1,76.86,160.0,5.0,30.18,1018.9,10.0,,,CLR
2020-11-19 08:00:00,37389.912085,FST,52.0,44.1,74.35,160.0,7.0,30.19,1019.4,10.0,,,CLR
2020-11-19 09:00:00,38159.894315,FST,59.0,45.0,59.67,170.0,7.0,30.2,1019.7,10.0,,,CLR
2020-11-19 10:00:00,38753.040367,FST,70.0,44.1,39.26,220.0,6.0,30.22,1019.8,10.0,,,CLR
2020-11-19 11:00:00,39541.664511,FST,75.0,45.0,34.31,210.0,6.0,30.22,1019.7,10.0,,,CLR
2020-11-19 12:00:00,40282.787785,FST,79.0,45.0,30.05,0.0,0.0,30.2,1018.9,10.0,,,CLR
2020-11-19 13:00:00,41025.815741,FST,82.9,44.1,25.57,,,30.16,1017.4,10.0,,,CLR
2020-11-19 14:00:00,42022.353364,FST,84.0,43.0,23.66,150.0,7.0,30.15,1016.5,10.0,,81.48,CLR
2020-11-19 15:00:00,42723.178489,FST,84.9,45.0,24.81,140.0,8.0,30.13,1015.9,10.0,,82.27,CLR
2020-11-19 16:00:00,43105.895091,FST,84.9,46.9,26.66,110.0,10.0,30.12,1015.8,10.0,,82.42,CLR
2020-11-19 17:00:00,43010.184462,FST,84.0,42.1,22.85,150.0,12.0,30.11,1015.7,10.0,,81.43,CLR
2020-11-19 18:00:00,42978.13516,FST,77.0,46.0,33.34,150.0,14.0,30.12,1016.4,10.0,17.0,,CLR
2020-11-19 19:00:00,43458.942048,FST,72.0,46.0,39.42,150.0,14.0,30.13,1017.0,10.0,,,CLR
2020-11-19 20:00:00,42551.515912,FST,68.0,46.9,46.76,160.0,15.0,30.15,1017.9,10.0,,,CLR
2020-11-19 21:00:00,41362.946592,FST,66.0,46.9,50.1,160.0,17.0,30.16,1017.9,10.0,23.0,,CLR
2020-11-19 22:00:00,39825.87621,FST,64.0,48.9,57.91,160.0,13.0,30.18,1018.3,10.0,,,CLR
2020-11-19 23:00:00,37627.518323,FST,62.1,51.1,67.19,160.0,12.0,30.19,1018.3,10.0,,,CLR
2020-11-20 00:00:00,35367.697345,FST,61.0,51.1,69.86,160.0,14.0,30.18,1018.1,10.0,,,CLR
2020-11-20 01:00:00,33504.222635,FST,60.1,51.1,72.13,160.0,12.0,30.18,1017.7,10.0,,,CLR
2020-11-20 02:00:00,32270.31547,FST,57.9,50.0,74.91,150.0,10.0,30.17,1017.6,10.0,,,CLR
2020-11-20 03:00:00,31563.232476,FST,57.0,50.0,77.38,160.0,11.0,30.17,1017.5,10.0,,,CLR
2020-11-20 04:00:00,31333.539157,FST,55.0,48.9,79.85,160.0,9.0,30.17,1017.7,10.0,,,CLR
2020-11-20 05:00:00,31733.793592,FST,54.0,48.0,80.07,160.0,9.0,30.17,1017.8,10.0,,,CLR
2020-11-20 06:00:00,33129.58457,FST,52.0,46.9,82.68,160.0,10.0,30.18,1018.3,10.0,,,CLR
2020-11-20 07:00:00,35629.275617,FST,53.1,46.0,76.75,160.0,8.0,30.2,1019.2,10.0,,,CLR
2020-11-20 08:00:00,36958.160641,FST,51.1,45.0,79.54,230.0,3.0,30.23,1020.7,10.0,,,CLR
2020-11-20 09:00:00,38022.999393,FST,61.0,43.0,51.48,200.0,7.0,30.25,1021.0,10.0,,,CLR
2020-11-20 10:00:00,39088.096981,FST,68.0,43.0,40.31,230.0,7.0,30.26,1021.3,10.0,,,CLR
2020-11-20 11:00:00,40306.239323,FST,73.9,41.0,30.54,300.0,3.0,30.26,1021.0,10.0,,,CLR
2020-11-20 12:00:00,41454.956803,FST,77.0,39.9,26.38,0.0,0.0,30.25,1020.6,10.0,,,CLR
2020-11-20 13:00:00,42457.499454,FST,80.1,41.0,24.86,40.0,6.0,30.23,1019.7,10.0,,78.98,CLR
2020-11-20 14:00:00,43339.426527,FST,80.1,39.9,23.82,30.0,8.0,30.21,1019.1,10.0,,78.93,CLR
2020-11-20 15:00:00,43884.063032,FST,81.0,42.1,25.19,50.0,10.0,30.21,1018.7,10.0,,79.49,CLR
2020-11-20 16:00:00,44090.222182,FST,82.0,43.0,25.24,70.0,9.0,30.2,1018.5,10.0,,80.15,CLR
2020-11-20 17:00:00,43613.609123,FST,80.1,45.0,28.99,70.0,7.0,30.19,1018.7,10.0,,79.18,CLR
2020-11-20 18:00:00,43231.327288,FST,75.9,48.9,38.57,130.0,11.0,30.21,1019.5,10.0,,,CLR
2020-11-20 19:00:00,43085.405038,FST,71.1,50.0,47.23,130.0,11.0,30.23,1020.3,10.0,,,CLR
2020-11-20 20:00:00,41733.963148,FST,68.0,52.0,56.55,130.0,13.0,30.24,1020.9,10.0,,,CLR
2020-11-20 21:00:00,40476.659583,FST,66.0,53.1,63.1,140.0,13.0,30.25,1020.9,10.0,17.0,,CLR
2020-11-20 22:00:00,39160.316025,FST,64.0,52.0,64.97,150.0,14.0,30.25,1020.8,10.0,18.0,,CLR
2020-11-20 23:00:00,37413.9449,FST,62.1,51.1,67.19,170.0,14.0,30.26,1020.9,10.0,,,CLR
2020-11-21 00:00:00,35362.382777,FST,61.0,50.0,67.06,180.0,11.0,30.26,1020.6,10.0,,,CLR
2020-11-21 01:00:00,33526.533166,FST,59.0,50.0,72.01,170.0,11.0,30.26,1020.5,10.0,,,CLR
2020-11-21 02:00:00,32185.151804,FST,57.9,48.9,71.9,170.0,10.0,30.24,1020.0,10.0,,,CLR
2020-11-21 03:00:00,31277.162596,FST,57.9,48.9,71.9,180.0,10.0,30.23,1019.7,10.0,,,CLR
2020-11-21 04:00:00,30795.609937,FST,57.9,48.9,71.9,170.0,10.0,30.22,1019.4,10.0,,,CLR
2020-11-21 05:00:00,30799.300629,FST,59.0,48.9,69.12,170.0,9.0,30.22,1019.2,10.0,,,CLR
2020-11-21 06:00:00,31307.334267,FST,53.1,46.9,79.4,200.0,7.0,30.23,1020.3,10.0,,,CLR
2020-11-21 07:00:00,32382.642363,FST,52.0,46.9,82.68,180.0,6.0,30.25,1021.0,10.0,,,CLR
2020-11-21 08:00:00,33340.57056,FST,50.0,42.1,74.15,240.0,6.0,30.26,1021.9,10.0,,,CLR
2020-11-21 09:00:00,35030.738757,FST,57.0,37.0,47.04,260.0,5.0,30.28,1022.3,10.0,,,CLR
2020-11-21 10:00:00,36757.361374,FST,60.1,41.0,49.21,,4.0,30.29,1022.4,10.0,,,CLR
2020-11-21 11:00:00,38378.48478,FST,62.1,43.0,49.52,0.0,0.0,30.29,1022.6,10.0,,,CLR
2020-11-21 12:00:00,39882.754387,FST,66.0,44.1,45.05,0.0,0.0,30.27,1021.6,10.0,,,CLR
2020-11-21 13:00:00,41054.615375,FST,69.1,45.0,41.9,130.0,3.0,30.22,1020.0,10.0,,,CLR
2020-11-21 14:00:00,41866.362129,FST,73.0,48.9,42.51,170.0,5.0,30.18,1018.3,10.0,,,CLR
2020-11-21 15:00:00,42161.284106,FST,75.9,51.1,41.86,120.0,6.0,30.15,1017.2,10.0,17.0,,CLR
2020-11-21 16:00:00,42140.353079,FST,75.9,52.0,43.28,120.0,13.0,30.13,1016.6,10.0,,,CLR
2020-11-21 17:00:00,41463.890557,FST,73.9,51.1,44.76,120.0,16.0,30.13,1016.4,10.0,,,CLR
2020-11-21 18:00:00,41471.607841,FST,72.0,53.1,51.37,140.0,11.0,30.12,1016.6,10.0,,,CLR
2020-11-21 19:00:00,41751.027214,FST,68.0,54.0,60.86,140.0,12.0,30.13,1017.1,10.0,18.0,,CLR
2020-11-21 20:00:00,40587.189897,FST,66.0,55.0,67.64,140.0,11.0,30.14,1017.7,10.0,,,CLR
2020-11-21 21:00:00,39330.483033,FST,64.9,55.0,70.28,150.0,12.0,30.15,1017.8,10.0,,,CLR
2020-11-21 22:00:00,38048.408173,FST,63.0,55.0,75.11,150.0,12.0,30.15,1017.6,10.0,,,CLR
2020-11-21 23:00:00,36408.601282,FST,62.1,54.0,74.75,150.0,13.0,30.15,1017.6,10.0,,,CLR
2020-11-22 00:00:00,34533.97924,FST,61.0,53.1,75.2,150.0,12.0,30.13,1017.0,10.0,,,CLR
2020-11-22 01:00:00,32843.64744,FST,59.0,53.1,80.75,160.0,10.0,30.12,1016.6,10.0,,,CLR
2020-11-22 02:00:00,31679.482538,FST,57.0,51.1,80.6,150.0,5.0,30.13,1016.7,10.0,,,CLR
2020-11-22 03:00:00,30885.719729,FST,57.0,52.0,83.33,180.0,9.0,30.12,1016.3,10.0,,,CLR
2020-11-22 04:00:00,30396.003692,FST,54.0,46.0,74.26,240.0,7.0,30.13,1016.8,10.0,,,CLR
2020-11-22 05:00:00,30272.038403,FST,52.0,45.0,76.94,220.0,7.0,30.13,1017.1,10.0,,,CLR
2020-11-22 06:00:00,30506.797682,FST,51.1,45.0,79.54,210.0,5.0,30.14,1017.5,10.0,,,CLR
2020-11-22 07:00:00,31137.506849,FST,53.1,45.0,73.89,250.0,6.0,30.18,1018.8,10.0,,,CLR
2020-11-22 08:00:00,31737.136305,FST,53.1,45.0,73.89,250.0,6.0,30.2,1019.6,10.0,,,CLR
2020-11-22 09:00:00,33530.789164,FST,54.0,46.0,74.26,240.0,9.0,30.22,1020.4,10.0,,,CLR
2020-11-22 10:00:00,35554.151606,FST,59.0,48.9,69.12,250.0,6.0,30.24,1020.8,10.0,,,CLR
2020-11-22 11:00:00,37288.124091,FST,64.0,50.0,60.34,310.0,6.0,30.25,1021.1,10.0,,,CLR
2020-11-22 12:00:00,38815.730379,FST,64.9,51.1,60.9,340.0,7.0,30.25,1021.1,10.0,,,CLR
2020-11-22 13:00:00,39916.510158,FST,68.0,51.1,54.7,30.0,9.0,30.23,1020.3,10.0,,,CLR
2020-11-22 14:00:00,40636.89645,FST,70.0,52.0,52.8,60.0,11.0,30.21,1019.6,10.0,,,FEW
2020-11-22 15:00:00,40928.658434,FST,66.0,55.0,70.28,60.0,16.0,30.21,1019.8,10.0,,,BKN
2020-11-22 16:00:00,40770.068224,FST,63.0,57.0,83.36,70.0,16.0,30.22,1020.4,9.0,,,SCT
2020-11-22 17:00:00,40681.063073,FST,61.0,59.0,93.12,70.0,11.0,30.23,1020.8,6.0,,,FEW
2020-11-22 18:00:00,41431.417542,FST,57.9,57.0,96.81,50.0,11.0,30.24,1021.4,3.0,,,OVC
2020-11-22 19:00:00,41972.275811,FST,55.0,53.1,93.29,50.0,10.0,30.26,1022.3,7.0,,,OVC
2020-11-22 20:00:00,41134.74854,FST,54.0,52.0,92.92,60.0,12.0,30.27,1022.7,10.0,,,OVC
2020-11-22 21:00:00,39963.68771,FST,54.0,52.0,93.6,80.0,10.0,30.29,1023.2,9.0,,,OVC
2020-11-22 22:00:00,38650.367465,FST,54.0,52.0,92.92,70.0,9.0,30.28,1022.7,10.0,,,OVC
2020-11-22 23:00:00,36818.974533,FST,55.0,52.0,92.92,90.0,9.0,30.28,1021.9,10.0,,,OVC
2020-11-23 00:00:00,34775.591715,FST,55.0,52.0,89.59,100.0,11.0,30.26,1021.2,10.0,,,OVC
2020-11-23 01:00:00,33148.364702,FST,55.0,52.0,89.59,110.0,15.0,30.22,1020.1,10.0,,,OVC
2020-11-23 02:00:00,32191.013832,FST,55.0,52.0,89.59,130.0,12.0,30.2,1019.2,10.0,,,OVC
2020-11-23 03:00:00,31598.169278,FST,55.0,52.0,89.59,120.0,11.0,30.19,1018.9,10.0,,,OVC
2020-11-23 04:00:00,31487.0775,FST,55.9,53.1,90.29,130.0,13.0,30.16,1018.4,10.0,18.0,,OVC
2020-11-23 05:00:00,31976.528879,FST,57.0,54.0,89.68,130.0,9.0,30.16,1018.3,10.0,,,OVC
2020-11-23 06:00:00,33362.35469,FST,57.9,55.0,90.04,140.0,10.0,30.15,1018.2,10.0,,,OVC
2020-11-23 07:00:00,35541.271948,FST,59.0,54.0,83.46,150.0,9.0,30.15,1018.2,10.0,,,BKN
2020-11-23 08:00:00,37146.598583,FST,60.1,54.0,80.25,140.0,7.0,30.16,1018.5,10.0,,,FEW
2020-11-23 09:00:00,38419.765893,FST,62.1,54.0,77.72,150.0,14.0,30.15,1017.9,10.0,22.0,,SCT
2020-11-23 10:00:00,39456.041139,FST,63.0,53.1,70.07,150.0,17.0,30.13,1017.4,10.0,22.0,,OVC
2020-11-23 11:00:00,39939.836834,FST,66.0,53.1,64.97,160.0,20.0,30.12,1016.4,9.0,27.0,,FEW
2020-11-23 12:00:00,40011.354575,FST,69.1,53.1,56.7,160.0,18.0,30.07,1015.0,10.0,23.0,,CLR
2020-11-23 13:00:00,40022.428493,FST,70.0,53.1,54.98,150.0,18.0,30.01,1012.9,10.0,24.0,,CLR
2020-11-23 14:00:00,39976.936767,FST,72.0,52.0,49.33,150.0,17.0,29.96,1010.9,10.0,27.0,,CLR
2020-11-23 15:00:00,39900.713049,FST,73.9,52.0,46.27,150.0,16.0,29.92,1009.6,10.0,25.0,,CLR
2020-11-23 16:00:00,39764.803716,FST,73.9,52.0,46.27,160.0,22.0,29.92,1009.1,10.0,27.0,,CLR
2020-11-23 17:00:00,39884.110126,FST,72.0,53.1,51.37,160.0,20.0,29.91,1008.9,10.0,24.0,,CLR
2020-11-23 18:00:00,40934.081827,FST,69.1,53.1,56.7,150.0,18.0,29.9,1009.0,10.0,23.0,,CLR
2020-11-23 19:00:00,41898.952449,FST,66.0,53.1,63.1,150.0,19.0,29.92,1008.9,10.0,24.0,,CLR
2020-11-23 20:00:00,41174.483334,FST,64.0,53.1,67.66,140.0,15.0,29.9,1009.2,10.0,23.0,,CLR
2020-11-23 21:00:00,40241.889343,FST,63.0,53.1,70.07,150.0,18.0,29.88,1008.5,10.0,25.0,,CLR
2020-11-23 22:00:00,39031.833663,FST,62.1,52.0,69.46,160.0,22.0,29.87,1008.0,10.0,29.0,,CLR
2020-11-23 23:00:00,37296.854341,FST,61.0,52.0,72.22,150.0,18.0,29.86,1007.6,10.0,25.0,,CLR
2020-11-24 00:00:00,35278.666959,FST,61.0,52.0,72.22,170.0,17.0,29.85,1007.2,10.0,25.0,,CLR
2020-11-24 01:00:00,33716.467785,FST,61.0,51.1,69.86,160.0,14.0,29.84,1006.5,10.0,,,CLR
2020-11-24 02:00:00,32744.593228,FST,60.1,51.1,72.13,180.0,12.0,29.82,1006.1,10.0,,,CLR
2020-11-24 03:00:00,32210.582164,FST,60.1,50.0,69.24,180.0,9.0,29.82,1006.0,10.0,,,CLR
2020-11-24 04:00:00,32013.070608,FST,59.0,50.0,72.01,170.0,9.0,29.83,1006.1,10.0,,,CLR
2020-11-24 05:00:00,32483.316472,FST,55.9,48.9,77.28,170.0,9.0,29.83,1006.6,10.0,,,CLR
2020-11-24 06:00:00,33798.508904,FST,55.0,48.9,79.85,140.0,8.0,29.84,1007.0,10.0,,,CLR
2020-11-24 07:00:00,35873.365595,FST,57.0,48.9,74.27,180.0,10.0,29.85,1007.5,10.0,,,CLR
2020-11-24 08:00:00,37386.80451,FST,54.0,48.0,80.07,180.0,12.0,29.86,1008.1,10.0,,,CLR
2020-11-24 09:00:00,38809.323804,FST,63.0,46.0,53.78,180.0,9.0,29.87,1007.9,10.0,,,CLR
2020-11-24 10:00:00,40175.407046,FST,72.0,41.0,32.56,210.0,10.0,29.87,1007.6,10.0,,,CLR
2020-11-24 11:00:00,41270.215647,FST,75.9,39.0,26.42,230.0,16.0,29.87,1007.1,10.0,18.0,,CLR
2020-11-24 12:00:00,41996.874488,FST,78.1,35.1,21.07,270.0,14.0,29.86,1006.6,10.0,21.0,,CLR
2020-11-24 13:00:00,42657.190268,FST,80.1,34.0,18.88,290.0,15.0,29.85,1005.4,10.0,22.0,78.7,CLR
2020-11-24 14:00:00,43290.803706,FST,79.0,35.1,20.45,360.0,18.0,29.81,1005.2,10.0,21.0,,CLR
2020-11-24 15:00:00,43532.357974,FST,81.0,27.0,13.8,340.0,22.0,29.81,1004.9,10.0,28.0,78.96,CLR
2020-11-24 16:00:00,43630.629744,FST,79.0,24.1,13.06,290.0,23.0,29.82,1005.6,9.0,29.0,,CLR
2020-11-24 17:00:00,43507.242193,FST,77.0,19.0,11.24,300.0,23.0,29.85,1006.8,10.0,29.0,,CLR
2020-11-24 18:00:00,43908.45624,FST,70.0,23.0,16.86,320.0,21.0,29.89,1008.7,10.0,22.0,,CLR
2020-11-24 19:00:00,44520.580616,FST,68.0,19.9,15.84,320.0,15.0,29.95,1010.6,10.0,,,BKN
2020-11-24 20:00:00,43604.707106,FST,64.9,19.9,17.63,320.0,15.0,29.98,1011.9,10.0,,,CLR
2020-11-24 21:00:00,42565.855177,FST,62.1,19.9,19.45,320.0,12.0,30.0,1012.3,10.0,,,CLR
2020-11-24 22:00:00,41159.943241,FST,59.0,18.0,20.02,310.0,8.0,30.02,1012.9,10.0,,,CLR
2020-11-24 23:00:00,39248.744877,FST,60.1,16.0,17.66,290.0,9.0,30.04,1013.2,10.0,,,CLR
2020-11-25 00:00:00,37009.233338,FST,55.0,17.1,22.25,270.0,9.0,30.04,1013.6,10.0,,,CLR
2020-11-25 01:00:00,35249.783107,FST,55.0,16.0,21.21,250.0,8.0,30.06,1013.9,10.0,,,CLR
2020-11-25 02:00:00,33972.221677,FST,48.9,16.0,26.57,350.0,4.0,30.09,1015.5,10.0,,47.16,CLR
2020-11-25 03:00:00,33231.266364,FST,42.1,23.0,46.37,60.0,5.0,30.11,1016.5,10.0,,38.39,CLR
2020-11-25 04:00:00,32975.413005,FST,39.9,28.0,62.15,70.0,4.0,30.13,1017.1,10.0,,36.65,CLR
2020-11-25 05:00:00,33295.034373,FST,39.0,28.0,64.37,20.0,4.0,30.14,1017.6,10.0,,35.59,CLR
2020-11-25 06:00:00,34348.537952,FST,37.9,28.0,67.2,260.0,6.0,30.16,1018.9,10.0,,32.64,CLR
2020-11-25 07:00:00,36155.650345,FST,36.0,27.0,69.51,240.0,4.0,30.18,1019.7,10.0,,32.09,CLR
2020-11-25 08:00:00,37454.408742,FST,37.0,26.1,64.38,250.0,5.0,30.19,1020.2,10.0,,32.33,CLR
2020-11-25 09:00:00,38527.690506,FST,43.0,28.9,57.21,260.0,4.0,30.2,1020.3,10.0,,40.27,CLR
2020-11-25 10:00:00,39295.361171,FST,48.0,30.0,49.49,0.0,0.0,30.2,1020.3,10.0,,,CLR
2020-11-25 11:00:00,39835.332514,FST,52.0,30.0,42.65,0.0,0.0,30.18,1019.4,10.0,,,CLR
2020-11-25 12:00:00,40177.082082,FST,55.9,30.0,36.98,160.0,3.0,30.18,1018.3,10.0,,,CLR
2020-11-25 13:00:00,40331.472423,FST,62.1,28.9,28.33,160.0,6.0,30.15,1016.4,10.0,,,CLR
2020-11-25 14:00:00,40701.162596,FST,68.0,27.0,21.33,180.0,7.0,30.1,1014.9,10.0,,,CLR
2020-11-25 15:00:00,40915.970435,FST,71.1,26.1,18.48,160.0,5.0,30.06,1013.9,10.0,,,CLR
2020-11-25 16:00:00,40859.89494,FST,72.0,25.0,17.13,110.0,5.0,30.02,1013.3,10.0,,,CLR
2020-11-25 17:00:00,40522.894932,FST,71.1,27.0,19.18,110.0,11.0,30.0,1013.1,10.0,15.0,,CLR
2020-11-25 18:00:00,40821.790331,FST,63.0,28.0,26.45,40.0,11.0,30.01,1013.9,10.0,,,CLR
2020-11-25 19:00:00,41421.340602,FST,59.0,28.0,30.48,80.0,5.0,30.02,1014.3,10.0,,,CLR
2020-11-25 20:00:00,40676.247332,FST,55.0,28.0,35.21,190.0,5.0,30.02,1014.8,10.0,,,CLR
2020-11-25 21:00:00,39991.836577,FST,57.0,27.0,31.43,210.0,10.0,30.02,1014.4,10.0,,,CLR
2020-11-25 22:00:00,39149.345289,FST,55.9,21.0,25.45,220.0,13.0,30.02,1014.0,10.0,,,CLR
2020-11-25 23:00:00,37791.515867,FST,57.0,18.0,21.51,210.0,13.0,30.02,1013.9,10.0,,,CLR
2020-11-26 00:00:00,36148.816742,FST,55.0,19.0,24.14,220.0,13.0,30.03,1013.6,10.0,,,CLR
2020-11-26 01:00:00,34579.848211,FST,54.0,19.0,25.04,220.0,13.0,30.01,1012.9,10.0,,,CLR
2020-11-26 02:00:00,33571.060067,FST,53.1,19.0,25.88,220.0,15.0,30.0,1012.5,10.0,,,CLR
2020-11-26 03:00:00,32938.428701,FST,52.0,19.0,26.95,220.0,13.0,30.0,1012.2,10.0,,,CLR
2020-11-26 04:00:00,32687.140031,FST,52.0,19.0,26.95,230.0,13.0,29.99,1011.8,10.0,,,CLR
2020-11-26 05:00:00,32940.52443,FST,55.0,19.9,25.09,230.0,14.0,29.98,1011.3,10.0,,,CLR
2020-11-26 06:00:00,33751.699549,FST,54.0,19.9,26.02,230.0,13.0,29.97,1011.6,10.0,,,CLR
2020-11-26 07:00:00,34972.436235,FST,51.1,19.9,28.95,270.0,8.0,30.0,1013.2,10.0,,,CLR
2020-11-26 08:00:00,36089.675771,FST,46.0,19.9,35.04,210.0,5.0,30.01,1013.8,10.0,,43.02,CLR
2020-11-26 09:00:00,37467.349725,FST,54.0,19.9,26.02,310.0,8.0,30.03,1014.1,10.0,,,CLR
2020-11-26 10:00:00,38486.045153,FST,60.1,21.0,21.88,290.0,5.0,30.04,1014.3,10.0,,,CLR
2020-11-26 11:00:00,39517.131876,FST,69.1,21.9,16.6,250.0,5.0,30.04,1013.6,10.0,,,CLR
2020-11-26 12:00:00,40091.023003,FST,73.0,23.0,15.23,320.0,5.0,30.03,1013.0,10.0,,,CLR
2020-11-26 13:00:00,40111.234232,FST,73.9,21.9,14.11,360.0,9.0,30.01,1011.9,10.0,,,CLR
2020-11-26 14:00:00,39894.752048,FST,77.0,23.0,13.32,60.0,6.0,29.98,1010.7,10.0,,,CLR
2020-11-26 15:00:00,39486.97985,FST,78.1,21.9,12.26,360.0,9.0,29.95,1010.0,10.0,,,CLR
2020-11-26 16:00:00,39051.668112,FST,77.0,21.9,12.72,360.0,8.0,29.93,1009.7,10.0,,,CLR
2020-11-26 17:00:00,38190.230295,FST,75.9,21.9,13.19,350.0,5.0,29.93,1009.8,10.0,,,CLR
2020-11-26 18:00:00,38013.022359,FST,70.0,21.9,16.1,110.0,5.0,29.94,1010.5,10.0,,,CLR
2020-11-26 19:00:00,38212.386317,FST,66.0,21.9,18.47,130.0,5.0,29.96,1011.4,10.0,,,CLR
2020-11-26 20:00:00,37507.453909,FST,59.0,24.1,25.93,170.0,7.0,29.98,1012.7,10.0,,,CLR
2020-11-26 21:00:00,36938.359921,FST,59.0,28.0,30.48,160.0,9.0,29.99,1012.6,10.0,,,CLR
2020-11-26 22:00:00,36339.857574,FST,61.0,30.0,30.8,150.0,12.0,29.98,1012.0,10.0,,,CLR
2020-11-26 23:00:00,35386.089556,FST,57.9,34.0,40.43,150.0,10.0,29.97,1011.2,10.0,,,CLR
2020-11-27 00:00:00,34118.688133,FST,55.0,33.1,43.31,160.0,8.0,29.98,1011.4,10.0,,,CLR
2020-11-27 01:00:00,32977.354081,FST,54.0,35.1,48.65,170.0,9.0,29.98,1011.0,10.0,,,CLR
2020-11-27 02:00:00,32098.909629,FST,55.0,41.0,59.13,160.0,9.0,29.96,1010.7,10.0,,,CLR
2020-11-27 03:00:00,31482.493727,FST,54.0,43.0,66.24,170.0,9.0,29.97,1010.9,10.0,,,CLR
2020-11-27 04:00:00,31362.644491,FST,52.0,37.0,56.45,310.0,8.0,29.98,1010.9,10.0,,,CLR
2020-11-27 05:00:00,31576.564701,FST,50.0,34.0,53.97,0.0,0.0,29.98,1011.6,10.0,,,CLR
2020-11-27 06:00:00,32403.187295,FST,50.0,39.0,65.75,0.0,0.0,29.99,1012.4,10.0,,,CLR
2020-11-27 07:00:00,33633.013552,FST,50.0,37.0,63.34,290.0,5.0,30.03,1013.9,10.0,,46.47,SCT
2020-11-27 08:00:00,34693.144646,FST,51.1,39.9,68.1,300.0,6.0,30.06,1015.4,10.0,,,OVC
2020-11-27 09:00:00,36006.612587,FST,54.0,35.1,48.65,280.0,10.0,30.1,1016.5,10.0,,45.88,OVC
2020-11-27 10:00:00,37467.341758,FST,53.1,30.9,42.48,30.0,9.0,30.14,1017.7,10.0,,,OVC
2020-11-27 11:00:00,38870.389659,FST,55.0,30.9,39.63,50.0,6.0,30.16,1018.4,10.0,,,OVC
2020-11-27 12:00:00,39689.683516,FST,55.9,30.0,36.98,360.0,6.0,30.15,1018.3,10.0,,,BKN
2020-11-27 13:00:00,40192.906638,FST,57.0,30.9,38.36,350.0,6.0,30.15,1017.2,10.0,,,SCT
2020-11-27 14:00:00,39964.12718,FST,55.9,30.9,38.36,360.0,8.0,30.11,1016.8,10.0,,,OVC
2020-11-27 15:00:00,39365.420958,FST,57.9,32.0,37.31,350.0,12.0,30.1,1016.4,10.0,17.0,,SCT
2020-11-27 16:00:00,38976.540341,FST,57.9,33.1,39.0,20.0,8.0,30.08,1016.1,10.0,,,FEW
2020-11-27 17:00:00,38958.046434,FST,57.0,34.0,41.76,30.0,7.0,30.08,1016.2,10.0,,,CLR
2020-11-27 18:00:00,39839.074806,FST,54.0,33.1,44.92,30.0,4.0,30.1,1016.8,10.0,,,CLR
2020-11-27 19:00:00,40287.573561,FST,51.1,32.0,47.81,0.0,0.0,30.11,1017.5,10.0,,,CLR
2020-11-27 20:00:00,39622.049074,FST,50.0,30.9,47.64,40.0,4.0,30.13,1018.1,10.0,,,CLR
2020-11-27 21:00:00,38863.982239,FST,51.1,32.0,47.81,60.0,6.0,30.14,1018.1,10.0,,,OVC
2020-11-27 22:00:00,37889.818225,FST,48.9,30.9,49.63,50.0,4.0,30.15,1018.6,10.0,,47.16,BKN
2020-11-27 23:00:00,36566.594009,FST,50.0,33.1,52.06,60.0,7.0,30.15,1018.6,10.0,,,OVC
2020-11-28 00:00:00,35002.63782,FST,50.0,33.1,52.06,40.0,5.0,30.16,1018.7,10.0,,,OVC
2020-11-28 01:00:00,33587.415145,FST,50.0,33.1,52.06,10.0,3.0,30.16,1018.6,10.0,,,OVC
2020-11-28 02:00:00,32408.568657,FST,50.0,34.0,53.97,30.0,3.0,30.15,1018.5,10.0,,,OVC
2020-11-28 03:00:00,31754.572868,FST,50.0,39.0,65.75,60.0,8.0,30.16,1018.7,10.0,,,OVC
2020-11-28 04:00:00,31378.660515,FST,48.9,39.0,68.51,60.0,5.0,30.17,1019.1,10.0,,46.47,BKN
2020-11-28 05:00:00,31364.263079,FST,46.9,41.0,79.82,10.0,7.0,30.17,1019.2,10.0,,42.94,OVC
2020-11-28 06:00:00,31862.812534,FST,46.0,42.1,86.16,50.0,7.0,30.17,1019.5,10.0,,42.39,OVC
2020-11-28 07:00:00,32909.24524,FST,46.0,42.1,86.16,50.0,4.0,30.18,1020.0,10.0,,43.77,OVC
2020-11-28 08:00:00,33886.192374,FST,46.0,42.1,86.16,50.0,4.0,30.19,1020.5,10.0,,43.77,OVC
2020-11-28 09:00:00,35322.792057,FST,46.0,42.1,86.16,350.0,5.0,30.21,1020.8,10.0,,44.69,OVC
2020-11-28 10:00:00,36724.346849,FST,46.0,41.0,82.58,310.0,8.0,30.23,1021.6,10.0,,41.36,OVC
2020-11-28 11:00:00,37642.922661,FST,46.9,41.0,82.58,340.0,11.0,30.24,1021.8,10.0,,41.3,OVC
2020-11-28 12:00:00,38132.413911,FST,48.0,39.9,76.48,320.0,13.0,30.23,1021.6,10.0,,42.07,OVC
2020-11-28 13:00:00,38356.172663,FST,48.0,37.9,67.87,330.0,8.0,30.21,1020.9,10.0,,43.82,OVC
2020-11-28 14:00:00,38075.128931,FST,53.1,37.9,56.17,320.0,12.0,30.18,1019.3,10.0,,,FEW
2020-11-28 15:00:00,37841.196587,FST,54.0,37.0,52.45,290.0,8.0,30.14,1018.4,10.0,17.0,,CLR
2020-11-28 16:00:00,37793.840854,FST,55.9,36.0,47.05,320.0,11.0,30.12,1017.6,10.0,15.0,,CLR
2020-11-28 17:00:00,38165.843093,FST,55.9,35.1,45.4,320.0,9.0,30.12,1017.5,10.0,,,CLR
2020-11-28 18:00:00,39488.369621,FST,51.1,34.0,51.81,310.0,5.0,30.11,1017.6,10.0,,,CLR
2020-11-28 19:00:00,39972.556298,FST,46.9,32.0,55.94,300.0,3.0,30.12,1018.0,10.0,,45.72,CLR
2020-11-28 20:00:00,39447.140845,FST,46.0,32.0,57.87,280.0,3.0,30.13,1018.5,10.0,,44.69,CLR
2020-11-28 21:00:00,38803.136318,FST,43.0,32.0,64.88,200.0,4.0,30.13,1018.6,10.0,,40.27,CLR
2020-11-28 22:00:00,37896.640055,FST,45.0,33.1,62.83,210.0,7.0,30.13,1018.5,10.0,,40.63,CLR
2020-11-28 23:00:00,36656.139983,FST,43.0,34.0,70.3,210.0,9.0,30.12,1018.4,10.0,,37.19,CLR
2020-11-29 00:00:00,35207.1247,FST,46.0,35.1,65.52,210.0,11.0,30.1,1017.6,10.0,,40.16,CLR
2020-11-29 01:00:00,33979.083649,FST,39.9,33.1,76.44,210.0,9.0,30.1,1017.6,10.0,,33.34,CLR
2020-11-29 02:00:00,32949.183092,FST,39.9,33.1,76.44,220.0,9.0,30.09,1017.1,10.0,,33.34,CLR
2020-11-29 03:00:00,32291.583888,FST,39.9,27.0,59.65,220.0,9.0,30.08,1016.7,10.0,,33.34,CLR
2020-11-29 04:00:00,31946.532931,FST,39.9,23.0,50.5,220.0,13.0,30.07,1016.4,10.0,,31.69,CLR
2020-11-29 05:00:00,31958.251093,FST,39.9,21.9,48.21,220.0,12.0,30.08,1016.4,10.0,,32.06,CLR
2020-11-29 06:00:00,32406.820863,FST,41.0,21.0,44.47,230.0,13.0,30.09,1017.1,10.0,,33.1,CLR
2020-11-29 07:00:00,33390.574377,FST,42.1,21.0,42.62,240.0,8.0,30.12,1018.3,10.0,,36.55,CLR
2020-11-29 08:00:00,34442.391783,FST,37.9,21.0,50.18,240.0,8.0,30.16,1019.9,10.0,,31.38,CLR
2020-11-29 09:00:00,35844.958321,FST,45.0,23.0,41.5,280.0,8.0,30.21,1021.5,10.0,,40.13,CLR
2020-11-29 10:00:00,37344.100961,FST,50.0,27.0,40.62,300.0,10.0,30.23,1021.8,10.0,,,CLR
2020-11-29 11:00:00,38343.157125,FST,53.1,28.0,37.74,340.0,9.0,30.26,1022.8,10.0,,,CLR
2020-11-29 12:00:00,38760.433524,FST,55.0,26.1,32.56,350.0,15.0,30.28,1023.1,10.0,,,CLR
2020-11-29 13:00:00,38958.084947,FST,57.0,27.0,31.43,340.0,13.0,30.26,1022.8,10.0,,,CLR
2020-11-29 14:00:00,38833.145189,FST,55.9,33.1,41.92,10.0,14.0,30.26,1022.8,10.0,20.0,,CLR
2020-11-29 15:00:00,38738.484205,FST,53.1,34.0,48.13,350.0,10.0,30.27,1023.4,10.0,,,CLR
2020-11-29 16:00:00,38727.558189,FST,53.1,34.0,48.13,350.0,9.0,30.28,1023.6,10.0,,,CLR
2020-11-29 17:00:00,38837.418256,FST,54.0,34.0,46.57,330.0,6.0,30.29,1024.0,10.0,,,CLR
2020-11-29 18:00:00,40733.738101,FST,50.0,33.1,52.06,300.0,3.0,30.31,1024.9,10.0,,,CLR
2020-11-29 19:00:00,42481.894102,FST,48.9,32.0,51.89,30.0,6.0,30.35,1026.1,10.0,,45.88,CLR
2020-11-29 20:00:00,42524.341777,FST,45.0,30.9,57.5,50.0,5.0,30.39,1028.0,10.0,,41.83,CLR
2020-11-29 21:00:00,42207.159052,FST,43.0,30.9,62.06,40.0,3.0,30.43,1029.2,10.0,,41.26,CLR
2020-11-29 22:00:00,41295.890688,FST,39.9,30.0,67.45,10.0,3.0,30.46,1030.0,10.0,,37.72,CLR
2020-11-29 23:00:00,39644.003565,FST,39.0,30.0,69.85,10.0,5.0,30.47,1030.5,10.0,,34.71,CLR
2020-11-30 00:00:00,37913.896513,FST,36.0,28.9,75.15,330.0,5.0,30.5,1031.4,10.0,,31.15,FEW
2020-11-30 01:00:00,36860.141849,FST,43.0,32.0,64.88,30.0,9.0,30.51,1031.1,10.0,,37.19,OVC
2020-11-30 02:00:00,36492.720919,FST,39.9,28.9,64.49,40.0,5.0,30.51,1031.5,10.0,,35.78,CLR
2020-11-30 03:00:00,36481.101852,FST,37.0,27.0,66.82,350.0,3.0,30.52,1032.2,10.0,,34.4,FEW
2020-11-30 04:00:00,37003.955843,FST,36.0,27.0,69.51,0.0,0.0,30.52,1032.2,10.0,,,CLR
2020-11-30 05:00:00,38363.973486,FST,33.1,26.1,75.18,300.0,4.0,30.52,1032.3,10.0,,28.7,CLR
2020-11-30 06:00:00,41157.089726,FST,30.0,25.0,81.4,270.0,6.0,30.53,1032.8,10.0,,23.12,CLR
2020-11-30 07:00:00,45181.540259,FST,30.0,24.1,78.4,290.0,5.0,30.54,1033.4,10.0,,24.02,CLR
2020-11-30 08:00:00,47489.342538,FST,28.9,23.0,78.3,300.0,5.0,30.54,1033.8,10.0,,22.71,CLR
2020-11-30 09:00:00,47755.951704,FST,34.0,23.0,63.72,0.0,0.0,30.55,1033.7,10.0,,,CLR
2020-11-30 10:00:00,47211.838844,FST,39.0,19.9,45.87,0.0,0.0,30.55,1033.5,10.0,,,CLR
2020-11-30 11:00:00,46196.410181,FST,42.1,17.1,36.07,0.0,0.0,30.52,1032.6,10.0,,,CLR
2020-11-30 12:00:00,44923.738091,FST,45.0,14.0,28.2,60.0,4.0,30.49,1031.5,10.0,,42.6,CLR
2020-11-30 13:00:00,43471.390359,FST,46.9,12.0,24.03,20.0,3.0,30.45,1029.6,10.0,,45.72,CLR
2020-11-30 14:00:00,42101.413173,FST,48.0,10.9,21.96,,3.0,30.4,1028.2,10.0,,46.98,CLR
2020-11-30 15:00:00,40906.683146,FST,50.0,9.0,18.72,0.0,0.0,30.36,1026.6,10.0,,,CLR
2020-11-30 16:00:00,40323.728975,FST,51.1,7.0,16.42,,3.0,30.31,1025.1,10.0,,,CLR
2020-11-30 17:00:00,40876.693495,FST,51.1,8.1,17.26,90.0,6.0,30.29,1024.5,10.0,,,CLR
2020-11-30 18:00:00,43703.424681,FST,46.9,8.1,20.19,70.0,4.0,30.27,1024.2,10.0,,44.82,CLR
2020-11-30 19:00:00,46589.944134,FST,44.1,8.1,22.45,110.0,8.0,30.27,1024.3,10.0,,39.02,CLR
2020-11-30 20:00:00,47352.153987,FST,42.1,5.0,21.06,160.0,4.0,30.26,1024.3,10.0,,39.21,CLR
2020-11-30 21:00:00,47758.742195,FST,37.9,1.9,21.49,160.0,8.0,30.26,1024.0,10.0,,31.38,CLR
2020-11-30 22:00:00,47250.371541,FST,37.9,0.0,19.66,160.0,9.0,30.25,1023.4,10.0,,30.85,CLR
2020-11-30 23:00:00,46013.421922,FST,39.9,-2.0,16.55,160.0,10.0,30.23,1022.5,10.0,,32.87,CLR
2020-12-01 00:00:00,44499.617418,FST,39.9,-2.9,15.86,170.0,10.0,30.23,1021.7,10.0,,33.34,CLR
2020-12-01 01:00:00,43657.702075,FST,57.0,-2.9,8.36,170.0,10.0,30.21,1019.9,10.0,,,CLR
2020-12-01 02:00:00,43467.275428,FST,55.9,-2.0,9.07,170.0,11.0,30.18,1018.8,10.0,,,CLR
2020-12-01 03:00:00,43644.439236,FST,55.0,0.0,10.3,170.0,9.0,30.13,1017.9,10.0,,,CLR
2020-12-01 04:00:00,44282.768295,FST,54.0,1.9,11.68,180.0,10.0,30.12,1017.6,10.0,,,CLR
2020-12-01 05:00:00,45721.694255,FST,55.9,14.0,18.82,210.0,11.0,30.09,1016.2,10.0,,,CLR
2020-12-01 06:00:00,48390.561498,FST,53.1,16.0,22.74,230.0,10.0,30.07,1016.0,10.0,,,CLR
2020-12-01 07:00:00,52089.355728,FST,54.0,18.0,23.99,220.0,10.0,30.06,1015.7,10.0,,,CLR
2020-12-01 08:00:00,53560.254612,FST,55.9,19.9,24.28,210.0,10.0,30.04,1015.0,10.0,,,CLR
2020-12-01 09:00:00,51805.47934,FST,63.0,24.1,22.5,220.0,11.0,30.03,1014.6,10.0,,,CLR
2020-12-01 10:00:00,49205.851199,FST,71.1,27.0,19.18,230.0,16.0,30.02,1013.7,10.0,,,CLR
2020-12-01 11:00:00,46781.685591,FST,78.1,27.0,15.17,250.0,13.0,30.02,1013.6,10.0,,,CLR
2020-12-01 12:00:00,44613.477688,FST,84.0,26.1,12.06,270.0,10.0,29.99,1012.4,10.0,,80.96,CLR
2020-12-01 13:00:00,42849.110385,FST,88.0,26.1,10.61,270.0,6.0,29.94,1009.4,10.0,,83.8,CLR
2020-12-01 14:00:00,41625.493892,FST,70.0,24.1,17.66,280.0,5.0,29.91,1009.3,10.0,,,CLR
2020-12-01 15:00:00,40658.695306,FST,,,,300.0,3.0,29.87,,10.0,,,CLR
2020-12-01 16:00:00,40219.188597,FST,,,,320.0,8.0,29.85,,10.0,,,CLR
2020-12-01 17:00:00,40760.603978,FST,,,,300.0,5.0,29.86,,10.0,,,CLR
2020-12-01 18:00:00,43010.637818,FST,,,,0.0,0.0,29.85,,10.0,,,CLR
2020-12-01 19:00:00,44962.980556,FST,,,,0.0,0.0,29.87,,10.0,,,CLR
2020-12-01 20:00:00,45009.148817,FST,,,,210.0,4.0,29.9,,10.0,,,CLR
2020-12-01 21:00:00,44592.518951,FST,,,,220.0,8.0,29.92,,10.0,,,CLR
2020-12-01 22:00:00,43150.674094,FST,,,,150.0,4.0,29.96,,10.0,,,CLR
2020-12-01 23:00:00,40916.469127,FST,,,,290.0,10.0,29.96,,10.0,,,CLR
2020-12-02 00:00:00,38724.507033,FST,,,,310.0,15.0,29.99,,10.0,,,CLR
2020-12-02 01:00:00,37270.085382,FST,,,,340.0,15.0,30.02,,10.0,,,CLR
2020-12-02 02:00:00,36461.135641,FST,,,,350.0,16.0,30.06,,10.0,,,CLR
2020-12-02 03:00:00,35985.653384,FST,,,,330.0,11.0,30.1,,10.0,,,CLR
2020-12-02 04:00:00,36014.650507,FST,,,,310.0,13.0,30.13,,10.0,16.0,,CLR
2020-12-02 05:00:00,36843.135177,FST,,,,310.0,13.0,30.15,,10.0,,,CLR
2020-12-02 06:00:00,38980.779356,FST,,,,300.0,9.0,30.18,,10.0,,,CLR
2020-12-02 07:00:00,41981.770507,FST,,,,300.0,9.0,30.21,,10.0,,,CLR
2020-12-02 08:00:00,43222.08879,FST,,,,300.0,9.0,30.24,,10.0,,,CLR
2020-12-02 09:00:00,43295.168965,FST,,,,310.0,11.0,30.26,,10.0,,,CLR
2020-12-02 10:00:00,43116.156619,FST,,,,340.0,14.0,30.3,,10.0,21.0,,CLR
2020-12-02 11:00:00,42766.915057,FST,,,,,,30.31,,,,,M
2020-12-02 12:00:00,42282.917082,FST,46.0,23.0,39.96,360.0,14.0,30.3,,10.0,,39.21,CLR
2020-12-02 13:00:00,41893.922742,FST,46.9,24.1,40.44,350.0,13.0,30.27,,10.0,20.0,40.66,CLR
2020-12-02 14:00:00,41405.270199,FST,48.0,23.0,37.06,350.0,11.0,30.25,,10.0,22.0,42.69,FEW
2020-12-02 15:00:00,40859.76932,FST,46.0,23.0,39.96,360.0,14.0,30.25,,10.0,20.0,39.21,BKN
2020-12-02 16:00:00,40573.718108,FST,46.0,23.0,39.96,360.0,17.0,30.25,,10.0,,38.42,BKN
2020-12-02 17:00:00,41044.407106,FST,44.1,21.9,41.0,360.0,14.0,30.27,,10.0,,36.76,SCT
2020-12-02 18:00:00,43285.97557,FST,41.0,21.0,44.47,360.0,11.0,30.29,,10.0,,33.84,CLR
2020-12-02 19:00:00,44911.627459,FST,37.0,21.0,51.99,360.0,7.0,30.31,,10.0,,30.87,CLR
2020-12-02 20:00:00,44685.089147,FST,34.0,19.9,55.88,330.0,8.0,30.33,,10.0,,26.58,CLR
2020-12-02 21:00:00,44228.486935,FST,33.1,19.0,55.75,340.0,6.0,30.35,,10.0,,26.86,CLR
2020-12-02 22:00:00,43255.442737,FST,33.1,18.0,53.4,340.0,5.0,30.37,,10.0,,27.7,CLR
2020-12-02 23:00:00,41435.300554,FST,32.0,17.1,53.7,10.0,6.0,30.39,,10.0,,25.53,CLR
2020-12-03 00:00:00,39724.999682,FST,30.0,17.1,58.23,330.0,4.0,30.38,1028.1,10.0,,25.08,CLR
2020-12-03 01:00:00,38591.94234,FST,28.9,17.1,60.9,310.0,6.0,30.37,1027.6,10.0,,21.8,CLR
2020-12-03 02:00:00,38218.847559,FST,27.0,16.0,62.78,280.0,7.0,30.36,1027.5,10.0,,18.68,CLR
2020-12-03 03:00:00,38187.941623,FST,27.0,16.0,62.78,280.0,9.0,30.36,1027.5,10.0,,17.3,CLR
2020-12-03 04:00:00,38627.648571,FST,26.1,16.0,65.16,300.0,9.0,30.35,1027.1,10.0,,16.18,CLR
2020-12-03 05:00:00,39885.416162,FST,25.0,14.0,62.5,280.0,8.0,30.35,1027.2,10.0,,15.49,CLR
2020-12-03 06:00:00,42475.448888,FST,26.1,14.0,59.71,280.0,9.0,30.35,1027.5,10.0,,16.18,CLR
2020-12-03 07:00:00,46002.656242,FST,25.0,12.9,59.55,270.0,8.0,30.36,1028.3,10.0,,15.49,CLR
2020-12-03 08:00:00,47704.246463,FST,26.1,14.0,59.71,260.0,8.0,30.38,1028.9,10.0,,16.85,OVC
2020-12-03 09:00:00,47775.467124,FST,28.9,15.1,55.83,280.0,9.0,30.39,1029.4,10.0,,19.66,BKN
2020-12-03 10:00:00,47364.635987,FST,35.1,17.1,47.43,320.0,14.0,30.4,1029.2,10.0,20.0,25.16,CLR
2020-12-03 11:00:00,46732.143643,FST,37.0,18.0,45.73,340.0,13.0,30.4,1029.0,10.0,,27.97,CLR
2020-12-03 12:00:00,45745.091361,FST,39.0,19.0,44.14,350.0,12.0,30.4,1028.5,10.0,18.0,30.91,CLR
2020-12-03 13:00:00,44645.7867,FST,39.9,19.0,42.62,340.0,12.0,30.38,1027.0,10.0,17.0,32.06,CLR
2020-12-03 14:00:00,43740.151768,FST,42.1,19.0,39.14,350.0,14.0,30.34,1025.7,10.0,17.0,36.07,CLR
2020-12-03 15:00:00,43116.82003,FST,43.0,19.9,39.29,340.0,14.0,30.3,1024.7,10.0,17.0,38.19,CLR
2020-12-03 16:00:00,43042.968258,FST,44.1,19.9,37.67,350.0,11.0,30.27,1024.0,10.0,,39.02,CLR
2020-12-03 17:00:00,43829.986241,FST,43.0,19.9,39.29,340.0,11.0,30.26,1024.3,10.0,,36.76,CLR
2020-12-03 18:00:00,46156.543379,FST,39.9,19.0,42.62,350.0,10.0,30.27,1024.8,10.0,,35.04,CLR
2020-12-03 19:00:00,47755.585488,FST,35.1,17.1,47.43,270.0,7.0,30.28,1025.4,10.0,,28.56,CLR
2020-12-03 20:00:00,47457.237228,FST,35.1,17.1,47.43,250.0,7.0,30.29,1025.7,10.0,,28.56,CLR
2020-12-03 21:00:00,46907.214854,FST,34.0,16.0,47.25,250.0,8.0,30.29,1025.8,10.0,,26.58,CLR
2020-12-03 22:00:00,45660.591679,FST,33.1,16.0,48.98,240.0,8.0,30.3,1026.0,10.0,,25.47,CLR
2020-12-03 23:00:00,43579.604291,FST,33.1,16.0,48.98,240.0,8.0,30.31,1025.9,10.0,,25.47,CLR
2020-12-04 00:00:00,41622.970252,FST,32.0,16.0,51.2,240.0,10.0,30.31,1025.4,10.0,,24.11,CLR
2020-12-04 01:00:00,40475.578697,FST,33.1,17.1,51.37,240.0,9.0,30.28,1024.9,10.0,,24.88,CLR
2020-12-04 02:00:00,40057.28029,FST,30.9,16.0,53.53,240.0,9.0,30.28,1024.7,10.0,,22.15,CLR
2020-12-04 03:00:00,40155.56914,FST,30.9,16.0,53.53,240.0,8.0,30.28,1024.8,10.0,,22.76,CLR
2020-12-04 04:00:00,40808.150047,FST,30.0,16.0,55.52,240.0,8.0,30.27,1024.6,10.0,,21.65,CLR
2020-12-04 05:00:00,42207.403673,FST,28.9,16.0,58.06,230.0,8.0,30.26,1024.3,10.0,,20.29,CLR
2020-12-04 06:00:00,44916.432051,FST,28.0,16.0,60.25,220.0,9.0,30.26,1024.6,10.0,,18.54,CLR
2020-12-04 07:00:00,48510.653499,FST,28.9,16.0,58.06,240.0,8.0,30.27,1025.0,10.0,,20.29,CLR
2020-12-04 08:00:00,50211.218258,FST,27.0,15.1,60.37,220.0,8.0,30.29,1025.8,10.0,,17.95,CLR
2020-12-04 09:00:00,49431.884621,FST,33.1,17.1,51.37,230.0,6.0,30.31,1026.2,10.0,,26.86,CLR
2020-12-04 10:00:00,47475.084537,FST,39.0,18.0,42.28,270.0,5.0,30.32,1026.3,10.0,,34.71,CLR
2020-12-04 11:00:00,45543.055997,FST,41.0,17.1,37.63,,4.0,30.32,1026.0,10.0,,37.93,CLR
2020-12-04 12:00:00,43721.184964,FST,45.0,18.0,33.55,300.0,3.0,30.3,1025.1,10.0,,43.55,CLR
2020-12-04 13:00:00,42003.046022,FST,48.0,18.0,29.96,,5.0,30.26,1023.5,10.0,,45.4,CLR
2020-12-04 14:00:00,40624.427788,FST,50.0,18.0,27.8,,6.0,30.22,1022.3,10.0,,,CLR
2020-12-04 15:00:00,39608.347223,FST,52.0,18.0,25.82,350.0,5.0,30.2,1021.4,10.0,,,CLR
2020-12-04 16:00:00,39059.833892,FST,52.0,18.0,25.82,,,30.19,1021.0,10.0,,,CLR
2020-12-04 17:00:00,39401.151183,FST,52.0,18.0,25.82,30.0,4.0,30.19,1021.1,10.0,,,CLR
2020-12-04 18:00:00,41621.972489,FST,46.9,18.0,31.22,80.0,3.0,30.2,1021.8,10.0,,45.72,BKN
2020-12-04 19:00:00,43684.691117,FST,46.0,18.0,32.3,0.0,0.0,30.22,1022.5,10.0,,,OVC
2020-12-04 20:00:00,44025.636591,FST,46.0,19.0,33.72,100.0,3.0,30.22,1022.7,10.0,,44.69,OVC
2020-12-04 21:00:00,44202.578261,FST,43.0,18.0,36.22,130.0,3.0,30.22,1022.4,10.0,,41.26,SCT
2020-12-04 22:00:00,43989.4282,FST,42.1,17.1,36.07,0.0,0.0,30.22,1022.2,10.0,,,CLR
2020-12-04 23:00:00,42888.672207,FST,37.0,16.0,41.95,220.0,5.0,30.24,1022.9,10.0,,32.33,CLR
2020-12-05 00:00:00,41687.304427,FST,37.9,16.0,40.49,230.0,9.0,30.24,1022.8,10.0,,31.38,CLR
2020-12-05 01:00:00,40843.562328,FST,37.0,16.0,41.95,230.0,9.0,30.25,1022.9,10.0,,29.73,CLR
2020-12-05 02:00:00,40373.698028,FST,37.9,16.0,40.49,230.0,7.0,30.24,1022.6,10.0,,31.97,OVC
2020-12-05 03:00:00,40241.633064,FST,37.9,16.0,40.49,230.0,8.0,30.24,1022.4,10.0,,31.38,OVC
2020-12-05 04:00:00,40459.433861,FST,39.0,17.1,40.67,230.0,7.0,30.24,1022.3,10.0,,33.31,OVC
2020-12-05 05:00:00,41049.704412,FST,41.0,17.1,37.63,220.0,7.0,30.25,1022.5,10.0,,35.75,OVC
2020-12-05 06:00:00,42225.453422,FST,39.9,17.1,39.27,190.0,7.0,30.25,1023.0,10.0,,34.41,BKN
2020-12-05 07:00:00,43790.54915,FST,45.0,19.0,35.02,270.0,7.0,30.25,1022.6,10.0,,40.63,OVC
2020-12-05 08:00:00,45129.272701,FST,39.9,33.1,82.66,180.0,9.0,30.29,1024.6,8.0,,35.04,OVC
2020-12-05 09:00:00,45574.94707,FST,33.1,32.0,95.67,210.0,7.0,30.31,1025.7,5.0,,26.86,OVC
2020-12-05 10:00:00,45263.528335,FST,34.0,33.1,96.46,260.0,7.0,30.33,1026.4,10.0,,28.77,SCT
2020-12-05 11:00:00,44396.46537,FST,34.0,33.1,96.46,240.0,8.0,30.34,1027.0,7.0,,27.22,OVC
2020-12-05 12:00:00,43194.671182,FST,36.0,34.0,93.08,240.0,8.0,30.33,1026.4,10.0,,29.17,BKN
2020-12-05 13:00:00,41891.517931,FST,36.0,35.1,96.49,250.0,9.0,30.32,1025.5,9.0,,29.04,FEW
2020-12-05 14:00:00,40588.883627,FST,37.0,36.0,96.13,260.0,7.0,30.3,1024.8,10.0,,31.55,SCT
2020-12-05 15:00:00,39629.823645,FST,37.9,36.0,96.13,280.0,6.0,30.28,1024.4,10.0,,34.31,BKN
2020-12-05 16:00:00,39131.513664,FST,37.9,36.0,92.78,270.0,8.0,30.28,1024.5,10.0,,34.31,SCT
2020-12-05 17:00:00,39582.84868,FST,39.0,36.0,92.78,260.0,9.0,30.28,1024.2,10.0,,34.71,SCT
2020-12-05 18:00:00,41618.091884,FST,39.0,37.0,92.45,300.0,6.0,30.28,1024.2,10.0,,34.71,OVC
2020-12-05 19:00:00,42644.735752,FST,37.9,37.0,96.52,260.0,5.0,30.28,1024.0,10.0,,34.31,OVC
2020-12-05 20:00:00,42418.584679,FST,37.0,35.1,92.76,230.0,9.0,30.28,1024.7,10.0,,29.73,OVC
2020-12-05 21:00:00,41968.469677,FST,37.0,34.0,88.78,230.0,8.0,30.29,1025.2,10.0,,30.27,BKN
2020-12-05 22:00:00,41151.881914,FST,36.0,33.1,89.09,230.0,8.0,30.29,1025.1,10.0,,29.04,BKN
2020-12-05 23:00:00,39933.186553,FST,36.0,33.1,89.09,230.0,12.0,30.27,1024.7,10.0,,27.09,CLR
2020-12-06 00:00:00,38481.609012,FST,35.1,32.0,88.33,230.0,11.0,30.26,1024.2,10.0,,26.38,CLR
2020-12-06 01:00:00,37238.259067,FST,35.1,32.0,88.33,230.0,9.0,30.25,1023.9,10.0,,27.37,CLR
2020-12-06 02:00:00,36409.585226,FST,35.1,30.9,84.49,230.0,11.0,30.24,1023.3,10.0,,26.38,CLR
2020-12-06 03:00:00,36038.633718,FST,36.0,28.9,75.15,240.0,11.0,30.23,1023.1,10.0,,27.52,CLR
2020-12-06 04:00:00,35946.517831,FST,36.0,28.0,72.43,250.0,11.0,30.23,1022.9,10.0,,27.52,CLR
2020-12-06 05:00:00,36360.909018,FST,36.0,28.0,72.43,240.0,10.0,30.21,1022.3,10.0,,27.98,CLR
2020-12-06 06:00:00,37338.452563,FST,37.0,28.0,69.63,250.0,9.0,30.22,1022.5,10.0,,29.73,CLR
2020-12-06 07:00:00,38749.107585,FST,35.1,28.0,75.06,260.0,10.0,30.24,1023.3,10.0,,26.86,CLR
2020-12-06 08:00:00,40030.292115,FST,34.0,27.0,75.26,250.0,11.0,30.26,1024.0,10.0,,24.99,CLR
2020-12-06 09:00:00,40648.613446,FST,37.9,27.0,64.49,260.0,9.0,30.28,1024.5,10.0,,30.85,CLR
2020-12-06 10:00:00,40353.336292,FST,42.1,27.0,54.78,280.0,10.0,30.3,1025.2,10.0,,35.63,CLR
2020-12-06 11:00:00,39458.778813,FST,46.9,28.9,49.32,290.0,10.0,30.31,1025.0,10.0,,41.65,CLR
2020-12-06 12:00:00,38534.160943,FST,51.1,30.9,45.73,270.0,7.0,30.29,1024.4,10.0,,,CLR
2020-12-06 13:00:00,37745.287742,FST,54.0,32.0,42.98,290.0,9.0,30.26,1023.0,10.0,,,CLR
2020-12-06 14:00:00,36959.519914,FST,57.0,30.9,36.86,290.0,9.0,30.22,1021.6,10.0,,,CLR
2020-12-06 15:00:00,36346.204243,FST,57.9,28.0,31.71,300.0,7.0,30.2,1021.0,10.0,,,CLR
2020-12-06 16:00:00,36093.069325,FST,59.0,27.0,29.25,290.0,6.0,30.2,1020.7,10.0,,,CLR
2020-12-06 17:00:00,36569.473472,FST,57.9,26.1,29.32,310.0,7.0,30.2,1020.8,10.0,,,CLR
2020-12-06 18:00:00,38874.80759,FST,54.0,30.0,39.63,0.0,0.0,30.21,1021.4,10.0,,,CLR
2020-12-06 19:00:00,41232.169543,FST,50.0,28.9,43.92,0.0,0.0,30.22,1022.0,10.0,,,CLR
2020-12-06 20:00:00,41629.649095,FST,46.0,28.9,51.03,190.0,5.0,30.23,1022.5,10.0,,43.02,CLR
2020-12-06 21:00:00,41580.064725,FST,45.0,28.9,53.0,200.0,6.0,30.22,1022.1,10.0,,41.19,CLR
2020-12-06 22:00:00,40862.934597,FST,44.1,30.0,57.37,210.0,11.0,30.23,1022.4,10.0,,37.76,CLR
2020-12-06 23:00:00,39360.428195,FST,43.0,30.0,59.83,220.0,9.0,30.24,1022.3,10.0,,37.19,CLR
2020-12-07 00:00:00,37780.981656,FST,43.0,30.9,62.06,220.0,10.0,30.23,1022.0,10.0,,36.76,CLR
2020-12-07 01:00:00,36769.36037,FST,43.0,30.9,62.06,220.0,11.0,30.23,1021.7,10.0,,36.37,CLR
2020-12-07 02:00:00,36543.038902,FST,43.0,30.0,59.83,220.0,12.0,30.23,1021.6,10.0,,36.0,CLR
2020-12-07 03:00:00,36758.748628,FST,44.1,28.9,54.85,230.0,11.0,30.24,1021.8,10.0,,37.76,CLR
2020-12-07 04:00:00,37500.403647,FST,42.1,28.0,57.08,230.0,10.0,30.24,1021.9,10.0,,35.63,CLR
2020-12-07 05:00:00,39018.979871,FST,42.1,28.0,57.08,220.0,12.0,30.25,1022.3,10.0,,34.86,CLR
2020-12-07 06:00:00,41921.788461,FST,39.9,27.0,59.65,220.0,11.0,30.26,1022.9,10.0,,32.45,CLR
2020-12-07 07:00:00,45873.707575,FST,39.9,27.0,59.65,220.0,10.0,30.28,1023.7,10.0,,32.87,CLR
2020-12-07 08:00:00,47724.935315,FST,36.0,27.0,69.51,240.0,4.0,30.3,1024.7,10.0,,32.09,CLR
2020-12-07 09:00:00,46740.628003,FST,43.0,28.0,55.14,260.0,8.0,30.32,1025.4,10.0,,37.66,CLR
2020-12-07 10:00:00,44791.102295,FST,48.0,28.9,47.32,290.0,8.0,30.34,1025.7,10.0,,43.82,CLR
2020-12-07 11:00:00,42936.223686,FST,52.0,28.0,39.3,290.0,6.0,30.34,1025.6,10.0,,,CLR
2020-12-07 12:00:00,41415.244177,FST,55.0,28.0,35.21,310.0,5.0,30.33,1025.1,10.0,,,CLR
2020-12-07 13:00:00,40142.565768,FST,57.9,28.0,31.71,300.0,7.0,30.3,1023.9,10.0,,,CLR
2020-12-07 14:00:00,39263.834913,FST,60.1,27.0,28.13,330.0,5.0,30.28,1023.0,10.0,,,CLR
2020-12-07 15:00:00,38599.972945,FST,62.1,24.1,23.23,320.0,4.0,30.26,1022.5,10.0,,,CLR
2020-12-07 16:00:00,38213.53277,FST,63.0,23.0,21.49,320.0,3.0,30.26,1022.3,10.0,,,CLR
2020-12-07 17:00:00,38611.734838,FST,62.1,23.0,22.18,0.0,0.0,30.26,1022.5,10.0,,,CLR
2020-12-07 18:00:00,40625.577901,FST,55.0,30.0,38.21,0.0,0.0,30.27,1023.2,10.0,,,CLR
2020-12-07 19:00:00,42687.860283,FST,53.1,28.9,39.16,0.0,0.0,30.28,1023.7,10.0,,,CLR
2020-12-07 20:00:00,42654.417317,FST,50.0,28.9,43.92,170.0,4.0,30.29,1024.4,10.0,,,CLR
2020-12-07 21:00:00,42320.781029,FST,45.0,30.0,55.43,200.0,5.0,30.3,1024.7,10.0,,41.83,CLR
2020-12-07 22:00:00,41364.710225,FST,46.9,28.0,47.54,200.0,8.0,30.31,1024.4,10.0,,42.47,CLR
2020-12-07 23:00:00,39537.308216,FST,43.0,30.0,59.83,220.0,9.0,30.32,1024.8,10.0,,37.19,CLR
2020-12-08 00:00:00,37816.174609,,,,,,,,,,,,
2020-12-08 01:00:00,36722.501659,,,,,,,,,,,,
2020-12-08 02:00:00,36438.347409,FST,46.9,30.0,51.58,230.0,12.0,30.32,1024.2,10.0,,40.97,CLR
2020-12-08 03:00:00,36567.774557,FST,42.1,30.0,61.94,230.0,9.0,30.31,1024.2,10.0,,36.07,CLR
2020-12-08 04:00:00,37131.11099,FST,42.1,30.0,61.94,230.0,11.0,30.31,1024.2,10.0,,35.23,CLR
2020-12-08 05:00:00,38512.268047,FST,39.0,28.9,66.79,230.0,10.0,30.32,1024.6,10.0,,31.75,CLR
2020-12-08 06:00:00,41318.743531,FST,39.0,28.0,64.37,230.0,8.0,30.33,1025.4,10.0,,32.74,CLR
2020-12-08 07:00:00,45117.641232,FST,39.9,28.0,62.15,240.0,8.0,30.34,1025.8,10.0,,33.84,CLR
2020-12-08 08:00:00,46882.451451,FST,39.0,27.0,61.78,230.0,7.0,30.36,1026.6,10.0,,33.31,CLR
2020-12-08 09:00:00,45764.13328,FST,41.0,28.0,59.55,250.0,5.0,30.39,1027.7,10.0,,37.08,CLR
2020-12-08 10:00:00,43608.517957,FST,50.0,28.0,42.33,260.0,8.0,30.4,1027.6,10.0,,,CLR
2020-12-08 11:00:00,41708.9047,FST,54.0,25.0,32.26,270.0,10.0,30.4,1027.4,10.0,,,CLR
2020-12-08 12:00:00,40143.175154,FST,57.0,25.0,28.93,270.0,6.0,30.37,1026.5,10.0,,,CLR
2020-12-08 13:00:00,39170.464564,FST,62.1,25.0,24.12,270.0,8.0,30.34,1024.7,10.0,,,CLR
2020-12-08 14:00:00,38646.512274,FST,64.0,24.1,21.73,310.0,9.0,30.32,1023.2,10.0,,,CLR
2020-12-08 15:00:00,38328.759992,FST,66.0,24.1,20.26,350.0,5.0,30.29,1023.0,10.0,,,CLR
2020-12-08 16:00:00,38225.377284,FST,66.0,21.9,18.47,350.0,5.0,30.28,1022.8,10.0,,,CLR
2020-12-08 17:00:00,38453.881422,FST,66.0,23.0,19.35,350.0,5.0,30.28,1023.0,10.0,,,CLR
2020-12-08 18:00:00,39957.954725,FST,57.9,26.1,29.32,70.0,6.0,30.28,1023.5,10.0,,,CLR
2020-12-08 19:00:00,41597.22211,FST,55.0,25.0,31.11,130.0,5.0,30.29,1023.7,10.0,,,CLR
2020-12-08 20:00:00,41295.254653,FST,52.0,26.1,36.34,160.0,6.0,30.3,1024.2,10.0,,,CLR
2020-12-08 21:00:00,40782.593085,FST,48.9,26.1,40.77,180.0,8.0,30.31,1024.8,10.0,,44.93,CLR
2020-12-08 22:00:00,39685.703444,FST,46.0,28.9,51.03,220.0,11.0,30.31,1024.2,10.0,,40.16,CLR
2020-12-08 23:00:00,38031.086921,FST,46.9,28.9,49.32,220.0,11.0,30.31,1024.2,10.0,,41.65,CLR
2020-12-09 00:00:00,36288.755138,FST,46.9,28.9,49.32,220.0,12.0,30.31,1023.5,10.0,,40.97,CLR
2020-12-09 01:00:00,35379.427526,FST,46.0,28.0,49.18,220.0,13.0,30.29,1022.8,10.0,,39.82,CLR
2020-12-09 02:00:00,35087.887881,FST,46.9,26.1,43.95,220.0,14.0,30.28,1022.2,10.0,,40.66,CLR
2020-12-09 03:00:00,35324.298908,FST,48.0,25.0,40.29,220.0,14.0,30.27,1022.0,10.0,,42.07,CLR
2020-12-09 04:00:00,35958.900006,FST,46.0,24.1,41.84,220.0,14.0,30.26,1021.7,10.0,,39.5,CLR
2020-12-09 05:00:00,37335.628537,FST,48.0,23.0,37.06,220.0,14.0,30.25,1021.4,10.0,,41.79,CLR
2020-12-09 06:00:00,40114.198918,FST,43.0,24.1,46.91,220.0,13.0,30.24,1021.5,10.0,,36.37,CLR
2020-12-09 07:00:00,43819.743881,FST,44.1,25.0,46.7,220.0,13.0,30.24,1021.9,10.0,,37.4,CLR
2020-12-09 08:00:00,45611.389495,FST,46.0,24.1,41.84,220.0,12.0,30.25,1022.2,10.0,,39.82,CLR
2020-12-09 09:00:00,44678.369937,FST,51.1,25.0,35.89,220.0,11.0,30.25,1022.4,10.0,,,CLR
2020-12-09 10:00:00,42620.537631,FST,59.0,27.0,29.25,230.0,13.0,30.26,1022.3,10.0,,,CLR
2020-12-09 11:00:00,40852.153044,FST,64.9,27.0,23.75,230.0,11.0,30.26,1021.8,10.0,,,CLR
2020-12-09 12:00:00,39648.28768,FST,68.0,26.1,20.55,290.0,8.0,30.25,1020.8,10.0,,,CLR
2020-12-09 13:00:00,39003.638,FST,71.1,28.0,19.99,330.0,5.0,30.22,1018.9,10.0,,,CLR
2020-12-09 14:00:00,38763.764465,FST,73.0,28.9,19.45,140.0,4.0,30.17,1017.2,10.0,,,CLR
2020-12-09 15:00:00,38678.699647,FST,73.9,26.1,16.81,310.0,5.0,30.13,1016.1,10.0,,,CLR
2020-12-09 16:00:00,38827.646755,FST,73.9,25.0,16.06,250.0,4.0,30.1,1015.6,10.0,,,CLR
2020-12-09 17:00:00,38986.011858,FST,73.9,27.0,17.45,360.0,2.0,30.08,1014.9,10.0,,,CLR
2020-12-09 18:00:00,40043.086517,FST,66.9,30.0,25.05,360.0,4.0,30.07,1015.6,10.0,,,CLR
2020-12-09 19:00:00,41446.202552,FST,64.0,28.9,26.5,110.0,5.0,30.08,1015.9,10.0,,,CLR
2020-12-09 20:00:00,41032.229166,FST,57.0,30.0,35.54,170.0,7.0,30.08,1016.3,10.0,,,CLR
2020-12-09 21:00:00,40357.947451,FST,55.0,28.9,36.54,190.0,7.0,30.08,1015.9,10.0,,,CLR
2020-12-09 22:00:00,39121.032235,FST,54.0,30.9,41.11,220.0,14.0,30.07,1015.4,10.0,,,CLR
2020-12-09 23:00:00,37257.590834,FST,55.0,30.0,38.21,220.0,11.0,30.07,1014.9,10.0,,,CLR
2020-12-10 00:00:00,35341.151978,FST,54.0,30.0,39.63,220.0,12.0,30.06,1014.4,10.0,,,CLR
2020-12-10 01:00:00,34020.234209,FST,54.0,30.0,39.63,220.0,13.0,30.05,1013.4,10.0,,,CLR
2020-12-10 02:00:00,33491.809442,FST,54.0,28.9,37.89,220.0,14.0,30.03,1012.9,10.0,,,CLR
2020-12-10 03:00:00,33473.502612,FST,54.0,30.0,39.63,220.0,14.0,30.02,1012.6,10.0,,,CLR
2020-12-10 04:00:00,33887.920431,FST,54.0,28.9,37.89,220.0,14.0,30.0,1012.0,10.0,,,CLR
2020-12-10 05:00:00,35030.190533,FST,55.0,30.0,38.21,230.0,15.0,29.99,1011.1,10.0,,,CLR
2020-12-10 06:00:00,37418.291165,FST,54.0,30.0,39.63,220.0,14.0,29.96,1011.3,10.0,,,CLR
2020-12-10 07:00:00,41019.947753,FST,54.0,30.0,39.63,220.0,13.0,29.97,1011.8,10.0,,,CLR
2020-12-10 08:00:00,42716.943269,FST,55.0,30.0,38.21,230.0,11.0,29.97,1012.2,10.0,,,CLR
2020-12-10 09:00:00,42255.454844,FST,57.0,33.1,40.28,220.0,9.0,29.98,1012.1,10.0,,,BKN
2020-12-10 10:00:00,40991.608458,FST,63.0,33.1,32.53,170.0,5.0,29.98,1012.2,10.0,,,CLR
2020-12-10 11:00:00,39971.47126,FST,71.1,35.1,26.63,150.0,2.0,29.98,1011.5,10.0,,,CLR
2020-12-10 12:00:00,39418.314183,FST,78.1,30.0,17.16,200.0,19.0,29.97,1009.7,10.0,25.0,,CLR
2020-12-10 13:00:00,39181.301987,FST,80.1,33.1,18.21,210.0,19.0,29.93,1008.2,10.0,24.0,78.67,CLR
2020-12-10 14:00:00,39301.187192,FST,81.0,37.9,21.39,220.0,22.0,29.88,1006.7,10.0,25.0,79.28,CLR
2020-12-10 15:00:00,39430.680036,FST,80.1,39.9,23.82,220.0,22.0,29.84,1006.2,10.0,26.0,78.93,CLR
2020-12-10 16:00:00,39381.109812,FST,80.1,42.1,25.94,240.0,19.0,29.83,1006.0,10.0,21.0,78.99,CLR
2020-12-10 17:00:00,39439.974816,FST,78.1,43.0,28.68,240.0,18.0,29.83,1006.1,10.0,22.0,,FEW
2020-12-10 18:00:00,40485.855423,FST,72.0,35.1,25.83,320.0,14.0,29.86,1007.5,10.0,,,BKN
2020-12-10 19:00:00,41767.501117,FST,68.0,37.0,31.92,320.0,10.0,29.88,1008.6,10.0,,,BKN
2020-12-10 20:00:00,41180.373956,FST,64.9,43.0,44.88,330.0,8.0,29.92,1009.8,10.0,,,FEW
2020-12-10 21:00:00,40309.622062,FST,59.0,50.0,72.01,310.0,15.0,29.96,1011.4,9.0,19.0,,FEW
2020-12-10 22:00:00,38876.995691,FST,55.9,51.1,83.88,330.0,4.0,29.96,1011.4,10.0,,,BKN
2020-12-10 23:00:00,36758.447144,FST,55.9,52.0,86.71,0.0,0.0,29.98,1011.5,9.0,,,SCT
2020-12-11 00:00:00,34525.963738,FST,55.0,52.0,89.59,120.0,5.0,29.97,1010.4,10.0,,,SCT
2020-12-11 01:00:00,32757.928921,FST,53.1,51.1,92.89,180.0,5.0,29.95,1010.0,10.0,,,SCT
2020-12-11 02:00:00,31676.28157,FST,53.1,51.1,92.89,200.0,6.0,29.95,1010.0,10.0,,,SCT
2020-12-11 03:00:00,31096.512117,FST,52.0,50.0,92.86,220.0,8.0,29.94,1009.2,10.0,,,BKN
2020-12-11 04:00:00,30908.93491,FST,,,,230.0,5.0,29.92,,10.0,,,CLR
2020-12-11 05:00:00,31311.640057,FST,52.0,48.9,89.13,230.0,9.0,29.93,1009.8,10.0,,,CLR
2020-12-11 06:00:00,32903.972238,FST,53.1,48.0,82.76,230.0,10.0,29.94,1010.3,10.0,,,CLR
2020-12-11 07:00:00,35482.217971,FST,51.1,45.0,79.54,250.0,11.0,29.95,1010.8,10.0,,,CLR
2020-12-11 08:00:00,37057.379285,FST,52.0,44.1,74.35,250.0,12.0,29.96,1011.4,10.0,,,FEW
2020-12-11 09:00:00,37971.26632,FST,53.1,44.1,71.4,270.0,13.0,29.98,1012.5,10.0,,,FEW
2020-12-11 10:00:00,38917.74433,FST,57.0,43.0,59.4,260.0,13.0,30.0,1013.0,10.0,,,CLR
2020-12-11 11:00:00,39557.069311,FST,61.0,37.9,42.24,280.0,23.0,30.01,1012.9,10.0,29.0,,CLR
2020-12-11 12:00:00,39912.649021,FST,63.0,39.0,41.09,290.0,22.0,30.01,1012.3,10.0,29.0,,CLR
2020-12-11 13:00:00,39932.665719,FST,64.0,37.9,38.0,290.0,17.0,29.98,1010.7,10.0,22.0,,CLR
2020-12-11 14:00:00,39912.961604,FST,66.0,37.9,35.44,300.0,16.0,29.94,1009.5,10.0,18.0,,CLR
2020-12-11 15:00:00,39737.420737,FST,66.0,36.0,32.88,290.0,14.0,29.91,1009.0,10.0,21.0,,CLR
2020-12-11 16:00:00,39569.519515,FST,66.9,35.1,30.75,290.0,11.0,29.9,1009.2,10.0,16.0,,CLR
2020-12-11 17:00:00,39623.257087,FST,66.0,33.1,29.29,280.0,13.0,29.9,1009.3,10.0,,,CLR
2020-12-11 18:00:00,40527.54232,FST,61.0,32.0,33.4,280.0,11.0,29.9,1009.7,10.0,,,CLR
2020-12-11 19:00:00,41246.50453,FST,57.9,32.0,37.31,320.0,11.0,29.93,1010.9,10.0,,,CLR
2020-12-11 20:00:00,40519.442026,FST,55.0,33.1,43.31,300.0,9.0,29.96,1011.9,10.0,,,CLR
2020-12-11 21:00:00,39869.96748,FST,51.1,32.0,47.81,290.0,11.0,29.99,1013.0,10.0,,,CLR
2020-12-11 22:00:00,38999.897808,FST,48.0,34.0,58.16,290.0,9.0,30.01,1013.8,10.0,,43.41,CLR
2020-12-11 23:00:00,37588.667293,FST,48.0,33.1,56.1,220.0,9.0,30.03,1014.3,10.0,,43.41,CLR
2020-12-12 00:00:00,35855.291703,FST,48.9,30.9,49.63,250.0,10.0,30.05,1014.9,10.0,,44.53,CLR
2020-12-12 01:00:00,34259.044991,FST,51.1,30.0,44.09,260.0,10.0,30.06,1014.7,10.0,,,CLR
2020-12-12 02:00:00,33303.398494,FST,46.9,30.0,51.58,250.0,11.0,30.05,1014.5,10.0,,41.65,CLR
2020-12-12 03:00:00,32809.76741,FST,44.1,30.0,57.37,220.0,10.0,30.04,1014.2,10.0,,38.14,CLR
2020-12-12 04:00:00,32809.630414,FST,42.1,28.9,59.22,230.0,10.0,30.03,1013.9,10.0,,36.07,CLR
2020-12-12 05:00:00,33209.250757,FST,41.0,28.9,61.79,250.0,9.0,30.04,1014.4,10.0,,38.98,CLR
2020-12-12 06:00:00,34302.382578,FST,39.9,28.9,64.49,250.0,7.0,30.04,1015.0,10.0,,36.65,CLR
2020-12-12 07:00:00,35985.245356,FST,39.9,28.0,62.15,200.0,8.0,30.06,1015.7,10.0,,33.84,CLR
2020-12-12 08:00:00,37589.871234,FST,42.1,28.0,57.08,210.0,7.0,30.07,1016.1,10.0,,37.69,CLR
2020-12-12 09:00:00,38818.016493,FST,42.1,30.0,61.94,210.0,5.0,30.08,1016.3,10.0,,38.39,CLR
2020-12-12 10:00:00,39375.153346,FST,50.0,30.0,45.93,170.0,7.0,30.08,1016.6,10.0,,,CLR
2020-12-12 11:00:00,39409.442057,FST,52.0,30.9,44.24,20.0,5.0,30.07,1016.2,10.0,,,CLR
2020-12-12 12:00:00,38958.361677,FST,57.0,28.9,33.98,90.0,8.0,30.02,1014.1,10.0,,,CLR
2020-12-12 13:00:00,38347.282565,FST,62.1,30.0,29.63,90.0,7.0,29.97,1011.9,10.0,,,CLR
2020-12-12 14:00:00,37644.312843,FST,64.9,28.9,25.68,120.0,8.0,29.92,1010.2,10.0,,,CLR
2020-12-12 15:00:00,37100.362978,FST,69.1,19.9,15.25,240.0,6.0,29.88,1008.8,10.0,17.0,,CLR
2020-12-12 16:00:00,36867.689937,FST,70.0,21.9,16.1,,5.0,29.85,1008.0,10.0,,,CLR
2020-12-12 17:00:00,37126.390564,FST,69.1,17.1,13.52,180.0,13.0,29.83,1007.3,10.0,,,CLR
2020-12-12 18:00:00,39007.961108,FST,64.0,16.0,15.39,160.0,8.0,29.83,1007.6,10.0,,,CLR
2020-12-12 19:00:00,40777.384846,FST,60.1,25.0,25.89,160.0,13.0,29.83,1007.9,10.0,,,CLR
2020-12-12 20:00:00,40941.184402,FST,55.9,26.1,31.51,150.0,11.0,29.85,1008.7,10.0,,,CLR
2020-12-12 21:00:00,40851.804958,FST,55.0,28.0,35.21,150.0,13.0,29.85,1008.4,10.0,,,CLR
2020-12-12 22:00:00,40301.108837,FST,52.0,28.0,39.3,150.0,12.0,29.84,1007.9,10.0,,,CLR
2020-12-12 23:00:00,39178.462349,FST,52.0,30.0,42.65,160.0,12.0,29.83,1007.4,10.0,,,CLR
2020-12-13 00:00:00,37745.784498,FST,52.0,30.9,44.24,170.0,12.0,29.82,1006.8,10.0,,,CLR
2020-12-13 01:00:00,36334.557554,FST,52.0,30.9,44.24,170.0,10.0,29.81,1006.3,10.0,,,CLR
2020-12-13 02:00:00,35312.929017,FST,46.9,30.0,51.58,210.0,6.0,29.82,1006.7,10.0,,43.48,CLR
2020-12-13 03:00:00,34641.592902,FST,46.9,30.0,51.58,250.0,9.0,29.83,1007.1,10.0,,42.04,CLR
2020-12-13 04:00:00,34262.364019,FST,44.1,28.9,54.85,300.0,8.0,29.86,1008.1,10.0,,39.02,CLR
2020-12-13 05:00:00,34251.742973,FST,48.0,28.0,45.61,250.0,8.0,29.88,1008.6,10.0,,43.82,CLR
2020-12-13 06:00:00,34771.335064,FST,48.9,27.0,42.32,310.0,8.0,29.93,1010.6,10.0,,44.93,CLR
2020-12-13 07:00:00,35667.295112,FST,46.0,25.0,43.44,350.0,10.0,29.99,1013.1,10.0,,40.52,CLR
2020-12-13 08:00:00,36778.114613,FST,45.0,24.1,43.46,310.0,11.0,30.04,1015.0,10.0,,38.89,CLR
2020-12-13 09:00:00,38449.457557,FST,46.9,23.0,38.62,310.0,16.0,30.11,1017.2,10.0,21.0,39.84,BKN
2020-12-13 10:00:00,40467.379392,FST,50.0,12.0,21.4,290.0,21.0,30.15,1018.8,8.0,28.0,,CLR
2020-12-13 11:00:00,41841.67937,FST,48.9,6.1,17.11,300.0,21.0,30.19,1020.3,10.0,28.0,41.39,FEW
2020-12-13 12:00:00,42678.950537,FST,48.9,17.1,27.86,310.0,25.0,30.21,1020.7,8.0,38.0,40.69,BKN
2020-12-13 13:00:00,43049.255424,FST,46.9,23.0,38.62,320.0,32.0,30.22,1021.2,4.0,40.0,36.9,BKN
2020-12-13 14:00:00,42935.203471,FST,46.9,25.0,41.99,330.0,29.0,30.24,1022.1,4.0,34.0,37.34,BKN
2020-12-13 15:00:00,42865.06667,FST,45.0,25.0,45.12,320.0,23.0,30.27,1023.3,9.0,33.0,35.79,OVC
2020-12-13 16:00:00,42931.196602,FST,44.1,23.0,42.95,340.0,17.0,30.31,1024.8,10.0,,35.93,OVC
2020-12-13 17:00:00,43368.312098,FST,43.0,23.0,44.8,320.0,17.0,30.33,1025.6,10.0,,34.49,SCT
2020-12-13 18:00:00,45366.185409,FST,42.1,24.1,48.56,330.0,9.0,30.37,1026.9,10.0,18.0,36.07,BKN
2020-12-13 19:00:00,47043.668815,FST,37.0,23.0,56.57,300.0,6.0,30.39,1027.8,10.0,,31.55,CLR
2020-12-13 20:00:00,47122.197959,FST,35.1,23.0,60.99,320.0,4.0,30.39,1028.1,10.0,,31.04,CLR
2020-12-13 21:00:00,47055.937336,FST,34.0,23.0,63.72,300.0,4.0,30.4,1028.4,10.0,,29.76,CLR
2020-12-13 22:00:00,46091.346168,FST,35.1,23.0,60.99,330.0,3.0,30.4,1028.3,10.0,,32.23,CLR
2020-12-13 23:00:00,44203.521845,FST,34.0,23.0,63.72,330.0,4.0,30.41,1028.5,10.0,,29.76,CLR
2020-12-14 00:00:00,42344.413022,FST,34.0,23.0,63.72,50.0,3.0,30.4,1028.1,10.0,,30.97,CLR
2020-12-14 01:00:00,41054.340181,,,,,,,,,,,,
2020-12-14 02:00:00,40461.768352,,,,,,,,,,,,
2020-12-14 03:00:00,40369.067598,FST,28.0,21.9,77.57,180.0,5.0,30.33,1026.6,10.0,,21.64,CLR
2020-12-14 04:00:00,40796.087781,FST,27.0,21.9,80.83,190.0,7.0,30.3,1025.6,10.0,,18.68,CLR
2020-12-14 05:00:00,42124.173866,FST,28.0,21.9,77.57,200.0,8.0,30.29,1025.3,10.0,,19.19,CLR
2020-12-14 06:00:00,44879.851772,FST,26.1,21.0,80.75,200.0,7.0,30.27,1024.9,10.0,,17.59,CLR
2020-12-14 07:00:00,48812.162835,FST,26.1,21.0,80.75,150.0,6.0,30.24,1024.1,10.0,,18.42,CLR
2020-12-14 08:00:00,51186.267114,FST,24.1,19.9,83.75,170.0,9.0,30.25,1024.7,10.0,,13.69,CLR
2020-12-14 09:00:00,51103.477836,FST,28.9,21.9,74.76,170.0,5.0,30.26,1024.7,10.0,,22.71,CLR
2020-12-14 10:00:00,49964.029201,FST,37.9,25.0,59.36,180.0,4.0,30.25,1023.8,10.0,,34.31,CLR
2020-12-14 11:00:00,48580.087575,FST,42.1,26.1,52.78,120.0,6.0,30.22,1022.5,10.0,,37.69,CLR
2020-12-14 12:00:00,47013.562595,FST,48.9,21.9,34.2,160.0,13.0,30.16,1020.1,10.0,,43.22,CLR
2020-12-14 13:00:00,45353.049651,FST,52.0,21.9,30.49,150.0,10.0,30.09,1017.5,10.0,19.0,,CLR
2020-12-14 14:00:00,43786.479054,FST,55.9,19.0,23.37,190.0,14.0,30.03,1015.3,10.0,20.0,,CLR
2020-12-14 15:00:00,42553.901362,FST,57.0,18.0,21.51,180.0,12.0,29.97,1013.3,10.0,,,CLR
2020-12-14 16:00:00,41962.603171,FST,59.0,17.1,19.26,160.0,16.0,29.92,1011.7,10.0,20.0,,CLR
2020-12-14 17:00:00,42647.514746,FST,57.0,17.1,20.69,170.0,12.0,29.91,1011.2,10.0,,,CLR
2020-12-14 18:00:00,45584.977593,FST,53.1,17.1,23.85,160.0,9.0,29.91,1011.4,10.0,,,CLR
2020-12-14 19:00:00,48507.881676,FST,46.9,21.9,36.87,150.0,16.0,29.9,1011.7,10.0,23.0,39.84,CLR
2020-12-14 20:00:00,49057.924853,FST,45.0,21.9,39.62,150.0,20.0,29.89,1011.3,10.0,26.0,36.41,CLR
2020-12-14 21:00:00,49052.232711,FST,44.1,21.0,39.47,160.0,18.0,29.88,1010.8,10.0,27.0,35.68,CLR
2020-12-14 22:00:00,48024.003472,FST,42.1,21.0,42.62,160.0,15.0,29.87,1010.3,10.0,24.0,33.87,CLR
2020-12-14 23:00:00,45899.856652,FST,42.1,21.9,44.27,160.0,17.0,29.86,1009.6,10.0,25.0,33.31,CLR
2020-12-15 00:00:00,43882.070845,FST,39.9,23.0,50.5,160.0,16.0,29.85,1009.0,10.0,23.0,30.72,CLR
2020-12-15 01:00:00,42456.172924,FST,39.0,23.0,52.3,150.0,14.0,29.82,1008.0,10.0,21.0,30.19,CLR
2020-12-15 02:00:00,41707.392848,FST,39.0,23.0,52.3,150.0,11.0,29.81,1007.2,10.0,,31.31,CLR
2020-12-15 03:00:00,41442.038845,FST,37.0,24.1,59.24,160.0,9.0,29.8,1007.2,10.0,,29.73,CLR
2020-12-15 04:00:00,41626.396946,FST,35.1,23.0,60.99,,3.0,29.83,1008.1,10.0,,32.23,CLR
2020-12-15 05:00:00,42517.494337,FST,34.0,21.0,58.56,270.0,5.0,29.86,1009.1,10.0,,28.77,CLR
2020-12-15 06:00:00,44472.42059,FST,37.9,19.9,47.89,240.0,9.0,29.88,1010.0,10.0,,30.85,CLR
2020-12-15 07:00:00,47593.513751,FST,41.0,19.9,42.44,220.0,8.0,29.89,1010.5,10.0,,35.2,OVC
2020-12-15 08:00:00,48999.569402,FST,37.9,21.0,50.18,220.0,9.0,29.92,1011.6,10.0,,30.85,CLR
2020-12-15 09:00:00,49194.022527,FST,46.9,21.9,36.87,240.0,8.0,29.96,1012.7,10.0,,42.47,CLR
2020-12-15 10:00:00,49037.624778,FST,51.1,19.0,27.86,270.0,19.0,29.97,1013.1,10.0,25.0,,CLR
2020-12-15 11:00:00,48812.502409,FST,53.1,19.0,25.88,300.0,23.0,29.99,1013.4,10.0,29.0,,CLR
2020-12-15 12:00:00,48133.567044,FST,53.1,19.9,26.89,310.0,21.0,30.01,1014.1,10.0,27.0,,CLR
2020-12-15 13:00:00,47074.058743,FST,54.0,19.0,25.04,340.0,20.0,30.0,1013.5,10.0,25.0,,CLR
2020-12-15 14:00:00,46283.671511,FST,54.0,19.0,25.04,340.0,19.0,29.98,1013.0,10.0,24.0,,CLR
2020-12-15 15:00:00,45592.66614,FST,53.1,19.9,26.89,350.0,20.0,29.98,1013.4,10.0,24.0,,CLR
2020-12-15 16:00:00,45366.067576,FST,53.1,19.9,26.89,350.0,17.0,30.0,1014.2,10.0,22.0,,CLR
2020-12-15 17:00:00,45672.089166,FST,50.0,21.0,31.6,10.0,14.0,30.03,1015.5,10.0,,,CLR
2020-12-15 18:00:00,47464.796465,FST,46.0,21.0,36.72,10.0,10.0,30.06,1016.6,10.0,,40.52,CLR
2020-12-15 19:00:00,48900.789034,FST,41.0,19.9,42.44,10.0,6.0,30.09,1017.7,10.0,,36.37,CLR
2020-12-15 20:00:00,48538.728717,FST,39.9,19.0,42.62,10.0,5.0,30.12,1018.9,10.0,,35.78,CLR
2020-12-15 21:00:00,47683.114888,FST,37.9,18.0,44.14,0.0,0.0,30.15,1019.6,10.0,,,CLR
2020-12-15 22:00:00,46188.209864,FST,37.9,17.1,42.46,330.0,3.0,30.17,1020.0,10.0,,35.43,CLR
2020-12-15 23:00:00,43911.88423,FST,37.9,17.1,42.46,50.0,4.0,30.18,1020.3,10.0,,34.31,CLR
2020-12-16 00:00:00,41901.971622,FST,35.1,17.1,47.43,50.0,4.0,30.19,1020.9,10.0,,,CLR
2020-12-16 01:00:00,40726.404434,FST,30.9,17.1,56.14,190.0,5.0,30.19,1020.4,10.0,,26.14,CLR
2020-12-16 02:00:00,40259.149244,FST,30.0,17.1,58.23,210.0,5.0,30.18,1020.0,10.0,,24.02,CLR
2020-12-16 03:00:00,40405.094095,FST,28.9,17.1,60.9,230.0,8.0,30.16,1020.2,10.0,,21.0,CLR
2020-12-16 04:00:00,41073.549098,FST,28.0,17.1,63.19,220.0,9.0,30.16,1019.9,,,19.9,CLR
2020-12-16 05:00:00,42567.177021,FST,28.0,17.1,63.19,210.0,8.0,30.15,1019.6,,,19.9,CLR
2020-12-16 06:00:00,45515.709356,FST,27.0,16.0,62.78,220.0,11.0,30.14,1019.8,,,16.15,CLR
2020-12-16 07:00:00,49481.89623,FST,28.0,17.1,63.19,220.0,10.0,30.15,1020.4,,,18.54,CLR
2020-12-16 08:00:00,51766.635138,FST,28.0,16.0,60.25,160.0,5.0,30.16,1020.9,,,21.64,CLR
2020-12-16 09:00:00,51573.805122,FST,35.1,18.0,49.31,220.0,9.0,30.17,1021.0,,,27.37,CLR
2020-12-16 10:00:00,50736.161466,FST,43.0,19.9,39.29,230.0,8.0,30.16,1020.2,,,37.66,CLR
2020-12-16 11:00:00,49659.169921,FST,50.0,19.0,29.02,240.0,7.0,30.14,1019.3,,,,CLR
2020-12-16 12:00:00,48107.036261,FST,53.1,18.0,24.79,280.0,6.0,30.13,1018.7,,,,CLR
2020-12-16 13:00:00,46310.379813,FST,55.9,15.1,19.74,,6.0,30.09,1017.4,,,,CLR
2020-12-16 14:00:00,44499.267333,FST,57.0,15.1,18.97,320.0,6.0,30.05,1016.1,,,,CLR
2020-12-16 15:00:00,43041.480334,FST,59.0,14.0,16.83,280.0,7.0,30.04,1015.6,,,,CLR
2020-12-16 16:00:00,42373.821618,FST,60.1,12.0,14.82,320.0,10.0,30.04,1015.5,,,,CLR
2020-12-16 17:00:00,42924.949124,FST,59.0,10.9,14.68,320.0,10.0,30.04,1015.7,,,,CLR
2020-12-16 18:00:00,45927.716072,FST,54.0,12.9,19.21,320.0,8.0,30.06,1016.6,,,,CLR
2020-12-16 19:00:00,48981.430231,FST,50.0,12.9,22.27,340.0,5.0,30.08,1017.4,,,,CLR
2020-12-16 20:00:00,49649.586706,FST,46.0,14.0,27.15,210.0,5.0,30.08,1018.0,,,43.77,CLR
2020-12-16 21:00:00,49934.396772,FST,46.9,12.9,25.01,300.0,7.0,30.11,1018.3,,,43.48,CLR
2020-12-16 22:00:00,49346.540994,FST,42.1,12.9,30.03,290.0,8.0,30.13,1018.8,,,36.55,CLR
2020-12-16 23:00:00,47657.856817,FST,43.0,12.0,27.87,290.0,5.0,30.15,1019.1,,,39.46,CLR
2020-12-17 00:00:00,46073.419051,FST,41.0,12.9,31.33,290.0,5.0,30.15,1019.3,,,37.93,CLR
2020-12-17 01:00:00,45145.980205,FST,37.0,14.0,38.44,210.0,5.0,30.16,1019.3,,,32.33,CLR
2020-12-17 02:00:00,44907.625531,FST,34.0,15.1,45.43,210.0,9.0,30.15,1019.4,,,26.0,CLR
2020-12-17 03:00:00,45219.22544,FST,36.0,12.9,38.1,180.0,7.0,30.16,1019.2,,,29.65,CLR
2020-12-17 04:00:00,46025.472311,FST,35.1,12.9,39.49,170.0,7.0,30.16,1019.4,,,28.56,CLR
2020-12-17 05:00:00,47586.866244,FST,33.1,12.9,42.77,210.0,7.0,30.18,1020.2,,,26.12,CLR
2020-12-17 06:00:00,50361.170646,FST,34.0,14.0,43.3,210.0,12.0,30.19,1020.8,,,24.55,CLR
2020-12-17 07:00:00,54166.397505,FST,35.1,14.0,41.44,220.0,9.0,30.21,1021.7,,,27.37,CLR
2020-12-17 08:00:00,55904.442684,FST,33.1,14.0,44.89,240.0,6.0,30.22,1022.2,,,26.86,CLR
2020-12-17 09:00:00,54409.676497,FST,39.0,12.9,33.86,250.0,7.0,30.24,1022.7,,,33.31,CLR
2020-12-17 10:00:00,51376.077915,FST,44.1,14.0,29.19,220.0,7.0,30.26,1023.4,,,39.53,CLR
2020-12-17 11:00:00,48323.381349,FST,48.0,15.1,26.42,270.0,8.0,30.26,1023.0,,,43.82,CLR
2020-12-17 12:00:00,45564.25075,FST,50.0,16.0,25.5,270.0,7.0,30.22,1021.7,,,,CLR
2020-12-17 13:00:00,43304.979264,FST,53.1,16.0,22.74,210.0,5.0,30.18,1020.3,,,,CLR
2020-12-17 14:00:00,41773.738675,FST,57.0,16.0,19.73,350.0,3.0,30.17,1018.7,,,,CLR
2020-12-17 15:00:00,40594.513149,FST,61.0,15.1,16.44,100.0,9.0,30.13,1017.1,,,,CLR
2020-12-17 16:00:00,39950.747453,FST,64.0,15.1,14.79,360.0,8.0,30.1,1016.2,,,,FEW
2020-12-17 17:00:00,40230.504033,FST,64.0,14.0,14.1,180.0,8.0,30.08,1016.1,,,,CLR
2020-12-17 18:00:00,42496.414016,FST,55.9,16.0,20.53,150.0,6.0,30.07,1016.5,,,,CLR
2020-12-17 19:00:00,45156.659992,FST,53.1,14.0,20.84,150.0,11.0,30.07,1016.8,,,,CLR
2020-12-17 20:00:00,45936.673543,FST,48.9,16.0,26.57,160.0,15.0,30.08,1017.3,,21.0,42.69,CLR
2020-12-17 21:00:00,46121.559272,FST,48.0,19.0,31.27,150.0,15.0,30.08,1017.0,,22.0,41.52,CLR
2020-12-17 22:00:00,45562.545308,FST,46.0,21.9,38.15,150.0,13.0,30.07,1016.7,,,39.5,CLR
2020-12-17 23:00:00,43844.103222,FST,45.0,25.0,45.12,160.0,14.0,30.06,1016.0,,,37.92,CLR
2020-12-18 00:00:00,42298.904149,FST,44.1,26.1,48.88,160.0,16.0,30.06,1015.7,,,37.76,CLR
2020-12-18 01:00:00,41153.871637,FST,43.0,26.1,50.98,160.0,14.0,30.04,1014.8,,,35.34,CLR
2020-12-18 02:00:00,40778.6679,FST,44.1,25.0,46.7,170.0,19.0,30.03,1013.6,,,35.68,CLR
2020-12-18 03:00:00,40710.904727,FST,44.1,24.1,44.98,160.0,18.0,30.0,1013.1,,,37.4,CLR
2020-12-18 04:00:00,41025.267403,FST,43.0,24.1,46.91,150.0,11.0,29.99,1012.9,,,36.76,CLR
2020-12-18 05:00:00,42281.456694,FST,41.0,24.1,50.67,140.0,11.0,29.99,1012.9,,,35.75,CLR
2020-12-18 06:00:00,44648.981323,FST,39.9,25.0,54.9,130.0,8.0,29.99,1013.4,,,35.04,CLR
2020-12-18 07:00:00,47793.349513,FST,36.0,24.1,61.62,150.0,8.0,30.0,1014.1,,,31.15,CLR
2020-12-18 08:00:00,49378.933196,FST,37.0,23.0,56.57,0.0,0.0,30.01,1014.6,,,,CLR
2020-12-18 09:00:00,48729.201576,FST,44.1,24.1,44.98,150.0,5.0,30.02,1014.7,,,40.77,CLR
2020-12-18 10:00:00,47108.34566,FST,51.1,24.1,34.57,140.0,4.0,30.03,1014.9,,,,CLR
2020-12-18 11:00:00,45330.06669,FST,57.0,27.0,31.43,80.0,5.0,30.04,1015.0,,,,CLR
2020-12-18 12:00:00,43754.440455,FST,61.0,27.0,28.18,100.0,4.0,30.04,1014.4,,,,FEW
2020-12-18 13:00:00,42427.044742,FST,68.0,24.1,18.91,310.0,6.0,30.03,1013.1,,,,CLR
2020-12-18 14:00:00,41579.954931,FST,68.0,27.0,21.33,10.0,4.0,29.98,1012.3,10.0,,,CLR
2020-12-18 15:00:00,40881.057986,FST,66.0,28.9,24.71,50.0,7.0,29.98,1012.5,10.0,,,CLR
2020-12-18 16:00:00,40496.335985,FST,64.9,28.9,25.68,40.0,8.0,29.99,1013.0,10.0,,,CLR
2020-12-18 17:00:00,40514.431184,FST,63.0,30.9,29.77,60.0,6.0,30.0,1013.5,10.0,,,CLR
2020-12-18 18:00:00,41946.599084,FST,57.9,30.9,35.69,100.0,5.0,30.01,1014.1,10.0,,,CLR
2020-12-18 19:00:00,42553.402153,FST,55.9,30.0,36.98,130.0,6.0,30.03,1015.1,10.0,,,CLR
2020-12-18 20:00:00,41826.472113,FST,53.1,30.0,40.96,130.0,4.0,30.04,1015.5,10.0,,,CLR
2020-12-18 21:00:00,40989.847562,FST,51.1,30.0,44.09,170.0,3.0,30.07,1016.1,10.0,,,CLR
2020-12-18 22:00:00,39805.668129,FST,48.9,28.9,45.75,160.0,9.0,30.08,1016.6,10.0,,44.53,CLR
2020-12-18 23:00:00,38142.625364,FST,48.9,28.9,45.75,220.0,3.0,30.1,1016.8,10.0,,48.01,CLR
2020-12-19 00:00:00,36244.040832,FST,48.0,30.0,49.49,220.0,8.0,30.11,1017.0,10.0,,43.82,CLR
2020-12-19 01:00:00,34569.888473,FST,50.0,28.9,43.92,210.0,9.0,30.11,1016.8,10.0,,,CLR
2020-12-19 02:00:00,33503.814593,FST,50.0,26.1,39.14,260.0,8.0,30.13,1017.3,10.0,,,CLR
2020-12-19 03:00:00,32829.729122,FST,46.0,21.9,38.15,300.0,11.0,30.16,1018.6,10.0,,40.16,CLR
2020-12-19 04:00:00,32429.374284,FST,41.0,21.9,46.19,290.0,11.0,30.19,1020.0,10.0,,33.84,CLR
2020-12-19 05:00:00,32530.058808,FST,37.9,23.0,54.6,280.0,10.0,30.23,1021.6,10.0,,30.37,CLR
2020-12-19 06:00:00,33197.085412,FST,37.0,25.0,61.5,290.0,11.0,30.25,1022.4,10.0,,28.79,CLR
2020-12-19 07:00:00,34289.264365,FST,36.0,26.1,66.97,290.0,10.0,30.27,1023.3,10.0,,27.98,CLR
2020-12-19 08:00:00,35601.74815,FST,35.1,27.0,72.04,280.0,9.0,30.28,1023.9,10.0,,27.37,CLR
2020-12-19 09:00:00,36858.727316,FST,37.9,27.0,64.49,280.0,11.0,30.31,1024.7,10.0,,29.92,CLR
2020-12-19 10:00:00,37921.095035,FST,42.1,28.9,59.22,290.0,10.0,30.31,1024.9,10.0,,35.63,CLR
2020-12-19 11:00:00,38662.000923,FST,46.0,30.0,53.37,290.0,8.0,30.31,1024.5,10.0,,41.36,CLR
2020-12-19 12:00:00,39015.545206,FST,48.9,30.0,47.85,280.0,12.0,30.28,1023.4,10.0,,43.51,CLR
2020-12-19 13:00:00,38742.796282,FST,51.1,30.0,44.09,290.0,9.0,30.23,1021.6,10.0,,,CLR
2020-12-19 14:00:00,38172.857542,FST,54.0,28.9,37.89,290.0,7.0,30.2,1020.3,10.0,,,CLR
2020-12-19 15:00:00,37427.279442,FST,55.9,28.0,34.08,,4.0,30.17,1019.4,10.0,,,CLR
2020-12-19 16:00:00,37143.148097,FST,59.0,27.0,29.25,270.0,8.0,30.16,1019.1,10.0,,,CLR
2020-12-19 17:00:00,37312.881913,FST,59.0,26.1,28.18,260.0,5.0,30.13,1018.2,10.0,,,CLR
2020-12-19 18:00:00,38714.757417,FST,53.1,26.1,34.9,220.0,4.0,30.13,1018.6,10.0,,,CLR
2020-12-19 19:00:00,40455.249506,FST,48.9,25.0,38.95,210.0,6.0,30.13,1018.9,10.0,,45.88,CLR
2020-12-19 20:00:00,40422.962695,FST,46.9,25.0,41.99,230.0,8.0,30.15,1019.7,10.0,,42.47,CLR
2020-12-19 21:00:00,40246.84122,FST,46.0,25.0,43.44,210.0,10.0,30.15,1019.6,10.0,,40.52,CLR
2020-12-19 22:00:00,39820.700301,FST,45.0,18.0,33.55,220.0,10.0,30.15,1019.5,10.0,,39.27,CLR
2020-12-19 23:00:00,38944.203866,FST,45.0,18.0,33.55,220.0,11.0,30.14,1019.1,10.0,,38.89,CLR
2020-12-20 00:00:00,37803.829066,FST,46.0,18.0,32.3,220.0,13.0,30.14,1018.5,10.0,,39.5,CLR
2020-12-20 01:00:00,36832.641396,FST,44.1,18.0,34.72,230.0,10.0,30.15,1019.0,10.0,,38.14,CLR
2020-12-20 02:00:00,36325.455453,FST,43.0,18.0,36.22,230.0,10.0,30.15,1018.8,10.0,,36.76,CLR
2020-12-20 03:00:00,36284.508786,FST,43.0,18.0,36.22,230.0,11.0,30.16,1019.0,10.0,,36.37,CLR
2020-12-20 04:00:00,36537.857868,FST,42.1,18.0,37.49,230.0,10.0,30.16,1019.1,10.0,,35.63,CLR
2020-12-20 05:00:00,37242.339789,FST,42.1,17.1,36.07,240.0,9.0,30.17,1019.5,10.0,,36.07,CLR
2020-12-20 06:00:00,38477.321458,FST,43.0,16.0,33.22,270.0,9.0,30.2,1020.6,10.0,,37.19,CLR
2020-12-20 07:00:00,40115.105144,FST,41.0,16.0,35.88,270.0,9.0,30.22,1021.7,10.0,,34.7,CLR
2020-12-20 08:00:00,41605.402725,FST,37.9,17.1,42.46,290.0,10.0,30.25,1022.9,10.0,,30.37,CLR
2020-12-20 09:00:00,42132.455885,FST,43.0,17.1,34.84,290.0,10.0,30.27,1023.5,10.0,,36.76,CLR
2020-12-20 10:00:00,41288.10578,FST,48.0,18.0,29.96,320.0,10.0,30.3,1024.3,10.0,,43.03,CLR
2020-12-20 11:00:00,39804.254794,FST,50.0,19.0,29.02,320.0,9.0,30.31,1024.4,10.0,,,CLR
2020-12-20 12:00:00,38446.510407,FST,52.0,19.9,28.01,280.0,7.0,30.29,1023.7,10.0,,,CLR
2020-12-20 13:00:00,37401.316719,FST,55.9,19.9,24.28,310.0,6.0,30.25,1022.1,10.0,,,CLR
2020-12-20 14:00:00,36510.887865,FST,57.0,19.9,23.34,280.0,6.0,30.21,1021.0,10.0,,,CLR
2020-12-20 15:00:00,35919.27318,FST,59.0,19.0,20.9,280.0,7.0,30.18,1019.9,10.0,,,CLR
2020-12-20 16:00:00,35784.669075,FST,60.1,18.0,19.25,280.0,7.0,30.15,1018.8,10.0,,,CLR
2020-12-20 17:00:00,36105.336952,FST,59.0,17.1,19.26,300.0,5.0,30.15,1018.8,10.0,,,CLR
2020-12-20 18:00:00,37952.950643,FST,55.0,18.0,23.13,0.0,0.0,30.16,1019.2,10.0,,,CLR
2020-12-20 19:00:00,40195.299013,FST,48.0,18.0,29.96,0.0,0.0,30.16,1019.6,10.0,,,CLR
2020-12-20 20:00:00,40535.025033,FST,46.0,18.0,32.3,180.0,5.0,30.15,1019.7,10.0,,43.02,CLR
2020-12-20 21:00:00,40548.637393,FST,46.9,17.1,30.04,190.0,9.0,30.15,1019.5,10.0,,42.04,CLR
2020-12-20 22:00:00,40222.504303,FST,45.0,17.1,32.28,190.0,10.0,30.14,1018.8,10.0,,39.27,CLR
2020-12-20 23:00:00,39295.045841,FST,44.1,16.0,31.85,210.0,12.0,30.14,1019.0,10.0,,37.4,CLR
2020-12-21 00:00:00,38054.017224,FST,42.1,15.1,33.07,230.0,9.0,30.14,1018.7,10.0,,36.07,CLR
2020-12-21 01:00:00,37129.459776,FST,42.1,14.0,31.51,220.0,12.0,30.12,1018.0,10.0,,34.86,CLR
2020-12-21 02:00:00,36890.008061,FST,46.0,12.0,24.86,230.0,13.0,30.11,1017.4,10.0,,39.5,CLR
2020-12-21 03:00:00,37091.826196,FST,45.0,10.9,24.59,220.0,12.0,30.11,1017.3,10.0,,38.55,CLR
2020-12-21 04:00:00,37609.559222,FST,46.0,10.9,23.68,220.0,11.0,30.12,1017.4,10.0,,40.16,CLR
2020-12-21 05:00:00,38902.313427,FST,46.0,12.0,24.86,220.0,12.0,30.12,1017.4,10.0,,39.82,CLR
2020-12-21 06:00:00,41106.410843,FST,43.0,12.0,27.87,220.0,11.0,30.12,1017.9,10.0,,36.37,CLR
2020-12-21 07:00:00,44047.977631,FST,44.1,10.9,25.45,220.0,12.0,30.13,1018.7,10.0,,37.4,CLR
2020-12-21 08:00:00,45998.045865,FST,44.1,10.0,24.45,220.0,12.0,30.14,1019.1,10.0,,37.4,CLR
2020-12-21 09:00:00,45856.241241,FST,50.0,10.0,19.58,220.0,12.0,30.16,1019.1,10.0,,,CLR
2020-12-21 10:00:00,43927.04888,FST,57.0,10.9,15.77,230.0,9.0,30.17,1019.3,10.0,,,CLR
2020-12-21 11:00:00,42071.949557,FST,62.1,10.9,13.14,230.0,7.0,30.17,1019.3,10.0,,,CLR
2020-12-21 12:00:00,40426.029068,FST,66.0,9.0,10.53,0.0,0.0,30.16,1018.7,10.0,,,CLR
2020-12-21 13:00:00,39295.940582,FST,68.0,10.9,10.7,0.0,0.0,30.12,1017.2,10.0,,,CLR
2020-12-21 14:00:00,38598.00592,FST,69.1,15.1,12.4,40.0,7.0,30.09,1015.9,10.0,,,CLR
2020-12-21 15:00:00,38241.426841,FST,70.0,12.9,10.92,40.0,5.0,30.07,1015.4,10.0,,,CLR
2020-12-21 16:00:00,38136.568041,FST,70.0,12.9,10.92,40.0,10.0,30.08,1015.6,10.0,,,CLR
2020-12-21 17:00:00,38209.950984,FST,66.9,12.0,11.67,50.0,9.0,30.08,1015.9,10.0,,,CLR
2020-12-21 18:00:00,39699.501523,FST,61.0,12.0,14.35,40.0,5.0,30.1,1016.8,10.0,,,CLR
2020-12-21 19:00:00,41243.644388,FST,55.9,12.0,17.23,30.0,7.0,30.11,1017.5,10.0,,,CLR
2020-12-21 20:00:00,41029.20724,FST,52.0,12.0,19.87,10.0,3.0,30.12,1017.9,10.0,,,CLR
2020-12-21 21:00:00,40632.177858,FST,44.1,15.1,30.63,170.0,4.0,30.13,1018.4,10.0,,41.55,CLR
2020-12-21 22:00:00,39873.837873,FST,48.9,10.9,21.23,180.0,11.0,30.14,1018.2,10.0,,43.82,CLR
2020-12-21 23:00:00,38325.466987,FST,48.0,10.0,21.1,170.0,10.0,30.14,1018.0,10.0,,43.03,CLR
2020-12-22 00:00:00,36629.929003,FST,50.0,14.0,23.37,170.0,12.0,30.14,1017.8,10.0,,,CLR
2020-12-22 01:00:00,35319.048014,FST,46.9,17.1,30.04,170.0,9.0,30.13,1017.5,10.0,,42.04,CLR
2020-12-22 02:00:00,34707.383391,FST,45.0,17.1,32.28,200.0,10.0,30.12,1017.2,10.0,,39.27,CLR
2020-12-22 03:00:00,34582.758581,FST,48.0,14.0,25.18,210.0,9.0,30.11,1016.6,10.0,,43.41,CLR
2020-12-22 04:00:00,35038.493712,FST,43.0,14.0,30.44,210.0,6.0,30.1,1016.4,10.0,,38.78,CLR
2020-12-22 05:00:00,36073.237988,FST,43.0,12.9,29.0,210.0,11.0,30.1,1016.5,10.0,,36.37,CLR
2020-12-22 06:00:00,38157.971369,FST,42.1,12.9,30.03,190.0,8.0,30.1,1016.7,10.0,,36.55,CLR
2020-12-22 07:00:00,40862.728654,FST,37.0,14.0,38.44,240.0,3.0,30.11,1017.7,10.0,,34.4,CLR
2020-12-22 08:00:00,42676.635044,FST,39.0,12.9,33.86,240.0,5.0,30.11,1017.8,8.0,,34.71,CLR
2020-12-22 09:00:00,42889.62281,FST,48.0,12.9,23.99,190.0,7.0,30.1,1017.7,10.0,,44.28,CLR
2020-12-22 10:00:00,42067.038175,FST,57.9,14.0,17.51,200.0,6.0,30.12,1017.2,10.0,,,CLR
2020-12-22 11:00:00,41099.178931,FST,66.0,15.1,13.8,200.0,6.0,30.1,1016.6,10.0,,,CLR
2020-12-22 12:00:00,40267.232547,FST,69.1,18.0,14.06,230.0,10.0,30.08,1015.5,10.0,,,CLR
2020-12-22 13:00:00,39580.796242,FST,72.0,17.1,12.25,250.0,9.0,30.04,1013.9,10.0,,,CLR
2020-12-22 14:00:00,39303.12783,FST,73.9,16.0,10.96,240.0,9.0,30.0,1012.6,10.0,,,CLR
2020-12-22 15:00:00,38966.49335,FST,73.9,18.0,11.95,200.0,7.0,29.97,1011.5,10.0,,,CLR
2020-12-22 16:00:00,38787.581797,FST,73.0,17.1,11.84,340.0,8.0,29.95,1011.3,10.0,,,CLR
2020-12-22 17:00:00,38909.504336,FST,70.0,19.0,14.23,10.0,4.0,29.95,1011.4,10.0,,,CLR
2020-12-22 18:00:00,40448.965678,FST,64.0,19.9,18.2,0.0,0.0,29.95,1011.6,10.0,,,CLR
2020-12-22 19:00:00,41809.262635,FST,60.1,19.0,20.09,180.0,6.0,29.95,1012.1,10.0,,,CLR
2020-12-22 20:00:00,41362.030486,FST,60.1,18.0,19.25,210.0,7.0,29.96,1012.3,10.0,,,CLR
2020-12-22 21:00:00,40801.243976,FST,61.0,17.1,17.94,210.0,11.0,29.96,1011.7,10.0,,,CLR
2020-12-22 22:00:00,39760.900129,FST,57.9,19.0,21.74,180.0,9.0,29.95,1011.1,10.0,,,CLR
2020-12-22 23:00:00,37960.478214,FST,57.0,19.9,23.34,190.0,8.0,29.95,1010.6,10.0,,,CLR
2020-12-23 00:00:00,35867.067598,FST,57.9,19.9,22.59,210.0,7.0,29.94,1010.4,10.0,,,CLR
2020-12-23 01:00:00,34117.903063,FST,55.0,19.0,24.14,220.0,10.0,29.94,1010.2,10.0,,,CLR
2020-12-23 02:00:00,32960.172446,FST,55.0,18.0,23.13,220.0,12.0,29.93,1009.7,10.0,,,CLR
2020-12-23 03:00:00,32272.927339,FST,52.0,18.0,25.82,220.0,12.0,29.93,1009.9,10.0,,,CLR
2020-12-23 04:00:00,31967.874915,FST,50.0,19.0,29.02,220.0,10.0,29.94,1010.4,10.0,,,CLR
2020-12-23 05:00:00,32418.299985,FST,51.1,18.0,26.69,210.0,11.0,29.94,1010.5,10.0,,,CLR
2020-12-23 06:00:00,33580.434489,FST,46.9,18.0,31.22,220.0,10.0,29.95,1011.4,10.0,,41.65,CLR
2020-12-23 07:00:00,35517.25436,FST,46.0,18.0,32.3,220.0,10.0,29.97,1012.2,10.0,,40.52,CLR
2020-12-23 08:00:00,36865.713413,FST,48.0,18.0,29.96,230.0,8.0,29.99,1012.8,10.0,,43.82,CLR
2020-12-23 09:00:00,37840.46281,FST,53.1,19.9,26.89,250.0,5.0,30.0,1013.0,10.0,,,CLR
2020-12-23 10:00:00,38800.645031,FST,63.0,21.0,19.75,260.0,10.0,30.01,1012.9,10.0,,,CLR
2020-12-23 11:00:00,39496.772324,FST,66.0,18.0,16.25,280.0,24.0,30.01,1012.8,9.0,33.0,,FEW
2020-12-23 12:00:00,39999.849423,FST,68.0,14.0,12.27,300.0,18.0,30.0,1012.5,10.0,25.0,,CLR
2020-12-23 13:00:00,40124.880726,FST,69.1,15.1,12.4,320.0,16.0,29.97,1011.6,10.0,22.0,,CLR
2020-12-23 14:00:00,40384.642725,FST,70.0,12.9,10.92,290.0,12.0,29.94,1010.3,10.0,23.0,,CLR
2020-12-23 15:00:00,40611.782701,FST,70.0,10.9,9.99,340.0,18.0,29.93,1010.4,10.0,,,CLR
2020-12-23 16:00:00,40708.780619,FST,66.9,10.0,10.68,320.0,12.0,29.93,1010.5,10.0,,,CLR
2020-12-23 17:00:00,40836.036764,FST,61.0,14.0,15.67,50.0,13.0,29.96,1011.8,10.0,,,CLR
2020-12-23 18:00:00,42090.062725,FST,54.0,15.1,21.16,40.0,18.0,30.02,1014.4,10.0,26.0,,CLR
2020-12-23 19:00:00,43209.271588,FST,50.0,12.9,22.27,30.0,13.0,30.11,1017.7,10.0,,,CLR
2020-12-23 20:00:00,42991.879186,FST,46.9,10.0,21.99,40.0,12.0,30.2,1020.6,10.0,18.0,40.97,CLR
2020-12-23 21:00:00,42818.933949,FST,43.0,10.0,25.5,40.0,12.0,30.26,1022.8,10.0,20.0,36.0,CLR
2020-12-23 22:00:00,42223.065939,FST,39.9,6.1,24.11,30.0,17.0,30.32,1024.3,7.0,23.0,30.42,BKN
2020-12-23 23:00:00,41062.313801,FST,37.9,5.0,24.79,30.0,13.0,30.36,1026.1,7.0,,29.92,OVC
2020-12-24 00:00:00,39806.92453,FST,33.1,3.9,28.52,350.0,7.0,30.4,1027.2,8.0,,26.12,CLR
2020-12-24 01:00:00,39020.13962,FST,30.0,5.0,33.99,320.0,7.0,30.42,1028.1,8.0,,22.34,CLR
2020-12-24 02:00:00,38637.370445,FST,28.9,7.0,38.95,300.0,7.0,30.44,1028.7,10.0,,21.0,CLR
2020-12-24 03:00:00,38718.415486,FST,26.1,6.1,41.95,280.0,7.0,30.45,1029.2,9.0,,17.59,CLR
2020-12-24 04:00:00,39368.679742,FST,26.1,6.1,41.95,270.0,7.0,30.45,1029.4,9.0,,17.59,CLR
2020-12-24 05:00:00,40540.606652,FST,24.1,6.1,45.59,240.0,6.0,30.42,1028.9,9.0,,16.02,CLR
2020-12-24 06:00:00,42608.527963,FST,25.0,7.0,45.75,220.0,9.0,30.42,1029.2,9.0,,14.81,CLR
2020-12-24 07:00:00,45202.012721,FST,25.0,6.1,43.91,240.0,8.0,30.44,1030.2,9.0,,15.49,CLR
2020-12-24 08:00:00,47470.817316,FST,23.0,6.1,47.75,220.0,11.0,30.46,1031.0,8.0,,11.09,CLR
2020-12-24 09:00:00,48634.963172,FST,28.0,7.0,40.41,220.0,10.0,30.45,1030.8,8.0,,17.95,CLR
2020-12-24 10:00:00,48202.219269,FST,35.1,7.0,30.33,250.0,8.0,30.48,1031.3,8.0,,27.93,CLR
2020-12-24 11:00:00,46982.838305,FST,39.9,3.9,21.8,290.0,6.0,30.48,1031.4,10.0,,35.04,CLR
2020-12-24 12:00:00,45437.253144,FST,44.1,1.9,16.9,280.0,10.0,30.45,1030.5,10.0,,38.14,CLR
2020-12-24 13:00:00,43808.541535,FST,46.9,1.9,15.2,310.0,6.0,30.43,1029.7,10.0,,43.48,CLR
2020-12-24 14:00:00,42198.594604,FST,48.9,-0.9,12.37,300.0,8.0,30.41,1028.8,10.0,15.0,44.93,CLR
2020-12-24 15:00:00,41049.026935,FST,51.1,-2.0,10.82,320.0,6.0,30.38,1028.0,10.0,,,CLR
2020-12-24 16:00:00,40408.079844,FST,51.1,-0.9,11.4,290.0,5.0,30.37,1027.7,10.0,,,CLR
2020-12-24 17:00:00,40497.989701,FST,50.0,-2.0,11.27,340.0,6.0,30.36,1027.6,10.0,,,CLR
2020-12-24 18:00:00,42069.235649,FST,46.9,-2.0,12.66,0.0,0.0,30.34,1027.1,10.0,,,CLR
2020-12-24 19:00:00,43634.83129,FST,43.0,0.0,16.13,0.0,0.0,30.35,1027.5,10.0,,,CLR
2020-12-24 20:00:00,43479.309771,FST,39.0,1.0,19.74,180.0,5.0,30.36,1028.2,10.0,,34.71,CLR
2020-12-24 21:00:00,43271.316174,FST,39.0,0.0,18.84,210.0,8.0,30.36,1027.7,10.0,,32.74,CLR
2020-12-24 22:00:00,43197.775347,FST,37.9,0.0,19.66,220.0,10.0,30.36,1027.4,10.0,,30.37,CLR
2020-12-24 23:00:00,42663.104877,FST,37.0,-0.9,19.53,220.0,9.0,30.36,1027.2,10.0,,29.73,CLR
2020-12-25 00:00:00,41945.602736,FST,35.1,0.0,21.96,220.0,11.0,30.36,1026.9,10.0,,26.38,CLR
2020-12-25 01:00:00,41179.04729,FST,35.1,0.0,21.96,220.0,12.0,30.35,1026.5,10.0,,25.95,CLR
2020-12-25 02:00:00,40907.103797,FST,34.0,1.0,24.05,220.0,11.0,30.32,1025.6,10.0,,24.99,CLR
2020-12-25 03:00:00,40809.862889,FST,35.1,0.0,21.96,220.0,12.0,30.33,1025.7,10.0,,25.95,CLR
2020-12-25 04:00:00,41037.460141,FST,35.1,-0.9,21.05,220.0,11.0,30.33,1025.8,10.0,,26.38,CLR
2020-12-25 05:00:00,41726.111549,FST,34.0,0.0,22.95,220.0,10.0,30.32,1025.4,10.0,,25.48,CLR
2020-12-25 06:00:00,42987.449729,FST,34.0,-2.0,20.88,220.0,11.0,30.31,1025.3,10.0,,24.99,CLR
2020-12-25 07:00:00,44558.412615,FST,33.1,-0.9,22.8,220.0,10.0,30.32,1025.8,10.0,,24.35,CLR
2020-12-25 08:00:00,45798.88186,FST,32.0,-2.0,22.63,210.0,6.0,30.33,1026.6,10.0,,25.53,CLR
2020-12-25 09:00:00,45573.728772,FST,39.9,-0.9,17.43,200.0,7.0,30.33,1025.9,10.0,,34.41,CLR
2020-12-25 10:00:00,43587.972498,FST,46.9,-2.0,12.66,240.0,6.0,30.33,1025.7,10.0,,43.48,CLR
2020-12-25 11:00:00,41408.686517,FST,53.1,-2.0,10.05,90.0,3.0,30.32,1025.1,10.0,,,CLR
2020-12-25 12:00:00,39385.173754,FST,57.9,-0.9,8.89,0.0,0.0,30.3,1024.2,10.0,,,CLR
2020-12-25 13:00:00,37546.420718,FST,62.1,-2.0,7.27,,5.0,30.26,1022.5,10.0,,,CLR
2020-12-25 14:00:00,36078.523591,FST,62.1,-5.1,6.27,,5.0,30.21,1021.2,10.0,,,CLR
2020-12-25 15:00:00,35044.560929,FST,64.0,-4.0,6.18,190.0,6.0,30.17,1019.6,10.0,,,CLR
2020-12-25 16:00:00,34552.28106,FST,64.9,-9.0,4.7,170.0,9.0,30.15,1018.9,10.0,,,CLR
2020-12-25 17:00:00,34487.985056,FST,63.0,-9.0,5.03,180.0,7.0,30.15,1018.9,10.0,,,CLR
2020-12-25 18:00:00,35876.681465,FST,57.0,-9.0,6.22,170.0,6.0,30.14,1019.0,10.0,,,CLR
2020-12-25 19:00:00,37748.034656,FST,53.1,-8.0,7.53,210.0,11.0,30.15,1019.7,10.0,,,CLR
2020-12-25 20:00:00,38164.367411,FST,48.0,-2.9,11.64,200.0,8.0,30.16,1020.3,10.0,,43.82,CLR
2020-12-25 21:00:00,38475.194551,FST,44.1,-4.0,12.8,190.0,9.0,30.18,1020.5,10.0,,38.56,CLR
2020-12-25 22:00:00,38627.265956,FST,48.0,-2.9,11.64,180.0,9.0,30.17,1019.8,10.0,,43.41,CLR
2020-12-25 23:00:00,38396.641387,FST,48.9,0.0,12.9,170.0,10.0,30.17,1019.4,10.0,,44.16,CLR
2020-12-26 00:00:00,37778.706857,FST,50.0,3.9,14.85,160.0,10.0,30.14,1018.0,10.0,,,FEW
2020-12-26 01:00:00,37183.605926,FST,48.9,6.1,17.11,160.0,9.0,30.13,1017.5,10.0,,44.53,BKN
2020-12-26 02:00:00,36845.335854,FST,46.9,6.1,18.44,160.0,9.0,30.1,1016.8,10.0,,42.04,SCT
2020-12-26 03:00:00,36827.349042,FST,45.0,3.9,17.92,240.0,9.0,30.11,1017.0,10.0,,39.68,CLR
2020-12-26 04:00:00,37184.178586,FST,41.0,1.9,19.04,230.0,8.0,30.1,1016.9,10.0,,35.2,CLR
2020-12-26 05:00:00,37979.562608,FST,41.0,1.9,19.04,230.0,7.0,30.09,1016.6,10.0,,35.75,CLR
2020-12-26 06:00:00,39233.72158,FST,42.1,3.0,19.21,220.0,9.0,30.09,1016.8,10.0,,36.07,CLR
2020-12-26 07:00:00,41058.769636,FST,39.9,3.0,20.91,200.0,8.0,30.09,1017.3,10.0,,33.84,CLR
2020-12-26 08:00:00,42665.082095,FST,39.9,5.0,22.93,170.0,8.0,30.09,1017.5,10.0,,33.84,CLR
2020-12-26 09:00:00,43027.623083,FST,48.9,7.0,17.82,200.0,9.0,30.1,1017.5,10.0,,44.53,CLR
2020-12-26 10:00:00,41944.681811,FST,55.9,12.9,17.93,220.0,10.0,30.11,1017.1,10.0,,,CLR
2020-12-26 11:00:00,40251.030391,FST,62.1,18.0,17.93,260.0,5.0,30.11,1016.8,10.0,,,CLR
2020-12-26 12:00:00,38652.060431,FST,64.0,19.9,18.2,270.0,4.0,30.08,1015.7,10.0,,,CLR
2020-12-26 13:00:00,37454.254672,FST,66.9,26.1,21.35,220.0,7.0,30.03,1014.1,10.0,,,CLR
2020-12-26 14:00:00,36484.81591,FST,70.0,27.0,19.92,270.0,13.0,29.99,1012.3,10.0,,,CLR
2020-12-26 15:00:00,35751.501896,FST,72.0,28.0,19.39,270.0,11.0,29.96,1011.4,10.0,,,CLR
2020-12-26 16:00:00,35443.028436,FST,72.0,28.0,19.39,280.0,8.0,29.94,1010.8,10.0,,,CLR
2020-12-26 17:00:00,35537.535709,FST,72.0,26.1,17.93,270.0,5.0,29.93,1010.4,10.0,,,CLR
2020-12-26 18:00:00,36920.662162,FST,64.9,24.1,21.05,320.0,4.0,29.93,1010.8,10.0,,,CLR
2020-12-26 19:00:00,38952.432067,FST,59.0,24.1,25.93,0.0,0.0,29.95,1011.7,10.0,,,CLR
2020-12-26 20:00:00,39133.65547,FST,55.0,23.0,28.61,240.0,8.0,29.95,1012.1,10.0,,,CLR
2020-12-26 21:00:00,38885.553122,FST,54.0,24.1,31.07,210.0,10.0,29.95,1011.7,10.0,,,CLR
2020-12-26 22:00:00,38316.466695,FST,55.0,21.9,27.31,230.0,12.0,29.95,1011.2,10.0,,,CLR
2020-12-26 23:00:00,37245.416933,FST,53.1,21.9,29.28,220.0,12.0,29.94,1010.8,10.0,,,CLR
2020-12-27 00:00:00,35875.940506,FST,53.1,23.0,30.67,210.0,11.0,29.93,1010.5,10.0,,,CLR
2020-12-27 01:00:00,34634.146427,FST,52.0,23.0,31.93,230.0,10.0,29.94,1010.8,10.0,,,CLR
2020-12-27 02:00:00,33899.714708,FST,53.1,23.0,30.67,220.0,12.0,29.94,1010.4,10.0,,,CLR
2020-12-27 03:00:00,33369.750942,FST,48.9,21.9,34.2,220.0,11.0,29.94,1010.4,10.0,,43.82,CLR
2020-12-27 04:00:00,33314.547964,FST,52.0,21.0,29.35,210.0,10.0,29.94,1010.4,10.0,,,CLR
2020-12-27 05:00:00,33593.054502,FST,52.0,21.0,29.35,220.0,11.0,29.94,1010.3,10.0,,,CLR
2020-12-27 06:00:00,34246.348026,FST,51.1,21.9,31.52,220.0,12.0,29.93,1010.6,10.0,,,CLR
2020-12-27 07:00:00,35329.387718,FST,50.0,24.1,36.01,220.0,10.0,29.95,1011.6,10.0,,,CLR
2020-12-27 08:00:00,36224.511114,FST,50.0,25.0,37.39,220.0,11.0,29.98,1012.5,10.0,,,CLR
2020-12-27 09:00:00,36614.279481,FST,55.0,25.0,31.11,220.0,12.0,29.99,1012.8,10.0,,,CLR
2020-12-27 10:00:00,36422.263351,FST,63.0,25.0,23.36,230.0,10.0,30.01,1013.1,10.0,,,CLR
2020-12-27 11:00:00,36111.498578,FST,68.0,25.0,19.63,220.0,7.0,30.02,1013.3,10.0,,,CLR
2020-12-27 12:00:00,35926.346246,FST,71.1,24.1,17.01,220.0,4.0,30.01,1012.9,10.0,,,CLR
2020-12-27 13:00:00,35701.536425,FST,73.9,19.0,12.47,,3.0,29.99,1011.9,10.0,,,CLR
2020-12-27 14:00:00,35493.664669,FST,75.0,18.0,11.51,240.0,5.0,29.96,1011.0,10.0,,,CLR
2020-12-27 15:00:00,35443.744365,FST,75.9,18.0,11.17,320.0,7.0,29.95,1010.7,10.0,,,CLR
2020-12-27 16:00:00,35566.242896,FST,75.0,18.0,11.51,330.0,6.0,29.95,1010.6,10.0,,,CLR
2020-12-27 17:00:00,35722.528656,FST,73.9,21.0,13.58,10.0,7.0,29.96,1011.1,10.0,,,CLR
2020-12-27 18:00:00,36996.898123,FST,68.0,19.9,15.84,20.0,4.0,29.98,1011.9,10.0,,,CLR
2020-12-27 19:00:00,38734.406224,FST,60.1,21.9,22.73,90.0,4.0,30.0,1013.1,10.0,,,CLR
2020-12-27 20:00:00,38639.743392,FST,59.0,23.0,24.76,130.0,6.0,30.01,1013.6,10.0,,,CLR
2020-12-27 21:00:00,38071.848737,FST,57.0,21.9,25.4,120.0,9.0,30.02,1013.8,10.0,,,CLR
2020-12-27 22:00:00,37217.537889,FST,52.0,19.9,28.01,150.0,7.0,30.03,1013.8,10.0,,,CLR
2020-12-27 23:00:00,35851.461323,FST,46.0,19.0,33.72,170.0,8.0,30.04,1014.4,10.0,,41.36,CLR
2020-12-28 00:00:00,34260.585578,FST,54.0,25.0,32.26,160.0,11.0,30.03,1013.6,10.0,,,CLR
2020-12-28 01:00:00,33051.828388,FST,55.0,27.0,33.79,160.0,11.0,30.02,1013.1,10.0,,,CLR
2020-12-28 02:00:00,32322.078698,FST,52.0,27.0,37.72,160.0,9.0,30.02,1013.1,10.0,,,CLR
2020-12-28 03:00:00,31910.236226,FST,51.1,27.0,38.99,160.0,8.0,30.02,1013.0,10.0,,,CLR
2020-12-28 04:00:00,32032.18459,FST,50.0,28.0,42.33,150.0,6.0,30.01,1012.9,10.0,,,CLR
2020-12-28 05:00:00,32700.733706,FST,48.0,27.0,43.77,0.0,0.0,30.01,1013.1,10.0,,,CLR
2020-12-28 06:00:00,34143.565332,FST,43.0,25.0,48.7,350.0,6.0,30.03,1014.1,10.0,,38.78,CLR
2020-12-28 07:00:00,36142.824355,FST,42.1,28.0,57.08,150.0,7.0,30.03,1014.5,10.0,,37.09,CLR
2020-12-28 08:00:00,37672.540312,FST,42.1,23.0,46.37,270.0,9.0,30.06,1015.7,10.0,,36.07,CLR
2020-12-28 09:00:00,38580.342846,FST,42.1,19.0,39.14,260.0,4.0,30.09,1016.7,10.0,,39.21,CLR
2020-12-28 10:00:00,39255.396288,FST,48.0,19.9,32.5,280.0,3.0,30.11,1017.4,10.0,,46.98,CLR
2020-12-28 11:00:00,39701.438885,FST,52.0,21.9,30.49,330.0,5.0,30.13,1018.1,10.0,,,CLR
2020-12-28 12:00:00,40051.510164,FST,55.9,23.0,27.69,270.0,4.0,30.12,1017.1,10.0,,,CLR
2020-12-28 13:00:00,40054.820939,FST,57.9,26.1,29.32,290.0,4.0,30.11,1015.6,10.0,,,CLR
2020-12-28 14:00:00,39991.295782,FST,62.1,32.0,32.13,100.0,2.0,30.07,1014.1,10.0,,,CLR
2020-12-28 15:00:00,39873.219749,FST,64.0,42.1,44.74,110.0,11.0,30.0,1013.0,10.0,,,CLR
2020-12-28 16:00:00,39771.383316,FST,62.1,46.0,55.51,110.0,14.0,30.0,1013.1,10.0,,,CLR
2020-12-28 17:00:00,39840.519222,FST,60.1,44.1,55.44,130.0,15.0,30.0,1013.1,10.0,,,CLR
2020-12-28 18:00:00,40883.702191,FST,60.1,45.0,57.37,140.0,14.0,29.98,1012.8,10.0,22.0,,CLR
2020-12-28 19:00:00,42220.533314,FST,57.9,46.9,66.7,160.0,14.0,30.01,1013.8,10.0,22.0,,CLR
2020-12-28 20:00:00,41571.1484,FST,57.9,48.0,69.52,140.0,8.0,30.02,1014.3,10.0,,,CLR
2020-12-28 21:00:00,40624.57797,FST,59.0,48.9,69.12,140.0,12.0,29.98,1013.0,10.0,22.0,,CLR
2020-12-28 22:00:00,39297.319903,FST,60.1,48.9,66.46,140.0,13.0,29.98,1012.5,10.0,19.0,,CLR
2020-12-28 23:00:00,37395.071197,FST,61.0,48.0,62.23,150.0,10.0,29.99,1012.5,10.0,,,CLR
2020-12-29 00:00:00,35512.577364,FST,60.1,46.9,61.65,140.0,13.0,29.98,1011.1,10.0,20.0,,CLR
2020-12-29 01:00:00,33713.352451,FST,59.0,46.9,64.12,160.0,19.0,29.94,1009.7,10.0,24.0,,CLR
2020-12-29 02:00:00,32563.680384,FST,57.0,48.9,74.27,160.0,22.0,29.89,1009.0,10.0,30.0,,CLR
2020-12-29 03:00:00,31916.140259,FST,57.9,51.1,78.03,160.0,21.0,29.88,1008.4,10.0,32.0,,CLR
2020-12-29 04:00:00,31720.027705,FST,57.9,52.0,80.67,160.0,21.0,29.86,1008.0,10.0,28.0,,CLR
2020-12-29 05:00:00,32033.558936,FST,57.9,52.0,80.67,160.0,22.0,29.86,1007.9,10.0,30.0,,CLR
2020-12-29 06:00:00,33139.618046,FST,57.0,51.1,80.6,170.0,20.0,29.86,1007.9,10.0,29.0,,CLR
2020-12-29 07:00:00,34938.807753,FST,57.0,51.1,80.6,180.0,18.0,29.88,1008.8,10.0,,,CLR
2020-12-29 08:00:00,36257.444477,FST,55.9,50.0,80.52,170.0,11.0,29.9,1009.4,10.0,,,CLR
2020-12-29 09:00:00,37143.66363,FST,57.0,50.0,77.38,170.0,13.0,29.91,1009.7,10.0,,,CLR
2020-12-29 10:00:00,38137.441915,FST,61.0,50.0,67.06,160.0,19.0,29.91,1009.3,10.0,25.0,,CLR
2020-12-29 11:00:00,38895.785554,FST,64.9,50.0,58.47,170.0,19.0,29.91,1008.5,10.0,24.0,,CLR
2020-12-29 12:00:00,39280.960105,FST,69.1,46.9,45.02,170.0,22.0,29.88,1007.1,10.0,22.0,,CLR
2020-12-29 13:00:00,39385.375383,FST,73.9,39.0,28.25,180.0,22.0,29.84,1004.6,10.0,29.0,,CLR
2020-12-29 14:00:00,39332.589709,FST,75.9,37.9,25.31,190.0,23.0,29.78,1003.5,10.0,24.0,,CLR
2020-12-29 15:00:00,39141.154298,FST,77.0,36.0,22.64,180.0,21.0,29.75,1002.5,10.0,27.0,,CLR
2020-12-29 16:00:00,38981.556957,FST,78.1,32.0,18.61,200.0,19.0,29.72,1002.2,10.0,24.0,,CLR
2020-12-29 17:00:00,39105.468114,FST,75.9,33.1,20.92,180.0,17.0,29.72,1002.4,10.0,22.0,,CLR
2020-12-29 18:00:00,40062.18995,FST,69.1,45.0,41.9,170.0,11.0,29.75,1003.8,10.0,,,CLR
2020-12-29 19:00:00,41152.679854,FST,64.9,48.0,54.26,170.0,6.0,29.77,1004.8,10.0,,,CLR
2020-12-29 20:00:00,40571.913314,FST,62.1,48.9,61.91,0.0,0.0,29.8,1006.1,10.0,,,SCT
2020-12-29 21:00:00,39668.004133,FST,60.1,48.9,66.46,,3.0,29.8,1006.0,10.0,,,FEW
2020-12-29 22:00:00,38551.635931,FST,57.9,35.1,42.24,260.0,10.0,29.83,1006.9,10.0,,,CLR
2020-12-29 23:00:00,36883.2607,FST,55.9,34.0,43.46,280.0,12.0,29.84,1007.3,10.0,,,CLR
2020-12-30 00:00:00,34946.596188,FST,55.0,28.0,35.21,300.0,17.0,29.85,1007.3,10.0,22.0,,CLR
2020-12-30 01:00:00,33257.117957,FST,51.1,28.0,40.63,290.0,17.0,29.86,1007.5,10.0,,,CLR
2020-12-30 02:00:00,32155.743489,FST,50.0,28.9,43.92,310.0,15.0,29.87,1008.1,10.0,18.0,,CLR
2020-12-30 03:00:00,31417.824174,FST,48.0,28.0,45.61,300.0,11.0,29.89,1008.7,10.0,,42.69,FEW
2020-12-30 04:00:00,31129.41972,FST,46.0,28.0,49.18,300.0,15.0,29.91,1009.3,10.0,,39.21,CLR
2020-12-30 05:00:00,31464.057055,FST,44.1,28.0,52.86,300.0,13.0,29.93,1010.2,10.0,,37.76,CLR
2020-12-30 06:00:00,32566.193749,FST,42.1,27.0,54.78,320.0,11.0,29.96,1011.7,10.0,,38.39,CLR
2020-12-30 07:00:00,34405.714063,FST,39.9,28.0,62.15,300.0,8.0,29.99,1013.0,10.0,,34.41,CLR
2020-12-30 08:00:00,36092.848788,FST,44.1,37.0,75.93,360.0,9.0,30.04,1014.6,10.0,,39.02,SCT
2020-12-30 09:00:00,37539.027676,FST,43.0,36.0,76.12,360.0,19.0,30.08,1015.9,10.0,19.0,35.34,OVC
2020-12-30 10:00:00,39240.140633,FST,39.9,35.1,82.8,360.0,17.0,30.1,1017.2,10.0,19.0,32.06,OVC
2020-12-30 11:00:00,40867.337254,FST,37.9,35.6,93.14,20.0,14.0,30.13,1018.3,10.0,,29.13,OVC
2020-12-30 12:00:00,42041.087323,FST,37.0,35.1,93.08,30.0,15.0,30.14,1018.2,10.0,19.0,29.04,BKN
2020-12-30 13:00:00,42550.897871,FST,35.1,34.0,95.71,360.0,11.0,30.12,1017.9,4.0,,27.93,BKN
2020-12-30 14:00:00,42930.428139,FST,36.0,34.0,92.35,360.0,13.0,30.1,1016.6,6.0,,27.09,OVC
2020-12-30 15:00:00,43107.113746,FST,35.1,34.0,95.71,360.0,15.0,30.06,1016.1,8.0,,25.54,OVC
2020-12-30 16:00:00,43257.394902,FST,34.0,33.1,100.0,360.0,14.0,30.09,1017.6,7.0,,25.23,OVC
2020-12-30 17:00:00,43749.948452,FST,32.0,30.9,95.65,340.0,11.0,30.11,1018.1,1.0,,22.47,OVC
2020-12-30 18:00:00,45161.452659,FST,32.0,30.9,95.65,340.0,11.0,30.11,1018.7,1.25,,24.11,VV 
2020-12-30 19:00:00,45934.418428,FST,32.0,30.9,95.65,340.0,11.0,30.12,1019.0,2.0,,23.51,OVC
2020-12-30 20:00:00,45460.331174,FST,32.0,30.9,95.65,360.0,11.0,30.14,1019.7,2.0,,24.11,VV 
2020-12-30 21:00:00,44785.4356,FST,32.0,32.0,100.0,360.0,11.0,30.15,1020.0,3.0,,24.11,OVC
2020-12-30 22:00:00,43812.739922,FST,32.0,30.9,100.0,360.0,13.0,30.15,1019.5,3.0,,23.51,OVC
2020-12-30 23:00:00,42113.28701,FST,30.9,30.9,100.0,360.0,11.0,30.14,1020.1,1.5,,22.76,BKN
2020-12-31 00:00:00,40488.742214,FST,30.9,30.9,100.0,350.0,10.0,30.13,1018.9,1.0,,24.21,BKN
2020-12-31 01:00:00,39134.621395,FST,30.9,30.0,96.41,330.0,11.0,30.1,1018.0,0.75,,21.08,VV 
2020-12-31 02:00:00,38274.142333,FST,30.0,30.0,100.0,330.0,12.0,30.09,1017.4,1.25,,21.65,BKN
2020-12-31 03:00:00,37779.535295,FST,28.9,28.9,100.0,360.0,17.0,30.08,1018.1,1.25,,21.8,BKN
2020-12-31 04:00:00,37808.371363,FST,28.9,28.9,100.0,30.0,5.0,30.08,1018.1,1.25,,23.8,OVC
2020-12-31 05:00:00,38502.847532,FST,28.9,28.9,100.0,360.0,6.0,30.06,1017.0,1.75,,23.8,FEW
2020-12-31 06:00:00,39949.327378,FST,28.9,28.9,100.0,360.0,11.0,30.03,1016.8,1.75,,22.71,BKN
2020-12-31 07:00:00,41970.398794,FST,28.9,28.0,96.38,360.0,10.0,30.05,1017.2,1.5,,21.8,BKN
2020-12-31 08:00:00,43908.286213,FST,28.0,28.0,100.0,350.0,8.0,30.04,1016.9,2.0,,22.75,FEW
2020-12-31 09:00:00,45639.627762,FST,28.0,28.0,100.0,350.0,5.0,30.03,1016.6,9.0,,24.12,FEW
2020-12-31 10:00:00,47320.240573,FST,28.9,28.0,96.38,250.0,7.0,30.03,1016.8,10.0,,,FEW
2020-12-31 11:00:00,48615.874875,FST,28.9,28.9,100.0,220.0,5.0,30.04,1016.7,10.0,,25.14,BKN
2020-12-31 12:00:00,49202.183696,FST,30.0,27.0,88.44,290.0,12.0,30.02,1015.6,7.0,,19.46,OVC
2020-12-31 13:00:00,49095.42998,FST,30.0,28.0,92.15,300.0,14.0,29.99,1014.3,9.0,,19.46,BKN
2020-12-31 14:00:00,48586.72624,FST,30.0,28.0,92.15,310.0,15.0,29.95,1013.2,1.0,16.0,21.65,SCT
2020-12-31 15:00:00,48180.459312,FST,30.0,28.9,95.61,330.0,7.0,29.92,1012.4,9.0,,26.4,SCT
2020-12-31 16:00:00,47936.142951,FST,30.0,28.0,92.15,250.0,10.0,29.9,1012.0,10.0,,23.12,OVC
2020-12-31 17:00:00,48350.268539,FST,30.9,27.0,85.26,240.0,11.0,29.89,1011.6,10.0,,22.15,FEW
2020-12-31 18:00:00,49931.760367,FST,32.0,27.0,81.55,230.0,11.0,29.88,1011.5,10.0,,22.97,SCT
2020-12-31 19:00:00,50480.019624,FST,32.0,27.0,81.55,230.0,10.0,29.89,1011.9,10.0,,23.51,FEW
2020-12-31 20:00:00,49349.203353,FST,30.9,26.1,82.15,230.0,9.0,29.89,1012.3,10.0,,22.15,BKN
2020-12-31 21:00:00,47980.656897,FST,28.0,21.9,77.57,230.0,11.0,29.9,1012.7,10.0,,17.95,CLR
2020-12-31 22:00:00,46754.840878,FST,26.1,19.0,74.16,230.0,11.0,29.9,1012.9,10.0,,21.94,CLR
2020-12-31 23:00:00,45475.412261,FST,24.1,18.0,77.21,240.0,8.0,29.91,1012.8,10.0,,,CLR
